<?xml version="1.0" encoding="UTF-8"?>
<gpx creator="StravaGPX" version="1.1" xmlns="http://www.topografix.com/GPX/1/1" xmlns:xsi="http://www.w3.org/2001/XMLSchema-instance" xsi:schemaLocation="http://www.topografix.com/GPX/1/1 http://www.topografix.com/GPX/1/1/gpx.xsd">
 <trk>
  <name>Topa the island time trial!!</name>
  <type>running</type>
  <trkseg>
   <trkpt lat="40.9938130" lon="-112.2025760">
    <ele>1378.0</ele>
   </trkpt>
   <trkpt lat="40.9937420" lon="-112.2026200">
    <ele>1378.4</ele>
   </trkpt>
   <trkpt lat="40.9937020" lon="-112.2026420">
    <ele>1378.7</ele>
   </trkpt>
   <trkpt lat="40.9936650" lon="-112.2026720">
    <ele>1379.0</ele>
   </trkpt>
   <trkpt lat="40.9935950" lon="-112.2027280">
    <ele>1379.9</ele>
   </trkpt>
   <trkpt lat="40.9935160" lon="-112.2028080">
    <ele>1381.2</ele>
   </trkpt>
   <trkpt lat="40.9935030" lon="-112.2028520">
    <ele>1381.7</ele>
   </trkpt>
   <trkpt lat="40.9934910" lon="-112.2028960">
    <ele>1382.3</ele>
   </trkpt>
   <trkpt lat="40.9934680" lon="-112.2029820">
    <ele>1383.5</ele>
   </trkpt>
   <trkpt lat="40.9934660" lon="-112.2030990">
    <ele>1385.2</ele>
   </trkpt>
   <trkpt lat="40.9934740" lon="-112.2031720">
    <ele>1386.4</ele>
   </trkpt>
   <trkpt lat="40.9934900" lon="-112.2032760">
    <ele>1388.2</ele>
   </trkpt>
   <trkpt lat="40.9934990" lon="-112.2033130">
    <ele>1388.9</ele>
   </trkpt>
   <trkpt lat="40.9935070" lon="-112.2033400">
    <ele>1389.4</ele>
   </trkpt>
   <trkpt lat="40.9935890" lon="-112.2034980">
    <ele>1392.9</ele>
   </trkpt>
   <trkpt lat="40.9936060" lon="-112.2035170">
    <ele>1393.4</ele>
   </trkpt>
   <trkpt lat="40.9937100" lon="-112.2036710">
    <ele>1397.2</ele>
   </trkpt>
   <trkpt lat="40.9937190" lon="-112.2036950">
    <ele>1397.6</ele>
   </trkpt>
   <trkpt lat="40.9937290" lon="-112.2037160">
    <ele>1398.1</ele>
   </trkpt>
   <trkpt lat="40.9938100" lon="-112.2037830">
    <ele>1400.3</ele>
   </trkpt>
   <trkpt lat="40.9938320" lon="-112.2037910">
    <ele>1400.8</ele>
   </trkpt>
   <trkpt lat="40.9939290" lon="-112.2038350">
    <ele>1402.9</ele>
   </trkpt>
   <trkpt lat="40.9939520" lon="-112.2038470">
    <ele>1403.4</ele>
   </trkpt>
   <trkpt lat="40.9940150" lon="-112.2038790">
    <ele>1404.7</ele>
   </trkpt>
   <trkpt lat="40.9940240" lon="-112.2039000">
    <ele>1405.1</ele>
   </trkpt>
   <trkpt lat="40.9940480" lon="-112.2039390">
    <ele>1405.8</ele>
   </trkpt>
   <trkpt lat="40.9940900" lon="-112.2040130">
    <ele>1407.2</ele>
   </trkpt>
   <trkpt lat="40.9941090" lon="-112.2041030">
    <ele>1408.6</ele>
   </trkpt>
   <trkpt lat="40.9941090" lon="-112.2042200">
    <ele>1410.3</ele>
   </trkpt>
   <trkpt lat="40.9941410" lon="-112.2043730">
    <ele>1412.6</ele>
   </trkpt>
   <trkpt lat="40.9941840" lon="-112.2045200">
    <ele>1414.7</ele>
   </trkpt>
   <trkpt lat="40.9941970" lon="-112.2045660">
    <ele>1415.4</ele>
   </trkpt>
   <trkpt lat="40.9942810" lon="-112.2047210">
    <ele>1418.0</ele>
   </trkpt>
   <trkpt lat="40.9943650" lon="-112.2048750">
    <ele>1420.5</ele>
   </trkpt>
   <trkpt lat="40.9944110" lon="-112.2050940">
    <ele>1423.8</ele>
   </trkpt>
   <trkpt lat="40.9945270" lon="-112.2053110">
    <ele>1427.5</ele>
   </trkpt>
   <trkpt lat="40.9945460" lon="-112.2053320">
    <ele>1428.0</ele>
   </trkpt>
   <trkpt lat="40.9945610" lon="-112.2053540">
    <ele>1428.4</ele>
   </trkpt>
   <trkpt lat="40.9946110" lon="-112.2054400">
    <ele>1430.0</ele>
   </trkpt>
   <trkpt lat="40.9947070" lon="-112.2055890">
    <ele>1433.0</ele>
   </trkpt>
   <trkpt lat="40.9948310" lon="-112.2057710">
    <ele>1436.9</ele>
   </trkpt>
   <trkpt lat="40.9948490" lon="-112.2057890">
    <ele>1437.4</ele>
   </trkpt>
   <trkpt lat="40.9948650" lon="-112.2058060">
    <ele>1437.9</ele>
   </trkpt>
   <trkpt lat="40.9949000" lon="-112.2058380">
    <ele>1438.9</ele>
   </trkpt>
   <trkpt lat="40.9949650" lon="-112.2059400">
    <ele>1441.4</ele>
   </trkpt>
   <trkpt lat="40.9949660" lon="-112.2059600">
    <ele>1441.8</ele>
   </trkpt>
   <trkpt lat="40.9949580" lon="-112.2059780">
    <ele>1442.2</ele>
   </trkpt>
   <trkpt lat="40.9949300" lon="-112.2060030">
    <ele>1443.1</ele>
   </trkpt>
   <trkpt lat="40.9948480" lon="-112.2060950">
    <ele>1445.8</ele>
   </trkpt>
   <trkpt lat="40.9947730" lon="-112.2061620">
    <ele>1447.9</ele>
   </trkpt>
   <trkpt lat="40.9946490" lon="-112.2063010">
    <ele>1451.2</ele>
   </trkpt>
   <trkpt lat="40.9945460" lon="-112.2063710">
    <ele>1453.6</ele>
   </trkpt>
   <trkpt lat="40.9945270" lon="-112.2063910">
    <ele>1454.0</ele>
   </trkpt>
   <trkpt lat="40.9944390" lon="-112.2064900">
    <ele>1456.4</ele>
   </trkpt>
   <trkpt lat="40.9943580" lon="-112.2065660">
    <ele>1458.6</ele>
   </trkpt>
   <trkpt lat="40.9943490" lon="-112.2065840">
    <ele>1458.9</ele>
   </trkpt>
   <trkpt lat="40.9943320" lon="-112.2066230">
    <ele>1459.7</ele>
   </trkpt>
   <trkpt lat="40.9943170" lon="-112.2066370">
    <ele>1460.0</ele>
   </trkpt>
   <trkpt lat="40.9941740" lon="-112.2067330">
    <ele>1463.4</ele>
   </trkpt>
   <trkpt lat="40.9941100" lon="-112.2067720">
    <ele>1465.1</ele>
   </trkpt>
   <trkpt lat="40.9940520" lon="-112.2068220">
    <ele>1467.0</ele>
   </trkpt>
   <trkpt lat="40.9940230" lon="-112.2068410">
    <ele>1467.9</ele>
   </trkpt>
   <trkpt lat="40.9939990" lon="-112.2068900">
    <ele>1469.1</ele>
   </trkpt>
   <trkpt lat="40.9939890" lon="-112.2069010">
    <ele>1469.5</ele>
   </trkpt>
   <trkpt lat="40.9939510" lon="-112.2069310">
    <ele>1470.6</ele>
   </trkpt>
   <trkpt lat="40.9939450" lon="-112.2069450">
    <ele>1470.9</ele>
   </trkpt>
   <trkpt lat="40.9938900" lon="-112.2070420">
    <ele>1472.8</ele>
   </trkpt>
   <trkpt lat="40.9937810" lon="-112.2071030">
    <ele>1474.4</ele>
   </trkpt>
   <trkpt lat="40.9936200" lon="-112.2071550">
    <ele>1475.6</ele>
   </trkpt>
   <trkpt lat="40.9934180" lon="-112.2072050">
    <ele>1476.5</ele>
   </trkpt>
   <trkpt lat="40.9932350" lon="-112.2072130">
    <ele>1477.2</ele>
   </trkpt>
   <trkpt lat="40.9931290" lon="-112.2072030">
    <ele>1477.6</ele>
   </trkpt>
   <trkpt lat="40.9929990" lon="-112.2072160">
    <ele>1478.4</ele>
   </trkpt>
   <trkpt lat="40.9929690" lon="-112.2072390">
    <ele>1478.7</ele>
   </trkpt>
   <trkpt lat="40.9927960" lon="-112.2073300">
    <ele>1480.6</ele>
   </trkpt>
   <trkpt lat="40.9926140" lon="-112.2073950">
    <ele>1482.3</ele>
   </trkpt>
   <trkpt lat="40.9925830" lon="-112.2074080">
    <ele>1482.5</ele>
   </trkpt>
   <trkpt lat="40.9923790" lon="-112.2074420">
    <ele>1484.5</ele>
   </trkpt>
   <trkpt lat="40.9923510" lon="-112.2074470">
    <ele>1484.9</ele>
   </trkpt>
   <trkpt lat="40.9922390" lon="-112.2074590">
    <ele>1487.1</ele>
   </trkpt>
   <trkpt lat="40.9921120" lon="-112.2074390">
    <ele>1489.9</ele>
   </trkpt>
   <trkpt lat="40.9919580" lon="-112.2073830">
    <ele>1493.1</ele>
   </trkpt>
   <trkpt lat="40.9919300" lon="-112.2073810">
    <ele>1493.7</ele>
   </trkpt>
   <trkpt lat="40.9919040" lon="-112.2073870">
    <ele>1494.3</ele>
   </trkpt>
   <trkpt lat="40.9918670" lon="-112.2074120">
    <ele>1495.2</ele>
   </trkpt>
   <trkpt lat="40.9918570" lon="-112.2074350">
    <ele>1495.7</ele>
   </trkpt>
   <trkpt lat="40.9918330" lon="-112.2075120">
    <ele>1497.0</ele>
   </trkpt>
   <trkpt lat="40.9918230" lon="-112.2075400">
    <ele>1497.4</ele>
   </trkpt>
   <trkpt lat="40.9918000" lon="-112.2076330">
    <ele>1498.8</ele>
   </trkpt>
   <trkpt lat="40.9917810" lon="-112.2076900">
    <ele>1499.6</ele>
   </trkpt>
   <trkpt lat="40.9917630" lon="-112.2078440">
    <ele>1501.7</ele>
   </trkpt>
   <trkpt lat="40.9917650" lon="-112.2080380">
    <ele>1504.6</ele>
   </trkpt>
   <trkpt lat="40.9916850" lon="-112.2081810">
    <ele>1507.4</ele>
   </trkpt>
   <trkpt lat="40.9915910" lon="-112.2083640">
    <ele>1511.3</ele>
   </trkpt>
   <trkpt lat="40.9915000" lon="-112.2085440">
    <ele>1515.2</ele>
   </trkpt>
   <trkpt lat="40.9914580" lon="-112.2086270">
    <ele>1516.9</ele>
   </trkpt>
   <trkpt lat="40.9914380" lon="-112.2086720">
    <ele>1517.7</ele>
   </trkpt>
   <trkpt lat="40.9913480" lon="-112.2088490">
    <ele>1521.3</ele>
   </trkpt>
   <trkpt lat="40.9912600" lon="-112.2090200">
    <ele>1524.4</ele>
   </trkpt>
   <trkpt lat="40.9911650" lon="-112.2092010">
    <ele>1527.2</ele>
   </trkpt>
   <trkpt lat="40.9910840" lon="-112.2093890">
    <ele>1529.6</ele>
   </trkpt>
   <trkpt lat="40.9909890" lon="-112.2094780">
    <ele>1531.8</ele>
   </trkpt>
   <trkpt lat="40.9909170" lon="-112.2095260">
    <ele>1533.5</ele>
   </trkpt>
   <trkpt lat="40.9907930" lon="-112.2096270">
    <ele>1535.8</ele>
   </trkpt>
   <trkpt lat="40.9906550" lon="-112.2097830">
    <ele>1538.2</ele>
   </trkpt>
   <trkpt lat="40.9906330" lon="-112.2098000">
    <ele>1538.6</ele>
   </trkpt>
   <trkpt lat="40.9905100" lon="-112.2099340">
    <ele>1540.3</ele>
   </trkpt>
   <trkpt lat="40.9904880" lon="-112.2099540">
    <ele>1540.5</ele>
   </trkpt>
   <trkpt lat="40.9904080" lon="-112.2100220">
    <ele>1541.4</ele>
   </trkpt>
   <trkpt lat="40.9903330" lon="-112.2100950">
    <ele>1542.4</ele>
   </trkpt>
   <trkpt lat="40.9903010" lon="-112.2101560">
    <ele>1543.0</ele>
   </trkpt>
   <trkpt lat="40.9902090" lon="-112.2103070">
    <ele>1544.7</ele>
   </trkpt>
   <trkpt lat="40.9901720" lon="-112.2103700">
    <ele>1545.2</ele>
   </trkpt>
   <trkpt lat="40.9900820" lon="-112.2104970">
    <ele>1545.9</ele>
   </trkpt>
   <trkpt lat="40.9899420" lon="-112.2106450">
    <ele>1546.9</ele>
   </trkpt>
   <trkpt lat="40.9898290" lon="-112.2107580">
    <ele>1548.7</ele>
   </trkpt>
   <trkpt lat="40.9897130" lon="-112.2108330">
    <ele>1550.1</ele>
   </trkpt>
   <trkpt lat="40.9895540" lon="-112.2109530">
    <ele>1551.9</ele>
   </trkpt>
   <trkpt lat="40.9894600" lon="-112.2110630">
    <ele>1552.8</ele>
   </trkpt>
   <trkpt lat="40.9893380" lon="-112.2111920">
    <ele>1553.8</ele>
   </trkpt>
   <trkpt lat="40.9891670" lon="-112.2113280">
    <ele>1554.9</ele>
   </trkpt>
   <trkpt lat="40.9891270" lon="-112.2113480">
    <ele>1555.0</ele>
   </trkpt>
   <trkpt lat="40.9889230" lon="-112.2114150">
    <ele>1555.7</ele>
   </trkpt>
   <trkpt lat="40.9888920" lon="-112.2114110">
    <ele>1555.9</ele>
   </trkpt>
   <trkpt lat="40.9887800" lon="-112.2114840">
    <ele>1557.2</ele>
   </trkpt>
   <trkpt lat="40.9887340" lon="-112.2115620">
    <ele>1558.4</ele>
   </trkpt>
   <trkpt lat="40.9887020" lon="-112.2116020">
    <ele>1559.2</ele>
   </trkpt>
   <trkpt lat="40.9886890" lon="-112.2116260">
    <ele>1559.5</ele>
   </trkpt>
   <trkpt lat="40.9886730" lon="-112.2116490">
    <ele>1559.9</ele>
   </trkpt>
   <trkpt lat="40.9886010" lon="-112.2116960">
    <ele>1561.0</ele>
   </trkpt>
   <trkpt lat="40.9884170" lon="-112.2117750">
    <ele>1563.1</ele>
   </trkpt>
   <trkpt lat="40.9882590" lon="-112.2118750">
    <ele>1565.3</ele>
   </trkpt>
   <trkpt lat="40.9881430" lon="-112.2120480">
    <ele>1567.8</ele>
   </trkpt>
   <trkpt lat="40.9879940" lon="-112.2121480">
    <ele>1569.4</ele>
   </trkpt>
   <trkpt lat="40.9879440" lon="-112.2121830">
    <ele>1569.9</ele>
   </trkpt>
   <trkpt lat="40.9879080" lon="-112.2122490">
    <ele>1570.4</ele>
   </trkpt>
   <trkpt lat="40.9877970" lon="-112.2123890">
    <ele>1571.8</ele>
   </trkpt>
   <trkpt lat="40.9876590" lon="-112.2125840">
    <ele>1574.3</ele>
   </trkpt>
   <trkpt lat="40.9875360" lon="-112.2127510">
    <ele>1576.9</ele>
   </trkpt>
   <trkpt lat="40.9874380" lon="-112.2129300">
    <ele>1579.0</ele>
   </trkpt>
   <trkpt lat="40.9872920" lon="-112.2130990">
    <ele>1581.4</ele>
   </trkpt>
   <trkpt lat="40.9871640" lon="-112.2132390">
    <ele>1583.5</ele>
   </trkpt>
   <trkpt lat="40.9870700" lon="-112.2133710">
    <ele>1584.9</ele>
   </trkpt>
   <trkpt lat="40.9870160" lon="-112.2134830">
    <ele>1585.0</ele>
   </trkpt>
   <trkpt lat="40.9869210" lon="-112.2136600">
    <ele>1585.0</ele>
   </trkpt>
   <trkpt lat="40.9867790" lon="-112.2138100">
    <ele>1586.1</ele>
   </trkpt>
   <trkpt lat="40.9867590" lon="-112.2138400">
    <ele>1586.2</ele>
   </trkpt>
   <trkpt lat="40.9866420" lon="-112.2140580">
    <ele>1586.7</ele>
   </trkpt>
   <trkpt lat="40.9865490" lon="-112.2142160">
    <ele>1586.8</ele>
   </trkpt>
   <trkpt lat="40.9864920" lon="-112.2142900">
    <ele>1586.8</ele>
   </trkpt>
   <trkpt lat="40.9863470" lon="-112.2144610">
    <ele>1587.0</ele>
   </trkpt>
   <trkpt lat="40.9862960" lon="-112.2145220">
    <ele>1587.2</ele>
   </trkpt>
   <trkpt lat="40.9861520" lon="-112.2146200">
    <ele>1588.3</ele>
   </trkpt>
   <trkpt lat="40.9861070" lon="-112.2146380">
    <ele>1588.6</ele>
   </trkpt>
   <trkpt lat="40.9860880" lon="-112.2146550">
    <ele>1588.7</ele>
   </trkpt>
   <trkpt lat="40.9860330" lon="-112.2147740">
    <ele>1588.7</ele>
   </trkpt>
   <trkpt lat="40.9859720" lon="-112.2149440">
    <ele>1588.4</ele>
   </trkpt>
   <trkpt lat="40.9859500" lon="-112.2149800">
    <ele>1588.4</ele>
   </trkpt>
   <trkpt lat="40.9858880" lon="-112.2151080">
    <ele>1588.6</ele>
   </trkpt>
   <trkpt lat="40.9858600" lon="-112.2151390">
    <ele>1588.6</ele>
   </trkpt>
   <trkpt lat="40.9857590" lon="-112.2153420">
    <ele>1589.0</ele>
   </trkpt>
   <trkpt lat="40.9856220" lon="-112.2155020">
    <ele>1590.1</ele>
   </trkpt>
   <trkpt lat="40.9856010" lon="-112.2155380">
    <ele>1590.5</ele>
   </trkpt>
   <trkpt lat="40.9855100" lon="-112.2156370">
    <ele>1591.9</ele>
   </trkpt>
   <trkpt lat="40.9854950" lon="-112.2156620">
    <ele>1592.2</ele>
   </trkpt>
   <trkpt lat="40.9854410" lon="-112.2157560">
    <ele>1593.0</ele>
   </trkpt>
   <trkpt lat="40.9852970" lon="-112.2159390">
    <ele>1593.7</ele>
   </trkpt>
   <trkpt lat="40.9852250" lon="-112.2161990">
    <ele>1592.5</ele>
   </trkpt>
   <trkpt lat="40.9851840" lon="-112.2164170">
    <ele>1591.6</ele>
   </trkpt>
   <trkpt lat="40.9850950" lon="-112.2167030">
    <ele>1589.8</ele>
   </trkpt>
   <trkpt lat="40.9850770" lon="-112.2167420">
    <ele>1589.7</ele>
   </trkpt>
   <trkpt lat="40.9849790" lon="-112.2169280">
    <ele>1589.5</ele>
   </trkpt>
   <trkpt lat="40.9849120" lon="-112.2170930">
    <ele>1589.2</ele>
   </trkpt>
   <trkpt lat="40.9848980" lon="-112.2171340">
    <ele>1589.1</ele>
   </trkpt>
   <trkpt lat="40.9848220" lon="-112.2173570">
    <ele>1588.4</ele>
   </trkpt>
   <trkpt lat="40.9848060" lon="-112.2174100">
    <ele>1588.4</ele>
   </trkpt>
   <trkpt lat="40.9846730" lon="-112.2176460">
    <ele>1589.8</ele>
   </trkpt>
   <trkpt lat="40.9846730" lon="-112.2176460">
    <ele>1589.8</ele>
   </trkpt>
   <trkpt lat="40.9845300" lon="-112.2177120">
    <ele>1591.7</ele>
   </trkpt>
   <trkpt lat="40.9843970" lon="-112.2178600">
    <ele>1593.9</ele>
   </trkpt>
   <trkpt lat="40.9843630" lon="-112.2179130">
    <ele>1594.4</ele>
   </trkpt>
   <trkpt lat="40.9843300" lon="-112.2179620">
    <ele>1594.7</ele>
   </trkpt>
   <trkpt lat="40.9843170" lon="-112.2179870">
    <ele>1594.8</ele>
   </trkpt>
   <trkpt lat="40.9843040" lon="-112.2180050">
    <ele>1594.9</ele>
   </trkpt>
   <trkpt lat="40.9843290" lon="-112.2180280">
    <ele>1595.0</ele>
   </trkpt>
   <trkpt lat="40.9843490" lon="-112.2180600">
    <ele>1595.1</ele>
   </trkpt>
   <trkpt lat="40.9843510" lon="-112.2180920">
    <ele>1595.2</ele>
   </trkpt>
   <trkpt lat="40.9843370" lon="-112.2181590">
    <ele>1595.5</ele>
   </trkpt>
   <trkpt lat="40.9843270" lon="-112.2181790">
    <ele>1595.7</ele>
   </trkpt>
   <trkpt lat="40.9842960" lon="-112.2181830">
    <ele>1596.1</ele>
   </trkpt>
   <trkpt lat="40.9842650" lon="-112.2181690">
    <ele>1596.7</ele>
   </trkpt>
   <trkpt lat="40.9842630" lon="-112.2181380">
    <ele>1597.2</ele>
   </trkpt>
   <trkpt lat="40.9842710" lon="-112.2181190">
    <ele>1597.6</ele>
   </trkpt>
   <trkpt lat="40.9842900" lon="-112.2180750">
    <ele>1598.6</ele>
   </trkpt>
   <trkpt lat="40.9842960" lon="-112.2180510">
    <ele>1599.1</ele>
   </trkpt>
   <trkpt lat="40.9842930" lon="-112.2180210">
    <ele>1599.7</ele>
   </trkpt>
   <trkpt lat="40.9842650" lon="-112.2179950">
    <ele>1600.7</ele>
   </trkpt>
   <trkpt lat="40.9842490" lon="-112.2179920">
    <ele>1601.2</ele>
   </trkpt>
   <trkpt lat="40.9842130" lon="-112.2179840">
    <ele>1602.3</ele>
   </trkpt>
   <trkpt lat="40.9842090" lon="-112.2179700">
    <ele>1602.7</ele>
   </trkpt>
   <trkpt lat="40.9842220" lon="-112.2179440">
    <ele>1603.4</ele>
   </trkpt>
   <trkpt lat="40.9842300" lon="-112.2179310">
    <ele>1603.8</ele>
   </trkpt>
   <trkpt lat="40.9842400" lon="-112.2179150">
    <ele>1604.3</ele>
   </trkpt>
   <trkpt lat="40.9842410" lon="-112.2178940">
    <ele>1604.8</ele>
   </trkpt>
   <trkpt lat="40.9842320" lon="-112.2178630">
    <ele>1605.7</ele>
   </trkpt>
   <trkpt lat="40.9842170" lon="-112.2178360">
    <ele>1606.5</ele>
   </trkpt>
   <trkpt lat="40.9842160" lon="-112.2178190">
    <ele>1606.9</ele>
   </trkpt>
   <trkpt lat="40.9842110" lon="-112.2177830">
    <ele>1607.9</ele>
   </trkpt>
   <trkpt lat="40.9841990" lon="-112.2177750">
    <ele>1608.3</ele>
   </trkpt>
   <trkpt lat="40.9841900" lon="-112.2177770">
    <ele>1608.6</ele>
   </trkpt>
   <trkpt lat="40.9841500" lon="-112.2178100">
    <ele>1610.2</ele>
   </trkpt>
   <trkpt lat="40.9840810" lon="-112.2178350">
    <ele>1612.6</ele>
   </trkpt>
   <trkpt lat="40.9840780" lon="-112.2178240">
    <ele>1612.9</ele>
   </trkpt>
   <trkpt lat="40.9841240" lon="-112.2177310">
    <ele>1615.6</ele>
   </trkpt>
   <trkpt lat="40.9841280" lon="-112.2177080">
    <ele>1616.2</ele>
   </trkpt>
   <trkpt lat="40.9841070" lon="-112.2176880">
    <ele>1617.0</ele>
   </trkpt>
   <trkpt lat="40.9840970" lon="-112.2176850">
    <ele>1617.3</ele>
   </trkpt>
   <trkpt lat="40.9840250" lon="-112.2177080">
    <ele>1619.5</ele>
   </trkpt>
   <trkpt lat="40.9839880" lon="-112.2177050">
    <ele>1620.5</ele>
   </trkpt>
   <trkpt lat="40.9839680" lon="-112.2176740">
    <ele>1621.4</ele>
   </trkpt>
   <trkpt lat="40.9839680" lon="-112.2176560">
    <ele>1621.8</ele>
   </trkpt>
   <trkpt lat="40.9839710" lon="-112.2176360">
    <ele>1622.2</ele>
   </trkpt>
   <trkpt lat="40.9839740" lon="-112.2176150">
    <ele>1622.7</ele>
   </trkpt>
   <trkpt lat="40.9839700" lon="-112.2175910">
    <ele>1623.2</ele>
   </trkpt>
   <trkpt lat="40.9839530" lon="-112.2175300">
    <ele>1624.6</ele>
   </trkpt>
   <trkpt lat="40.9839480" lon="-112.2174750">
    <ele>1625.9</ele>
   </trkpt>
   <trkpt lat="40.9839530" lon="-112.2174320">
    <ele>1626.9</ele>
   </trkpt>
   <trkpt lat="40.9839580" lon="-112.2174130">
    <ele>1627.3</ele>
   </trkpt>
   <trkpt lat="40.9839540" lon="-112.2173070">
    <ele>1629.7</ele>
   </trkpt>
   <trkpt lat="40.9839650" lon="-112.2171500">
    <ele>1633.1</ele>
   </trkpt>
   <trkpt lat="40.9839960" lon="-112.2170320">
    <ele>1635.4</ele>
   </trkpt>
   <trkpt lat="40.9839960" lon="-112.2170080">
    <ele>1635.9</ele>
   </trkpt>
   <trkpt lat="40.9839800" lon="-112.2169420">
    <ele>1637.1</ele>
   </trkpt>
   <trkpt lat="40.9839780" lon="-112.2169260">
    <ele>1637.4</ele>
   </trkpt>
   <trkpt lat="40.9839810" lon="-112.2169060">
    <ele>1637.8</ele>
   </trkpt>
   <trkpt lat="40.9840240" lon="-112.2167200">
    <ele>1641.0</ele>
   </trkpt>
   <trkpt lat="40.9840200" lon="-112.2166980">
    <ele>1641.4</ele>
   </trkpt>
   <trkpt lat="40.9839990" lon="-112.2164970">
    <ele>1644.8</ele>
   </trkpt>
   <trkpt lat="40.9840100" lon="-112.2162650">
    <ele>1648.7</ele>
   </trkpt>
   <trkpt lat="40.9840100" lon="-112.2161830">
    <ele>1650.0</ele>
   </trkpt>
   <trkpt lat="40.9840120" lon="-112.2161560">
    <ele>1650.4</ele>
   </trkpt>
   <trkpt lat="40.9840380" lon="-112.2160570">
    <ele>1651.6</ele>
   </trkpt>
   <trkpt lat="40.9840520" lon="-112.2160220">
    <ele>1652.0</ele>
   </trkpt>
   <trkpt lat="40.9841080" lon="-112.2158170">
    <ele>1654.2</ele>
   </trkpt>
   <trkpt lat="40.9841240" lon="-112.2157370">
    <ele>1655.1</ele>
   </trkpt>
   <trkpt lat="40.9841250" lon="-112.2157120">
    <ele>1655.5</ele>
   </trkpt>
   <trkpt lat="40.9841290" lon="-112.2156870">
    <ele>1655.8</ele>
   </trkpt>
   <trkpt lat="40.9841570" lon="-112.2155700">
    <ele>1657.8</ele>
   </trkpt>
   <trkpt lat="40.9841760" lon="-112.2155010">
    <ele>1659.0</ele>
   </trkpt>
   <trkpt lat="40.9841950" lon="-112.2154060">
    <ele>1660.8</ele>
   </trkpt>
   <trkpt lat="40.9842270" lon="-112.2152250">
    <ele>1664.1</ele>
   </trkpt>
   <trkpt lat="40.9842750" lon="-112.2149890">
    <ele>1667.7</ele>
   </trkpt>
   <trkpt lat="40.9843240" lon="-112.2147550">
    <ele>1670.3</ele>
   </trkpt>
   <trkpt lat="40.9843230" lon="-112.2147260">
    <ele>1670.6</ele>
   </trkpt>
   <trkpt lat="40.9843280" lon="-112.2145180">
    <ele>1673.2</ele>
   </trkpt>
   <trkpt lat="40.9842910" lon="-112.2143400">
    <ele>1675.8</ele>
   </trkpt>
   <trkpt lat="40.9842830" lon="-112.2142010">
    <ele>1678.0</ele>
   </trkpt>
   <trkpt lat="40.9842520" lon="-112.2141360">
    <ele>1679.4</ele>
   </trkpt>
   <trkpt lat="40.9841660" lon="-112.2140100">
    <ele>1682.8</ele>
   </trkpt>
   <trkpt lat="40.9841140" lon="-112.2139290">
    <ele>1684.9</ele>
   </trkpt>
   <trkpt lat="40.9840830" lon="-112.2139020">
    <ele>1685.9</ele>
   </trkpt>
   <trkpt lat="40.9839890" lon="-112.2137890">
    <ele>1689.0</ele>
   </trkpt>
   <trkpt lat="40.9839600" lon="-112.2137580">
    <ele>1689.9</ele>
   </trkpt>
   <trkpt lat="40.9839420" lon="-112.2137520">
    <ele>1690.3</ele>
   </trkpt>
   <trkpt lat="40.9839000" lon="-112.2137530">
    <ele>1691.2</ele>
   </trkpt>
   <trkpt lat="40.9838800" lon="-112.2137520">
    <ele>1691.7</ele>
   </trkpt>
   <trkpt lat="40.9837740" lon="-112.2137960">
    <ele>1694.0</ele>
   </trkpt>
   <trkpt lat="40.9837260" lon="-112.2138400">
    <ele>1695.2</ele>
   </trkpt>
   <trkpt lat="40.9836830" lon="-112.2138870">
    <ele>1696.4</ele>
   </trkpt>
   <trkpt lat="40.9836660" lon="-112.2138930">
    <ele>1696.8</ele>
   </trkpt>
   <trkpt lat="40.9835930" lon="-112.2139210">
    <ele>1698.3</ele>
   </trkpt>
   <trkpt lat="40.9835810" lon="-112.2139430">
    <ele>1698.7</ele>
   </trkpt>
   <trkpt lat="40.9835520" lon="-112.2140610">
    <ele>1700.5</ele>
   </trkpt>
   <trkpt lat="40.9834840" lon="-112.2142400">
    <ele>1702.7</ele>
   </trkpt>
   <trkpt lat="40.9834730" lon="-112.2142790">
    <ele>1703.0</ele>
   </trkpt>
   <trkpt lat="40.9833820" lon="-112.2144700">
    <ele>1704.8</ele>
   </trkpt>
   <trkpt lat="40.9833450" lon="-112.2145190">
    <ele>1705.3</ele>
   </trkpt>
   <trkpt lat="40.9833060" lon="-112.2145680">
    <ele>1705.8</ele>
   </trkpt>
   <trkpt lat="40.9832380" lon="-112.2146970">
    <ele>1706.9</ele>
   </trkpt>
   <trkpt lat="40.9831330" lon="-112.2148460">
    <ele>1708.2</ele>
   </trkpt>
   <trkpt lat="40.9830710" lon="-112.2149310">
    <ele>1709.1</ele>
   </trkpt>
   <trkpt lat="40.9829730" lon="-112.2150160">
    <ele>1710.6</ele>
   </trkpt>
   <trkpt lat="40.9828760" lon="-112.2150970">
    <ele>1712.0</ele>
   </trkpt>
   <trkpt lat="40.9827690" lon="-112.2151810">
    <ele>1713.8</ele>
   </trkpt>
   <trkpt lat="40.9826270" lon="-112.2152330">
    <ele>1715.8</ele>
   </trkpt>
   <trkpt lat="40.9824970" lon="-112.2152760">
    <ele>1717.8</ele>
   </trkpt>
   <trkpt lat="40.9824710" lon="-112.2152870">
    <ele>1718.2</ele>
   </trkpt>
   <trkpt lat="40.9823770" lon="-112.2153130">
    <ele>1719.7</ele>
   </trkpt>
   <trkpt lat="40.9822580" lon="-112.2153490">
    <ele>1721.6</ele>
   </trkpt>
   <trkpt lat="40.9821190" lon="-112.2153180">
    <ele>1723.6</ele>
   </trkpt>
   <trkpt lat="40.9819280" lon="-112.2152800">
    <ele>1725.4</ele>
   </trkpt>
   <trkpt lat="40.9817610" lon="-112.2152040">
    <ele>1726.7</ele>
   </trkpt>
   <trkpt lat="40.9817000" lon="-112.2151710">
    <ele>1727.1</ele>
   </trkpt>
   <trkpt lat="40.9815330" lon="-112.2151030">
    <ele>1727.7</ele>
   </trkpt>
   <trkpt lat="40.9813480" lon="-112.2150580">
    <ele>1727.6</ele>
   </trkpt>
   <trkpt lat="40.9813090" lon="-112.2150650">
    <ele>1727.5</ele>
   </trkpt>
   <trkpt lat="40.9811100" lon="-112.2150640">
    <ele>1727.4</ele>
   </trkpt>
   <trkpt lat="40.9810710" lon="-112.2150730">
    <ele>1727.3</ele>
   </trkpt>
   <trkpt lat="40.9809960" lon="-112.2151120">
    <ele>1727.3</ele>
   </trkpt>
   <trkpt lat="40.9808780" lon="-112.2151620">
    <ele>1727.0</ele>
   </trkpt>
   <trkpt lat="40.9806990" lon="-112.2152420">
    <ele>1727.0</ele>
   </trkpt>
   <trkpt lat="40.9806610" lon="-112.2152450">
    <ele>1727.0</ele>
   </trkpt>
   <trkpt lat="40.9804610" lon="-112.2152730">
    <ele>1727.9</ele>
   </trkpt>
   <trkpt lat="40.9803910" lon="-112.2152790">
    <ele>1728.4</ele>
   </trkpt>
   <trkpt lat="40.9803570" lon="-112.2152910">
    <ele>1728.6</ele>
   </trkpt>
   <trkpt lat="40.9802190" lon="-112.2153380">
    <ele>1729.9</ele>
   </trkpt>
   <trkpt lat="40.9801570" lon="-112.2153640">
    <ele>1730.5</ele>
   </trkpt>
   <trkpt lat="40.9800240" lon="-112.2154470">
    <ele>1732.0</ele>
   </trkpt>
   <trkpt lat="40.9798740" lon="-112.2156230">
    <ele>1734.4</ele>
   </trkpt>
   <trkpt lat="40.9797440" lon="-112.2156790">
    <ele>1736.4</ele>
   </trkpt>
   <trkpt lat="40.9795920" lon="-112.2156510">
    <ele>1737.9</ele>
   </trkpt>
   <trkpt lat="40.9794190" lon="-112.2156330">
    <ele>1738.3</ele>
   </trkpt>
   <trkpt lat="40.9792290" lon="-112.2155980">
    <ele>1738.1</ele>
   </trkpt>
   <trkpt lat="40.9790610" lon="-112.2155770">
    <ele>1737.6</ele>
   </trkpt>
   <trkpt lat="40.9788540" lon="-112.2155360">
    <ele>1737.1</ele>
   </trkpt>
   <trkpt lat="40.9787730" lon="-112.2155030">
    <ele>1736.9</ele>
   </trkpt>
   <trkpt lat="40.9787340" lon="-112.2154790">
    <ele>1736.8</ele>
   </trkpt>
   <trkpt lat="40.9786930" lon="-112.2154550">
    <ele>1736.7</ele>
   </trkpt>
   <trkpt lat="40.9786090" lon="-112.2154110">
    <ele>1736.4</ele>
   </trkpt>
   <trkpt lat="40.9784820" lon="-112.2153680">
    <ele>1735.8</ele>
   </trkpt>
   <trkpt lat="40.9784400" lon="-112.2153610">
    <ele>1735.6</ele>
   </trkpt>
   <trkpt lat="40.9782280" lon="-112.2152960">
    <ele>1735.0</ele>
   </trkpt>
   <trkpt lat="40.9781890" lon="-112.2152790">
    <ele>1735.1</ele>
   </trkpt>
   <trkpt lat="40.9779900" lon="-112.2151910">
    <ele>1735.3</ele>
   </trkpt>
   <trkpt lat="40.9778770" lon="-112.2151570">
    <ele>1735.7</ele>
   </trkpt>
   <trkpt lat="40.9778390" lon="-112.2151510">
    <ele>1735.8</ele>
   </trkpt>
   <trkpt lat="40.9777560" lon="-112.2151580">
    <ele>1736.1</ele>
   </trkpt>
   <trkpt lat="40.9776830" lon="-112.2151890">
    <ele>1736.4</ele>
   </trkpt>
   <trkpt lat="40.9776330" lon="-112.2152450">
    <ele>1736.7</ele>
   </trkpt>
   <trkpt lat="40.9776170" lon="-112.2152910">
    <ele>1736.9</ele>
   </trkpt>
   <trkpt lat="40.9775700" lon="-112.2154300">
    <ele>1737.7</ele>
   </trkpt>
   <trkpt lat="40.9775010" lon="-112.2155790">
    <ele>1739.3</ele>
   </trkpt>
   <trkpt lat="40.9774840" lon="-112.2156160">
    <ele>1739.7</ele>
   </trkpt>
   <trkpt lat="40.9774010" lon="-112.2158410">
    <ele>1742.0</ele>
   </trkpt>
   <trkpt lat="40.9773610" lon="-112.2159590">
    <ele>1743.2</ele>
   </trkpt>
   <trkpt lat="40.9772440" lon="-112.2161780">
    <ele>1745.9</ele>
   </trkpt>
   <trkpt lat="40.9772250" lon="-112.2162050">
    <ele>1746.3</ele>
   </trkpt>
   <trkpt lat="40.9770920" lon="-112.2162870">
    <ele>1748.6</ele>
   </trkpt>
   <trkpt lat="40.9769490" lon="-112.2162930">
    <ele>1750.9</ele>
   </trkpt>
   <trkpt lat="40.9768980" lon="-112.2163010">
    <ele>1751.8</ele>
   </trkpt>
   <trkpt lat="40.9767500" lon="-112.2162990">
    <ele>1754.5</ele>
   </trkpt>
   <trkpt lat="40.9765490" lon="-112.2162810">
    <ele>1758.3</ele>
   </trkpt>
   <trkpt lat="40.9764060" lon="-112.2162390">
    <ele>1761.4</ele>
   </trkpt>
   <trkpt lat="40.9763690" lon="-112.2162210">
    <ele>1762.3</ele>
   </trkpt>
   <trkpt lat="40.9763380" lon="-112.2161990">
    <ele>1763.0</ele>
   </trkpt>
   <trkpt lat="40.9763200" lon="-112.2161880">
    <ele>1763.4</ele>
   </trkpt>
   <trkpt lat="40.9762610" lon="-112.2161600">
    <ele>1764.7</ele>
   </trkpt>
   <trkpt lat="40.9762400" lon="-112.2161510">
    <ele>1765.2</ele>
   </trkpt>
   <trkpt lat="40.9761760" lon="-112.2161270">
    <ele>1766.5</ele>
   </trkpt>
   <trkpt lat="40.9761370" lon="-112.2161080">
    <ele>1767.3</ele>
   </trkpt>
   <trkpt lat="40.9760630" lon="-112.2160680">
    <ele>1768.8</ele>
   </trkpt>
   <trkpt lat="40.9760450" lon="-112.2160550">
    <ele>1769.2</ele>
   </trkpt>
   <trkpt lat="40.9759460" lon="-112.2160210">
    <ele>1771.0</ele>
   </trkpt>
   <trkpt lat="40.9759030" lon="-112.2160060">
    <ele>1771.8</ele>
   </trkpt>
   <trkpt lat="40.9758840" lon="-112.2159980">
    <ele>1772.2</ele>
   </trkpt>
   <trkpt lat="40.9758640" lon="-112.2159910">
    <ele>1772.6</ele>
   </trkpt>
   <trkpt lat="40.9757110" lon="-112.2159300">
    <ele>1775.9</ele>
   </trkpt>
   <trkpt lat="40.9755390" lon="-112.2158450">
    <ele>1780.3</ele>
   </trkpt>
   <trkpt lat="40.9755230" lon="-112.2158390">
    <ele>1780.7</ele>
   </trkpt>
   <trkpt lat="40.9753630" lon="-112.2157650">
    <ele>1785.1</ele>
   </trkpt>
   <trkpt lat="40.9752690" lon="-112.2157200">
    <ele>1787.8</ele>
   </trkpt>
   <trkpt lat="40.9751630" lon="-112.2156540">
    <ele>1791.2</ele>
   </trkpt>
   <trkpt lat="40.9750960" lon="-112.2155590">
    <ele>1794.1</ele>
   </trkpt>
   <trkpt lat="40.9750450" lon="-112.2154330">
    <ele>1796.8</ele>
   </trkpt>
   <trkpt lat="40.9749360" lon="-112.2153990">
    <ele>1799.0</ele>
   </trkpt>
   <trkpt lat="40.9747760" lon="-112.2155000">
    <ele>1801.1</ele>
   </trkpt>
   <trkpt lat="40.9747540" lon="-112.2157310">
    <ele>1802.0</ele>
   </trkpt>
   <trkpt lat="40.9747440" lon="-112.2159890">
    <ele>1802.9</ele>
   </trkpt>
   <trkpt lat="40.9747380" lon="-112.2160810">
    <ele>1803.3</ele>
   </trkpt>
   <trkpt lat="40.9746990" lon="-112.2163290">
    <ele>1804.5</ele>
   </trkpt>
   <trkpt lat="40.9746610" lon="-112.2164570">
    <ele>1805.1</ele>
   </trkpt>
   <trkpt lat="40.9745690" lon="-112.2166120">
    <ele>1805.7</ele>
   </trkpt>
   <trkpt lat="40.9744560" lon="-112.2167880">
    <ele>1806.3</ele>
   </trkpt>
   <trkpt lat="40.9743220" lon="-112.2169510">
    <ele>1807.6</ele>
   </trkpt>
   <trkpt lat="40.9742960" lon="-112.2169640">
    <ele>1807.8</ele>
   </trkpt>
   <trkpt lat="40.9741550" lon="-112.2170510">
    <ele>1807.9</ele>
   </trkpt>
   <trkpt lat="40.9739620" lon="-112.2171360">
    <ele>1808.9</ele>
   </trkpt>
   <trkpt lat="40.9738590" lon="-112.2171140">
    <ele>1810.8</ele>
   </trkpt>
   <trkpt lat="40.9737870" lon="-112.2171140">
    <ele>1812.3</ele>
   </trkpt>
   <trkpt lat="40.9737690" lon="-112.2171250">
    <ele>1812.6</ele>
   </trkpt>
   <trkpt lat="40.9736750" lon="-112.2172480">
    <ele>1814.5</ele>
   </trkpt>
   <trkpt lat="40.9735540" lon="-112.2174290">
    <ele>1815.8</ele>
   </trkpt>
   <trkpt lat="40.9735280" lon="-112.2174610">
    <ele>1816.1</ele>
   </trkpt>
   <trkpt lat="40.9734260" lon="-112.2176220">
    <ele>1817.8</ele>
   </trkpt>
   <trkpt lat="40.9733740" lon="-112.2176940">
    <ele>1818.8</ele>
   </trkpt>
   <trkpt lat="40.9733530" lon="-112.2177150">
    <ele>1819.2</ele>
   </trkpt>
   <trkpt lat="40.9733300" lon="-112.2177350">
    <ele>1819.6</ele>
   </trkpt>
   <trkpt lat="40.9732570" lon="-112.2177840">
    <ele>1820.5</ele>
   </trkpt>
   <trkpt lat="40.9732290" lon="-112.2177870">
    <ele>1820.9</ele>
   </trkpt>
   <trkpt lat="40.9730720" lon="-112.2177410">
    <ele>1822.7</ele>
   </trkpt>
   <trkpt lat="40.9728920" lon="-112.2176550">
    <ele>1824.9</ele>
   </trkpt>
   <trkpt lat="40.9728680" lon="-112.2176410">
    <ele>1825.2</ele>
   </trkpt>
   <trkpt lat="40.9727290" lon="-112.2175810">
    <ele>1827.8</ele>
   </trkpt>
   <trkpt lat="40.9726460" lon="-112.2174810">
    <ele>1830.2</ele>
   </trkpt>
   <trkpt lat="40.9725590" lon="-112.2173920">
    <ele>1832.7</ele>
   </trkpt>
   <trkpt lat="40.9724280" lon="-112.2172710">
    <ele>1836.3</ele>
   </trkpt>
   <trkpt lat="40.9723120" lon="-112.2171250">
    <ele>1840.3</ele>
   </trkpt>
   <trkpt lat="40.9722810" lon="-112.2171000">
    <ele>1841.1</ele>
   </trkpt>
   <trkpt lat="40.9721910" lon="-112.2170560">
    <ele>1843.1</ele>
   </trkpt>
   <trkpt lat="40.9720520" lon="-112.2170140">
    <ele>1845.5</ele>
   </trkpt>
   <trkpt lat="40.9719070" lon="-112.2169580">
    <ele>1848.0</ele>
   </trkpt>
   <trkpt lat="40.9718870" lon="-112.2169510">
    <ele>1848.4</ele>
   </trkpt>
   <trkpt lat="40.9717330" lon="-112.2168570">
    <ele>1851.6</ele>
   </trkpt>
   <trkpt lat="40.9716200" lon="-112.2167760">
    <ele>1854.0</ele>
   </trkpt>
   <trkpt lat="40.9716060" lon="-112.2167550">
    <ele>1854.4</ele>
   </trkpt>
   <trkpt lat="40.9715550" lon="-112.2166660">
    <ele>1855.6</ele>
   </trkpt>
   <trkpt lat="40.9715160" lon="-112.2166250">
    <ele>1856.2</ele>
   </trkpt>
   <trkpt lat="40.9714630" lon="-112.2166240">
    <ele>1856.7</ele>
   </trkpt>
   <trkpt lat="40.9714140" lon="-112.2166530">
    <ele>1857.2</ele>
   </trkpt>
   <trkpt lat="40.9712680" lon="-112.2168120">
    <ele>1859.4</ele>
   </trkpt>
   <trkpt lat="40.9712480" lon="-112.2168340">
    <ele>1859.8</ele>
   </trkpt>
   <trkpt lat="40.9711120" lon="-112.2169660">
    <ele>1862.9</ele>
   </trkpt>
   <trkpt lat="40.9710970" lon="-112.2169820">
    <ele>1863.3</ele>
   </trkpt>
   <trkpt lat="40.9710390" lon="-112.2170630">
    <ele>1865.3</ele>
   </trkpt>
   <trkpt lat="40.9710300" lon="-112.2170830">
    <ele>1865.7</ele>
   </trkpt>
   <trkpt lat="40.9710200" lon="-112.2171040">
    <ele>1866.2</ele>
   </trkpt>
   <trkpt lat="40.9710010" lon="-112.2171420">
    <ele>1867.0</ele>
   </trkpt>
   <trkpt lat="40.9709510" lon="-112.2172300">
    <ele>1868.9</ele>
   </trkpt>
   <trkpt lat="40.9708830" lon="-112.2173590">
    <ele>1871.7</ele>
   </trkpt>
   <trkpt lat="40.9708470" lon="-112.2174090">
    <ele>1873.0</ele>
   </trkpt>
   <trkpt lat="40.9707800" lon="-112.2174710">
    <ele>1875.0</ele>
   </trkpt>
   <trkpt lat="40.9707060" lon="-112.2174900">
    <ele>1876.6</ele>
   </trkpt>
   <trkpt lat="40.9706470" lon="-112.2174740">
    <ele>1877.7</ele>
   </trkpt>
   <trkpt lat="40.9705740" lon="-112.2174280">
    <ele>1878.9</ele>
   </trkpt>
   <trkpt lat="40.9704320" lon="-112.2173890">
    <ele>1881.7</ele>
   </trkpt>
   <trkpt lat="40.9703610" lon="-112.2174450">
    <ele>1883.9</ele>
   </trkpt>
   <trkpt lat="40.9703530" lon="-112.2174560">
    <ele>1884.2</ele>
   </trkpt>
   <trkpt lat="40.9702860" lon="-112.2175130">
    <ele>1886.2</ele>
   </trkpt>
   <trkpt lat="40.9702080" lon="-112.2175210">
    <ele>1888.0</ele>
   </trkpt>
   <trkpt lat="40.9701500" lon="-112.2175300">
    <ele>1889.2</ele>
   </trkpt>
   <trkpt lat="40.9699500" lon="-112.2175300">
    <ele>1893.2</ele>
   </trkpt>
   <trkpt lat="40.9699300" lon="-112.2175340">
    <ele>1893.6</ele>
   </trkpt>
   <trkpt lat="40.9697620" lon="-112.2175420">
    <ele>1897.1</ele>
   </trkpt>
   <trkpt lat="40.9696390" lon="-112.2175590">
    <ele>1899.9</ele>
   </trkpt>
   <trkpt lat="40.9696240" lon="-112.2175680">
    <ele>1900.3</ele>
   </trkpt>
   <trkpt lat="40.9695760" lon="-112.2175910">
    <ele>1901.3</ele>
   </trkpt>
   <trkpt lat="40.9695530" lon="-112.2175900">
    <ele>1901.6</ele>
   </trkpt>
   <trkpt lat="40.9694190" lon="-112.2175570">
    <ele>1903.3</ele>
   </trkpt>
   <trkpt lat="40.9693180" lon="-112.2175280">
    <ele>1904.5</ele>
   </trkpt>
   <trkpt lat="40.9692750" lon="-112.2175230">
    <ele>1905.2</ele>
   </trkpt>
   <trkpt lat="40.9691300" lon="-112.2175120">
    <ele>1908.0</ele>
   </trkpt>
   <trkpt lat="40.9690510" lon="-112.2175120">
    <ele>1909.8</ele>
   </trkpt>
   <trkpt lat="40.9689800" lon="-112.2174990">
    <ele>1911.4</ele>
   </trkpt>
   <trkpt lat="40.9689640" lon="-112.2174970">
    <ele>1911.8</ele>
   </trkpt>
   <trkpt lat="40.9688680" lon="-112.2174630">
    <ele>1913.7</ele>
   </trkpt>
   <trkpt lat="40.9688240" lon="-112.2174420">
    <ele>1914.6</ele>
   </trkpt>
   <trkpt lat="40.9686990" lon="-112.2173740">
    <ele>1917.2</ele>
   </trkpt>
   <trkpt lat="40.9686570" lon="-112.2173690">
    <ele>1918.2</ele>
   </trkpt>
   <trkpt lat="40.9685060" lon="-112.2174020">
    <ele>1921.4</ele>
   </trkpt>
   <trkpt lat="40.9683700" lon="-112.2173740">
    <ele>1924.1</ele>
   </trkpt>
   <trkpt lat="40.9681810" lon="-112.2173030">
    <ele>1927.6</ele>
   </trkpt>
   <trkpt lat="40.9680850" lon="-112.2172060">
    <ele>1930.1</ele>
   </trkpt>
   <trkpt lat="40.9680330" lon="-112.2171730">
    <ele>1931.2</ele>
   </trkpt>
   <trkpt lat="40.9679900" lon="-112.2171880">
    <ele>1931.9</ele>
   </trkpt>
   <trkpt lat="40.9678380" lon="-112.2171500">
    <ele>1934.5</ele>
   </trkpt>
   <trkpt lat="40.9677180" lon="-112.2170660">
    <ele>1937.0</ele>
   </trkpt>
   <trkpt lat="40.9675750" lon="-112.2169660">
    <ele>1940.3</ele>
   </trkpt>
   <trkpt lat="40.9674620" lon="-112.2168300">
    <ele>1943.0</ele>
   </trkpt>
   <trkpt lat="40.9673730" lon="-112.2167500">
    <ele>1944.4</ele>
   </trkpt>
   <trkpt lat="40.9672960" lon="-112.2167150">
    <ele>1945.5</ele>
   </trkpt>
   <trkpt lat="40.9671480" lon="-112.2166510">
    <ele>1947.8</ele>
   </trkpt>
   <trkpt lat="40.9670360" lon="-112.2166010">
    <ele>1949.5</ele>
   </trkpt>
   <trkpt lat="40.9668350" lon="-112.2165560">
    <ele>1951.2</ele>
   </trkpt>
   <trkpt lat="40.9668050" lon="-112.2165520">
    <ele>1951.3</ele>
   </trkpt>
   <trkpt lat="40.9666200" lon="-112.2165090">
    <ele>1950.8</ele>
   </trkpt>
   <trkpt lat="40.9664380" lon="-112.2164170">
    <ele>1949.3</ele>
   </trkpt>
   <trkpt lat="40.9662550" lon="-112.2163690">
    <ele>1945.4</ele>
   </trkpt>
   <trkpt lat="40.9661380" lon="-112.2163940">
    <ele>1941.9</ele>
   </trkpt>
   <trkpt lat="40.9659750" lon="-112.2163960">
    <ele>1938.3</ele>
   </trkpt>
   <trkpt lat="40.9658970" lon="-112.2163780">
    <ele>1937.0</ele>
   </trkpt>
   <trkpt lat="40.9658140" lon="-112.2163600">
    <ele>1935.8</ele>
   </trkpt>
   <trkpt lat="40.9656170" lon="-112.2162910">
    <ele>1934.0</ele>
   </trkpt>
   <trkpt lat="40.9655800" lon="-112.2162790">
    <ele>1933.6</ele>
   </trkpt>
   <trkpt lat="40.9655460" lon="-112.2162720">
    <ele>1933.2</ele>
   </trkpt>
   <trkpt lat="40.9654620" lon="-112.2162800">
    <ele>1931.8</ele>
   </trkpt>
   <trkpt lat="40.9654180" lon="-112.2162660">
    <ele>1931.0</ele>
   </trkpt>
   <trkpt lat="40.9653240" lon="-112.2162550">
    <ele>1929.0</ele>
   </trkpt>
   <trkpt lat="40.9652130" lon="-112.2162880">
    <ele>1926.2</ele>
   </trkpt>
   <trkpt lat="40.9651370" lon="-112.2162780">
    <ele>1924.5</ele>
   </trkpt>
   <trkpt lat="40.9649660" lon="-112.2162910">
    <ele>1920.6</ele>
   </trkpt>
   <trkpt lat="40.9648490" lon="-112.2162990">
    <ele>1918.6</ele>
   </trkpt>
   <trkpt lat="40.9646470" lon="-112.2162540">
    <ele>1917.7</ele>
   </trkpt>
   <trkpt lat="40.9644680" lon="-112.2162500">
    <ele>1917.1</ele>
   </trkpt>
   <trkpt lat="40.9642650" lon="-112.2162690">
    <ele>1916.3</ele>
   </trkpt>
   <trkpt lat="40.9640940" lon="-112.2162330">
    <ele>1917.3</ele>
   </trkpt>
   <trkpt lat="40.9639510" lon="-112.2162060">
    <ele>1920.3</ele>
   </trkpt>
   <trkpt lat="40.9638540" lon="-112.2161620">
    <ele>1923.3</ele>
   </trkpt>
   <trkpt lat="40.9637240" lon="-112.2161650">
    <ele>1927.5</ele>
   </trkpt>
   <trkpt lat="40.9637120" lon="-112.2161600">
    <ele>1928.0</ele>
   </trkpt>
   <trkpt lat="40.9636820" lon="-112.2161510">
    <ele>1929.0</ele>
   </trkpt>
   <trkpt lat="40.9636460" lon="-112.2161590">
    <ele>1930.1</ele>
   </trkpt>
   <trkpt lat="40.9635670" lon="-112.2161700">
    <ele>1932.4</ele>
   </trkpt>
   <trkpt lat="40.9635580" lon="-112.2161660">
    <ele>1932.7</ele>
   </trkpt>
   <trkpt lat="40.9634860" lon="-112.2161120">
    <ele>1934.5</ele>
   </trkpt>
   <trkpt lat="40.9633620" lon="-112.2161310">
    <ele>1936.7</ele>
   </trkpt>
   <trkpt lat="40.9632660" lon="-112.2162250">
    <ele>1938.5</ele>
   </trkpt>
   <trkpt lat="40.9632170" lon="-112.2162370">
    <ele>1939.2</ele>
   </trkpt>
   <trkpt lat="40.9631930" lon="-112.2162440">
    <ele>1939.4</ele>
   </trkpt>
   <trkpt lat="40.9630830" lon="-112.2163090">
    <ele>1940.1</ele>
   </trkpt>
   <trkpt lat="40.9629950" lon="-112.2164280">
    <ele>1939.8</ele>
   </trkpt>
   <trkpt lat="40.9629690" lon="-112.2164560">
    <ele>1939.6</ele>
   </trkpt>
   <trkpt lat="40.9628040" lon="-112.2165580">
    <ele>1939.1</ele>
   </trkpt>
   <trkpt lat="40.9626180" lon="-112.2166960">
    <ele>1938.5</ele>
   </trkpt>
   <trkpt lat="40.9624980" lon="-112.2168770">
    <ele>1938.6</ele>
   </trkpt>
   <trkpt lat="40.9624410" lon="-112.2169300">
    <ele>1939.4</ele>
   </trkpt>
   <trkpt lat="40.9623350" lon="-112.2170870">
    <ele>1941.4</ele>
   </trkpt>
   <trkpt lat="40.9622640" lon="-112.2171810">
    <ele>1942.3</ele>
   </trkpt>
   <trkpt lat="40.9622300" lon="-112.2172630">
    <ele>1942.7</ele>
   </trkpt>
   <trkpt lat="40.9621170" lon="-112.2174240">
    <ele>1943.9</ele>
   </trkpt>
   <trkpt lat="40.9620960" lon="-112.2174560">
    <ele>1944.1</ele>
   </trkpt>
   <trkpt lat="40.9619470" lon="-112.2176000">
    <ele>1946.6</ele>
   </trkpt>
   <trkpt lat="40.9619240" lon="-112.2176130">
    <ele>1947.0</ele>
   </trkpt>
   <trkpt lat="40.9618900" lon="-112.2176130">
    <ele>1947.7</ele>
   </trkpt>
   <trkpt lat="40.9618580" lon="-112.2175890">
    <ele>1948.5</ele>
   </trkpt>
   <trkpt lat="40.9617670" lon="-112.2174850">
    <ele>1951.5</ele>
   </trkpt>
   <trkpt lat="40.9616740" lon="-112.2173650">
    <ele>1955.2</ele>
   </trkpt>
   <trkpt lat="40.9616590" lon="-112.2173180">
    <ele>1956.5</ele>
   </trkpt>
   <trkpt lat="40.9616850" lon="-112.2173280">
    <ele>1957.4</ele>
   </trkpt>
   <trkpt lat="40.9617280" lon="-112.2173270">
    <ele>1959.0</ele>
   </trkpt>
   <trkpt lat="40.9617730" lon="-112.2173010">
    <ele>1960.8</ele>
   </trkpt>
   <trkpt lat="40.9617800" lon="-112.2172830">
    <ele>1961.4</ele>
   </trkpt>
   <trkpt lat="40.9617570" lon="-112.2172660">
    <ele>1962.4</ele>
   </trkpt>
   <trkpt lat="40.9617490" lon="-112.2172670">
    <ele>1962.7</ele>
   </trkpt>
   <trkpt lat="40.9617440" lon="-112.2172310">
    <ele>1963.7</ele>
   </trkpt>
   <trkpt lat="40.9617380" lon="-112.2172170">
    <ele>1964.1</ele>
   </trkpt>
   <trkpt lat="40.9617320" lon="-112.2171700">
    <ele>1965.3</ele>
   </trkpt>
   <trkpt lat="40.9617510" lon="-112.2171690">
    <ele>1966.0</ele>
   </trkpt>
   <trkpt lat="40.9618240" lon="-112.2171310">
    <ele>1968.5</ele>
   </trkpt>
   <trkpt lat="40.9618410" lon="-112.2171300">
    <ele>1969.1</ele>
   </trkpt>
   <trkpt lat="40.9618830" lon="-112.2171110">
    <ele>1970.4</ele>
   </trkpt>
   <trkpt lat="40.9618790" lon="-112.2170980">
    <ele>1970.7</ele>
   </trkpt>
   <trkpt lat="40.9618710" lon="-112.2170640">
    <ele>1971.4</ele>
   </trkpt>
   <trkpt lat="40.9618530" lon="-112.2170340">
    <ele>1972.2</ele>
   </trkpt>
   <trkpt lat="40.9618360" lon="-112.2170180">
    <ele>1972.7</ele>
   </trkpt>
   <trkpt lat="40.9618220" lon="-112.2169780">
    <ele>1973.5</ele>
   </trkpt>
   <trkpt lat="40.9618260" lon="-112.2169190">
    <ele>1974.6</ele>
   </trkpt>
   <trkpt lat="40.9618240" lon="-112.2167820">
    <ele>1977.0</ele>
   </trkpt>
   <trkpt lat="40.9618190" lon="-112.2167550">
    <ele>1977.5</ele>
   </trkpt>
   <trkpt lat="40.9618030" lon="-112.2166120">
    <ele>1979.8</ele>
   </trkpt>
   <trkpt lat="40.9617790" lon="-112.2164890">
    <ele>1981.6</ele>
   </trkpt>
   <trkpt lat="40.9617840" lon="-112.2164520">
    <ele>1982.1</ele>
   </trkpt>
   <trkpt lat="40.9617230" lon="-112.2162250">
    <ele>1985.0</ele>
   </trkpt>
   <trkpt lat="40.9616690" lon="-112.2160560">
    <ele>1987.6</ele>
   </trkpt>
   <trkpt lat="40.9615930" lon="-112.2158970">
    <ele>1990.9</ele>
   </trkpt>
   <trkpt lat="40.9615950" lon="-112.2158840">
    <ele>1991.1</ele>
   </trkpt>
   <trkpt lat="40.9615900" lon="-112.2158530">
    <ele>1991.7</ele>
   </trkpt>
   <trkpt lat="40.9615810" lon="-112.2158330">
    <ele>1992.1</ele>
   </trkpt>
   <trkpt lat="40.9615640" lon="-112.2157120">
    <ele>1994.2</ele>
   </trkpt>
   <trkpt lat="40.9615710" lon="-112.2156920">
    <ele>1994.5</ele>
   </trkpt>
   <trkpt lat="40.9615810" lon="-112.2156800">
    <ele>1994.8</ele>
   </trkpt>
   <trkpt lat="40.9616130" lon="-112.2156830">
    <ele>1995.4</ele>
   </trkpt>
   <trkpt lat="40.9616320" lon="-112.2156990">
    <ele>1995.9</ele>
   </trkpt>
   <trkpt lat="40.9617240" lon="-112.2157330">
    <ele>1997.7</ele>
   </trkpt>
   <trkpt lat="40.9617460" lon="-112.2157570">
    <ele>1998.2</ele>
   </trkpt>
   <trkpt lat="40.9618240" lon="-112.2158450">
    <ele>2000.3</ele>
   </trkpt>
   <trkpt lat="40.9618430" lon="-112.2158610">
    <ele>2000.8</ele>
   </trkpt>
   <trkpt lat="40.9618570" lon="-112.2158760">
    <ele>2001.2</ele>
   </trkpt>
   <trkpt lat="40.9618910" lon="-112.2159010">
    <ele>2002.0</ele>
   </trkpt>
   <trkpt lat="40.9619310" lon="-112.2159140">
    <ele>2002.8</ele>
   </trkpt>
   <trkpt lat="40.9620110" lon="-112.2159610">
    <ele>2004.0</ele>
   </trkpt>
   <trkpt lat="40.9620910" lon="-112.2160390">
    <ele>2004.6</ele>
   </trkpt>
   <trkpt lat="40.9621170" lon="-112.2160700">
    <ele>2004.6</ele>
   </trkpt>
   <trkpt lat="40.9621190" lon="-112.2160790">
    <ele>2004.6</ele>
   </trkpt>
   <trkpt lat="40.9620980" lon="-112.2160610">
    <ele>2004.6</ele>
   </trkpt>
   <trkpt lat="40.9620720" lon="-112.2160100">
    <ele>2004.5</ele>
   </trkpt>
   <trkpt lat="40.9620300" lon="-112.2159640">
    <ele>2004.1</ele>
   </trkpt>
   <trkpt lat="40.9620090" lon="-112.2159520">
    <ele>2003.9</ele>
   </trkpt>
   <trkpt lat="40.9619200" lon="-112.2159210">
    <ele>2002.5</ele>
   </trkpt>
   <trkpt lat="40.9618750" lon="-112.2158930">
    <ele>2001.5</ele>
   </trkpt>
   <trkpt lat="40.9617990" lon="-112.2158260">
    <ele>1999.6</ele>
   </trkpt>
   <trkpt lat="40.9616730" lon="-112.2157230">
    <ele>1996.7</ele>
   </trkpt>
   <trkpt lat="40.9615460" lon="-112.2157140">
    <ele>1994.2</ele>
   </trkpt>
   <trkpt lat="40.9615520" lon="-112.2158240">
    <ele>1992.3</ele>
   </trkpt>
   <trkpt lat="40.9616030" lon="-112.2159810">
    <ele>1989.3</ele>
   </trkpt>
   <trkpt lat="40.9616210" lon="-112.2160150">
    <ele>1988.6</ele>
   </trkpt>
   <trkpt lat="40.9616870" lon="-112.2162840">
    <ele>1984.5</ele>
   </trkpt>
   <trkpt lat="40.9617190" lon="-112.2163770">
    <ele>1983.3</ele>
   </trkpt>
   <trkpt lat="40.9617650" lon="-112.2165670">
    <ele>1980.7</ele>
   </trkpt>
   <trkpt lat="40.9617990" lon="-112.2167590">
    <ele>1977.6</ele>
   </trkpt>
   <trkpt lat="40.9618130" lon="-112.2168450">
    <ele>1976.1</ele>
   </trkpt>
   <trkpt lat="40.9618010" lon="-112.2170380">
    <ele>1972.6</ele>
   </trkpt>
   <trkpt lat="40.9618420" lon="-112.2171570">
    <ele>1969.9</ele>
   </trkpt>
   <trkpt lat="40.9618460" lon="-112.2171720">
    <ele>1969.5</ele>
   </trkpt>
   <trkpt lat="40.9618110" lon="-112.2171920">
    <ele>1968.3</ele>
   </trkpt>
   <trkpt lat="40.9616940" lon="-112.2172270">
    <ele>1964.3</ele>
   </trkpt>
   <trkpt lat="40.9616820" lon="-112.2172370">
    <ele>1963.9</ele>
   </trkpt>
   <trkpt lat="40.9616840" lon="-112.2172540">
    <ele>1963.4</ele>
   </trkpt>
   <trkpt lat="40.9617590" lon="-112.2173310">
    <ele>1959.8</ele>
   </trkpt>
   <trkpt lat="40.9617270" lon="-112.2173450">
    <ele>1958.5</ele>
   </trkpt>
   <trkpt lat="40.9616740" lon="-112.2173420">
    <ele>1956.7</ele>
   </trkpt>
   <trkpt lat="40.9616800" lon="-112.2173620">
    <ele>1956.1</ele>
   </trkpt>
   <trkpt lat="40.9617490" lon="-112.2174630">
    <ele>1953.0</ele>
   </trkpt>
   <trkpt lat="40.9619100" lon="-112.2175860">
    <ele>1948.2</ele>
   </trkpt>
   <trkpt lat="40.9619370" lon="-112.2176040">
    <ele>1947.6</ele>
   </trkpt>
   <trkpt lat="40.9620600" lon="-112.2175650">
    <ele>1945.4</ele>
   </trkpt>
   <trkpt lat="40.9620890" lon="-112.2175360">
    <ele>1944.9</ele>
   </trkpt>
   <trkpt lat="40.9621850" lon="-112.2174020">
    <ele>1943.6</ele>
   </trkpt>
   <trkpt lat="40.9623100" lon="-112.2172080">
    <ele>1942.3</ele>
   </trkpt>
   <trkpt lat="40.9624140" lon="-112.2170220">
    <ele>1940.6</ele>
   </trkpt>
   <trkpt lat="40.9624540" lon="-112.2169490">
    <ele>1939.7</ele>
   </trkpt>
   <trkpt lat="40.9624790" lon="-112.2169010">
    <ele>1939.1</ele>
   </trkpt>
   <trkpt lat="40.9624840" lon="-112.2168980">
    <ele>1939.1</ele>
   </trkpt>
   <trkpt lat="40.9625260" lon="-112.2168620">
    <ele>1938.6</ele>
   </trkpt>
   <trkpt lat="40.9625480" lon="-112.2167930">
    <ele>1938.3</ele>
   </trkpt>
   <trkpt lat="40.9625670" lon="-112.2167690">
    <ele>1938.2</ele>
   </trkpt>
   <trkpt lat="40.9626990" lon="-112.2166280">
    <ele>1938.8</ele>
   </trkpt>
   <trkpt lat="40.9627560" lon="-112.2165910">
    <ele>1939.0</ele>
   </trkpt>
   <trkpt lat="40.9628470" lon="-112.2165460">
    <ele>1939.2</ele>
   </trkpt>
   <trkpt lat="40.9630090" lon="-112.2164660">
    <ele>1939.7</ele>
   </trkpt>
   <trkpt lat="40.9630530" lon="-112.2164180">
    <ele>1939.9</ele>
   </trkpt>
   <trkpt lat="40.9631410" lon="-112.2163260">
    <ele>1940.1</ele>
   </trkpt>
   <trkpt lat="40.9631750" lon="-112.2163150">
    <ele>1939.9</ele>
   </trkpt>
   <trkpt lat="40.9632110" lon="-112.2162990">
    <ele>1939.6</ele>
   </trkpt>
   <trkpt lat="40.9632560" lon="-112.2162740">
    <ele>1939.1</ele>
   </trkpt>
   <trkpt lat="40.9632670" lon="-112.2162710">
    <ele>1939.0</ele>
   </trkpt>
   <trkpt lat="40.9632760" lon="-112.2162650">
    <ele>1938.9</ele>
   </trkpt>
   <trkpt lat="40.9633520" lon="-112.2161940">
    <ele>1937.5</ele>
   </trkpt>
   <trkpt lat="40.9635100" lon="-112.2161410">
    <ele>1934.8</ele>
   </trkpt>
   <trkpt lat="40.9635500" lon="-112.2161670">
    <ele>1933.9</ele>
   </trkpt>
   <trkpt lat="40.9635830" lon="-112.2161840">
    <ele>1933.1</ele>
   </trkpt>
   <trkpt lat="40.9635990" lon="-112.2161840">
    <ele>1932.6</ele>
   </trkpt>
   <trkpt lat="40.9636130" lon="-112.2161830">
    <ele>1932.3</ele>
   </trkpt>
   <trkpt lat="40.9636600" lon="-112.2161740">
    <ele>1930.9</ele>
   </trkpt>
   <trkpt lat="40.9637010" lon="-112.2161540">
    <ele>1929.6</ele>
   </trkpt>
   <trkpt lat="40.9637620" lon="-112.2161600">
    <ele>1927.5</ele>
   </trkpt>
   <trkpt lat="40.9639470" lon="-112.2162200">
    <ele>1921.5</ele>
   </trkpt>
   <trkpt lat="40.9640950" lon="-112.2162390">
    <ele>1917.9</ele>
   </trkpt>
   <trkpt lat="40.9642890" lon="-112.2162760">
    <ele>1916.3</ele>
   </trkpt>
   <trkpt lat="40.9644260" lon="-112.2162720">
    <ele>1916.7</ele>
   </trkpt>
   <trkpt lat="40.9645910" lon="-112.2162620">
    <ele>1917.5</ele>
   </trkpt>
   <trkpt lat="40.9647230" lon="-112.2162650">
    <ele>1917.8</ele>
   </trkpt>
   <trkpt lat="40.9647490" lon="-112.2162670">
    <ele>1917.8</ele>
   </trkpt>
   <trkpt lat="40.9648350" lon="-112.2162970">
    <ele>1918.2</ele>
   </trkpt>
   <trkpt lat="40.9649630" lon="-112.2163030">
    <ele>1919.8</ele>
   </trkpt>
   <trkpt lat="40.9649810" lon="-112.2163000">
    <ele>1920.1</ele>
   </trkpt>
   <trkpt lat="40.9651170" lon="-112.2162800">
    <ele>1923.3</ele>
   </trkpt>
   <trkpt lat="40.9651390" lon="-112.2162800">
    <ele>1923.8</ele>
   </trkpt>
   <trkpt lat="40.9651520" lon="-112.2162790">
    <ele>1924.1</ele>
   </trkpt>
   <trkpt lat="40.9652420" lon="-112.2163070">
    <ele>1926.2</ele>
   </trkpt>
   <trkpt lat="40.9652820" lon="-112.2163130">
    <ele>1927.1</ele>
   </trkpt>
   <trkpt lat="40.9653530" lon="-112.2162810">
    <ele>1929.0</ele>
   </trkpt>
   <trkpt lat="40.9653960" lon="-112.2162790">
    <ele>1930.0</ele>
   </trkpt>
   <trkpt lat="40.9654300" lon="-112.2162870">
    <ele>1930.7</ele>
   </trkpt>
   <trkpt lat="40.9655260" lon="-112.2163200">
    <ele>1932.5</ele>
   </trkpt>
   <trkpt lat="40.9656300" lon="-112.2163200">
    <ele>1933.9</ele>
   </trkpt>
   <trkpt lat="40.9657900" lon="-112.2163700">
    <ele>1935.3</ele>
   </trkpt>
   <trkpt lat="40.9659480" lon="-112.2164150">
    <ele>1937.4</ele>
   </trkpt>
   <trkpt lat="40.9659700" lon="-112.2164200">
    <ele>1937.7</ele>
   </trkpt>
   <trkpt lat="40.9660820" lon="-112.2164380">
    <ele>1939.9</ele>
   </trkpt>
   <trkpt lat="40.9662010" lon="-112.2164400">
    <ele>1943.0</ele>
   </trkpt>
   <trkpt lat="40.9662490" lon="-112.2164410">
    <ele>1944.4</ele>
   </trkpt>
   <trkpt lat="40.9662650" lon="-112.2164190">
    <ele>1945.1</ele>
   </trkpt>
   <trkpt lat="40.9662750" lon="-112.2164130">
    <ele>1945.4</ele>
   </trkpt>
   <trkpt lat="40.9662960" lon="-112.2164120">
    <ele>1946.0</ele>
   </trkpt>
   <trkpt lat="40.9663110" lon="-112.2164100">
    <ele>1946.4</ele>
   </trkpt>
   <trkpt lat="40.9663230" lon="-112.2164050">
    <ele>1946.8</ele>
   </trkpt>
   <trkpt lat="40.9663680" lon="-112.2163740">
    <ele>1947.9</ele>
   </trkpt>
   <trkpt lat="40.9663840" lon="-112.2163710">
    <ele>1948.3</ele>
   </trkpt>
   <trkpt lat="40.9664940" lon="-112.2164200">
    <ele>1949.7</ele>
   </trkpt>
   <trkpt lat="40.9665440" lon="-112.2164530">
    <ele>1950.2</ele>
   </trkpt>
   <trkpt lat="40.9666540" lon="-112.2165090">
    <ele>1950.9</ele>
   </trkpt>
   <trkpt lat="40.9668520" lon="-112.2165670">
    <ele>1951.1</ele>
   </trkpt>
   <trkpt lat="40.9668850" lon="-112.2165740">
    <ele>1951.0</ele>
   </trkpt>
   <trkpt lat="40.9669190" lon="-112.2165820">
    <ele>1950.7</ele>
   </trkpt>
   <trkpt lat="40.9670690" lon="-112.2166250">
    <ele>1949.1</ele>
   </trkpt>
   <trkpt lat="40.9672490" lon="-112.2167160">
    <ele>1946.2</ele>
   </trkpt>
   <trkpt lat="40.9672920" lon="-112.2167330">
    <ele>1945.5</ele>
   </trkpt>
   <trkpt lat="40.9674760" lon="-112.2168460">
    <ele>1942.8</ele>
   </trkpt>
   <trkpt lat="40.9675070" lon="-112.2168800">
    <ele>1942.2</ele>
   </trkpt>
   <trkpt lat="40.9676610" lon="-112.2170540">
    <ele>1938.1</ele>
   </trkpt>
   <trkpt lat="40.9677310" lon="-112.2171100">
    <ele>1936.4</ele>
   </trkpt>
   <trkpt lat="40.9678690" lon="-112.2172090">
    <ele>1933.6</ele>
   </trkpt>
   <trkpt lat="40.9679080" lon="-112.2172180">
    <ele>1932.9</ele>
   </trkpt>
   <trkpt lat="40.9680920" lon="-112.2172510">
    <ele>1929.5</ele>
   </trkpt>
   <trkpt lat="40.9681300" lon="-112.2172730">
    <ele>1928.6</ele>
   </trkpt>
   <trkpt lat="40.9683220" lon="-112.2173800">
    <ele>1924.6</ele>
   </trkpt>
   <trkpt lat="40.9685260" lon="-112.2174210">
    <ele>1921.5</ele>
   </trkpt>
   <trkpt lat="40.9685620" lon="-112.2174140">
    <ele>1920.8</ele>
   </trkpt>
   <trkpt lat="40.9687820" lon="-112.2174550">
    <ele>1916.0</ele>
   </trkpt>
   <trkpt lat="40.9689350" lon="-112.2175140">
    <ele>1913.0</ele>
   </trkpt>
   <trkpt lat="40.9690780" lon="-112.2175240">
    <ele>1909.9</ele>
   </trkpt>
   <trkpt lat="40.9692740" lon="-112.2175380">
    <ele>1905.7</ele>
   </trkpt>
   <trkpt lat="40.9693660" lon="-112.2175470">
    <ele>1904.3</ele>
   </trkpt>
   <trkpt lat="40.9694190" lon="-112.2175580">
    <ele>1903.6</ele>
   </trkpt>
   <trkpt lat="40.9695900" lon="-112.2175820">
    <ele>1901.6</ele>
   </trkpt>
   <trkpt lat="40.9696310" lon="-112.2175720">
    <ele>1900.9</ele>
   </trkpt>
   <trkpt lat="40.9697120" lon="-112.2175460">
    <ele>1899.1</ele>
   </trkpt>
   <trkpt lat="40.9698470" lon="-112.2175350">
    <ele>1896.1</ele>
   </trkpt>
   <trkpt lat="40.9698920" lon="-112.2175400">
    <ele>1895.2</ele>
   </trkpt>
   <trkpt lat="40.9699360" lon="-112.2175390">
    <ele>1894.3</ele>
   </trkpt>
   <trkpt lat="40.9701220" lon="-112.2175400">
    <ele>1890.6</ele>
   </trkpt>
   <trkpt lat="40.9701720" lon="-112.2175340">
    <ele>1889.6</ele>
   </trkpt>
   <trkpt lat="40.9702170" lon="-112.2175240">
    <ele>1888.7</ele>
   </trkpt>
   <trkpt lat="40.9703040" lon="-112.2175010">
    <ele>1886.7</ele>
   </trkpt>
   <trkpt lat="40.9703710" lon="-112.2174540">
    <ele>1884.8</ele>
   </trkpt>
   <trkpt lat="40.9704540" lon="-112.2173870">
    <ele>1882.3</ele>
   </trkpt>
   <trkpt lat="40.9705420" lon="-112.2173870">
    <ele>1880.3</ele>
   </trkpt>
   <trkpt lat="40.9706350" lon="-112.2174260">
    <ele>1878.6</ele>
   </trkpt>
   <trkpt lat="40.9707290" lon="-112.2174630">
    <ele>1877.1</ele>
   </trkpt>
   <trkpt lat="40.9707650" lon="-112.2174590">
    <ele>1876.4</ele>
   </trkpt>
   <trkpt lat="40.9708100" lon="-112.2174430">
    <ele>1875.4</ele>
   </trkpt>
   <trkpt lat="40.9708870" lon="-112.2173660">
    <ele>1873.1</ele>
   </trkpt>
   <trkpt lat="40.9709210" lon="-112.2173160">
    <ele>1871.9</ele>
   </trkpt>
   <trkpt lat="40.9709490" lon="-112.2172640">
    <ele>1870.7</ele>
   </trkpt>
   <trkpt lat="40.9710790" lon="-112.2170580">
    <ele>1866.0</ele>
   </trkpt>
   <trkpt lat="40.9711150" lon="-112.2170150">
    <ele>1864.8</ele>
   </trkpt>
   <trkpt lat="40.9712980" lon="-112.2168480">
    <ele>1860.2</ele>
   </trkpt>
   <trkpt lat="40.9714720" lon="-112.2166860">
    <ele>1857.5</ele>
   </trkpt>
   <trkpt lat="40.9715200" lon="-112.2166520">
    <ele>1857.0</ele>
   </trkpt>
   <trkpt lat="40.9715670" lon="-112.2166400">
    <ele>1856.6</ele>
   </trkpt>
   <trkpt lat="40.9716130" lon="-112.2166540">
    <ele>1856.1</ele>
   </trkpt>
   <trkpt lat="40.9716420" lon="-112.2166930">
    <ele>1855.6</ele>
   </trkpt>
   <trkpt lat="40.9717240" lon="-112.2168360">
    <ele>1853.5</ele>
   </trkpt>
   <trkpt lat="40.9718020" lon="-112.2168890">
    <ele>1851.8</ele>
   </trkpt>
   <trkpt lat="40.9719200" lon="-112.2169810">
    <ele>1849.1</ele>
   </trkpt>
   <trkpt lat="40.9720540" lon="-112.2170540">
    <ele>1846.6</ele>
   </trkpt>
   <trkpt lat="40.9721420" lon="-112.2170860">
    <ele>1845.2</ele>
   </trkpt>
   <trkpt lat="40.9723000" lon="-112.2171500">
    <ele>1842.3</ele>
   </trkpt>
   <trkpt lat="40.9723330" lon="-112.2171820">
    <ele>1841.4</ele>
   </trkpt>
   <trkpt lat="40.9723630" lon="-112.2172190">
    <ele>1840.4</ele>
   </trkpt>
   <trkpt lat="40.9724200" lon="-112.2172910">
    <ele>1838.5</ele>
   </trkpt>
   <trkpt lat="40.9724480" lon="-112.2173280">
    <ele>1837.5</ele>
   </trkpt>
   <trkpt lat="40.9725490" lon="-112.2174360">
    <ele>1834.5</ele>
   </trkpt>
   <trkpt lat="40.9726570" lon="-112.2175240">
    <ele>1831.7</ele>
   </trkpt>
   <trkpt lat="40.9726850" lon="-112.2175610">
    <ele>1830.8</ele>
   </trkpt>
   <trkpt lat="40.9728430" lon="-112.2177070">
    <ele>1826.7</ele>
   </trkpt>
   <trkpt lat="40.9730670" lon="-112.2177990">
    <ele>1823.5</ele>
   </trkpt>
   <trkpt lat="40.9731120" lon="-112.2178170">
    <ele>1823.0</ele>
   </trkpt>
   <trkpt lat="40.9732410" lon="-112.2178460">
    <ele>1821.5</ele>
   </trkpt>
   <trkpt lat="40.9733290" lon="-112.2178030">
    <ele>1820.4</ele>
   </trkpt>
   <trkpt lat="40.9734330" lon="-112.2177040">
    <ele>1818.8</ele>
   </trkpt>
   <trkpt lat="40.9735050" lon="-112.2176110">
    <ele>1817.5</ele>
   </trkpt>
   <trkpt lat="40.9735290" lon="-112.2175700">
    <ele>1817.0</ele>
   </trkpt>
   <trkpt lat="40.9735910" lon="-112.2174840">
    <ele>1816.1</ele>
   </trkpt>
   <trkpt lat="40.9736540" lon="-112.2174000">
    <ele>1815.5</ele>
   </trkpt>
   <trkpt lat="40.9737350" lon="-112.2172520">
    <ele>1814.5</ele>
   </trkpt>
   <trkpt lat="40.9737970" lon="-112.2171770">
    <ele>1813.4</ele>
   </trkpt>
   <trkpt lat="40.9738300" lon="-112.2171620">
    <ele>1812.8</ele>
   </trkpt>
   <trkpt lat="40.9738680" lon="-112.2171540">
    <ele>1812.1</ele>
   </trkpt>
   <trkpt lat="40.9739560" lon="-112.2171520">
    <ele>1810.3</ele>
   </trkpt>
   <trkpt lat="40.9740000" lon="-112.2171560">
    <ele>1809.5</ele>
   </trkpt>
   <trkpt lat="40.9740430" lon="-112.2171480">
    <ele>1808.8</ele>
   </trkpt>
   <trkpt lat="40.9742170" lon="-112.2170760">
    <ele>1807.9</ele>
   </trkpt>
   <trkpt lat="40.9743760" lon="-112.2169260">
    <ele>1807.6</ele>
   </trkpt>
   <trkpt lat="40.9744080" lon="-112.2168970">
    <ele>1807.4</ele>
   </trkpt>
   <trkpt lat="40.9745270" lon="-112.2167750">
    <ele>1806.3</ele>
   </trkpt>
   <trkpt lat="40.9745710" lon="-112.2167080">
    <ele>1806.0</ele>
   </trkpt>
   <trkpt lat="40.9746380" lon="-112.2165840">
    <ele>1805.7</ele>
   </trkpt>
   <trkpt lat="40.9746920" lon="-112.2165050">
    <ele>1805.4</ele>
   </trkpt>
   <trkpt lat="40.9747140" lon="-112.2164600">
    <ele>1805.2</ele>
   </trkpt>
   <trkpt lat="40.9747330" lon="-112.2164070">
    <ele>1804.9</ele>
   </trkpt>
   <trkpt lat="40.9747550" lon="-112.2163550">
    <ele>1804.7</ele>
   </trkpt>
   <trkpt lat="40.9747950" lon="-112.2162420">
    <ele>1804.1</ele>
   </trkpt>
   <trkpt lat="40.9748100" lon="-112.2161820">
    <ele>1803.8</ele>
   </trkpt>
   <trkpt lat="40.9748180" lon="-112.2161190">
    <ele>1803.5</ele>
   </trkpt>
   <trkpt lat="40.9748190" lon="-112.2160030">
    <ele>1803.0</ele>
   </trkpt>
   <trkpt lat="40.9748220" lon="-112.2158870">
    <ele>1802.6</ele>
   </trkpt>
   <trkpt lat="40.9748190" lon="-112.2155910">
    <ele>1801.5</ele>
   </trkpt>
   <trkpt lat="40.9748460" lon="-112.2154870">
    <ele>1801.1</ele>
   </trkpt>
   <trkpt lat="40.9749030" lon="-112.2154180">
    <ele>1799.8</ele>
   </trkpt>
   <trkpt lat="40.9749430" lon="-112.2154020">
    <ele>1799.1</ele>
   </trkpt>
   <trkpt lat="40.9749860" lon="-112.2154010">
    <ele>1798.3</ele>
   </trkpt>
   <trkpt lat="40.9750300" lon="-112.2154070">
    <ele>1797.5</ele>
   </trkpt>
   <trkpt lat="40.9750690" lon="-112.2154200">
    <ele>1796.6</ele>
   </trkpt>
   <trkpt lat="40.9751070" lon="-112.2154510">
    <ele>1795.6</ele>
   </trkpt>
   <trkpt lat="40.9751240" lon="-112.2154870">
    <ele>1794.7</ele>
   </trkpt>
   <trkpt lat="40.9751590" lon="-112.2155830">
    <ele>1792.4</ele>
   </trkpt>
   <trkpt lat="40.9752150" lon="-112.2156610">
    <ele>1789.9</ele>
   </trkpt>
   <trkpt lat="40.9752890" lon="-112.2157290">
    <ele>1787.4</ele>
   </trkpt>
   <trkpt lat="40.9753220" lon="-112.2157420">
    <ele>1786.5</ele>
   </trkpt>
   <trkpt lat="40.9754240" lon="-112.2157900">
    <ele>1783.6</ele>
   </trkpt>
   <trkpt lat="40.9754870" lon="-112.2158430">
    <ele>1781.7</ele>
   </trkpt>
   <trkpt lat="40.9755270" lon="-112.2158680">
    <ele>1780.6</ele>
   </trkpt>
   <trkpt lat="40.9756070" lon="-112.2159050">
    <ele>1778.5</ele>
   </trkpt>
   <trkpt lat="40.9756870" lon="-112.2159320">
    <ele>1776.6</ele>
   </trkpt>
   <trkpt lat="40.9758880" lon="-112.2160180">
    <ele>1772.1</ele>
   </trkpt>
   <trkpt lat="40.9759790" lon="-112.2160640">
    <ele>1770.4</ele>
   </trkpt>
   <trkpt lat="40.9760950" lon="-112.2161140">
    <ele>1768.2</ele>
   </trkpt>
   <trkpt lat="40.9762810" lon="-112.2161950">
    <ele>1764.4</ele>
   </trkpt>
   <trkpt lat="40.9763670" lon="-112.2162280">
    <ele>1762.5</ele>
   </trkpt>
   <trkpt lat="40.9764940" lon="-112.2162860">
    <ele>1759.6</ele>
   </trkpt>
   <trkpt lat="40.9765410" lon="-112.2163020">
    <ele>1758.6</ele>
   </trkpt>
   <trkpt lat="40.9765840" lon="-112.2163150">
    <ele>1757.7</ele>
   </trkpt>
   <trkpt lat="40.9767660" lon="-112.2163430">
    <ele>1754.3</ele>
   </trkpt>
   <trkpt lat="40.9768130" lon="-112.2163450">
    <ele>1753.4</ele>
   </trkpt>
   <trkpt lat="40.9769090" lon="-112.2163510">
    <ele>1751.7</ele>
   </trkpt>
   <trkpt lat="40.9770970" lon="-112.2163360">
    <ele>1748.7</ele>
   </trkpt>
   <trkpt lat="40.9771850" lon="-112.2163120">
    <ele>1747.2</ele>
   </trkpt>
   <trkpt lat="40.9772620" lon="-112.2162610">
    <ele>1745.9</ele>
   </trkpt>
   <trkpt lat="40.9773020" lon="-112.2162170">
    <ele>1745.2</ele>
   </trkpt>
   <trkpt lat="40.9773270" lon="-112.2161780">
    <ele>1744.6</ele>
   </trkpt>
   <trkpt lat="40.9774400" lon="-112.2159650">
    <ele>1742.2</ele>
   </trkpt>
   <trkpt lat="40.9774820" lon="-112.2158500">
    <ele>1741.1</ele>
   </trkpt>
   <trkpt lat="40.9775400" lon="-112.2156870">
    <ele>1739.3</ele>
   </trkpt>
   <trkpt lat="40.9776500" lon="-112.2154590">
    <ele>1737.2</ele>
   </trkpt>
   <trkpt lat="40.9776880" lon="-112.2153450">
    <ele>1736.7</ele>
   </trkpt>
   <trkpt lat="40.9777090" lon="-112.2152930">
    <ele>1736.5</ele>
   </trkpt>
   <trkpt lat="40.9777820" lon="-112.2152090">
    <ele>1736.1</ele>
   </trkpt>
   <trkpt lat="40.9778350" lon="-112.2151800">
    <ele>1735.9</ele>
   </trkpt>
   <trkpt lat="40.9778730" lon="-112.2151700">
    <ele>1735.7</ele>
   </trkpt>
   <trkpt lat="40.9779610" lon="-112.2151570">
    <ele>1735.4</ele>
   </trkpt>
   <trkpt lat="40.9780470" lon="-112.2151790">
    <ele>1735.2</ele>
   </trkpt>
   <trkpt lat="40.9781370" lon="-112.2152250">
    <ele>1735.1</ele>
   </trkpt>
   <trkpt lat="40.9781700" lon="-112.2152470">
    <ele>1735.1</ele>
   </trkpt>
   <trkpt lat="40.9782600" lon="-112.2152860">
    <ele>1735.1</ele>
   </trkpt>
   <trkpt lat="40.9783030" lon="-112.2153020">
    <ele>1735.1</ele>
   </trkpt>
   <trkpt lat="40.9785130" lon="-112.2153830">
    <ele>1735.9</ele>
   </trkpt>
   <trkpt lat="40.9786290" lon="-112.2154130">
    <ele>1736.4</ele>
   </trkpt>
   <trkpt lat="40.9788280" lon="-112.2155020">
    <ele>1737.0</ele>
   </trkpt>
   <trkpt lat="40.9788660" lon="-112.2155270">
    <ele>1737.1</ele>
   </trkpt>
   <trkpt lat="40.9790170" lon="-112.2155920">
    <ele>1737.5</ele>
   </trkpt>
   <trkpt lat="40.9791030" lon="-112.2156040">
    <ele>1737.7</ele>
   </trkpt>
   <trkpt lat="40.9793010" lon="-112.2156260">
    <ele>1738.2</ele>
   </trkpt>
   <trkpt lat="40.9795000" lon="-112.2156610">
    <ele>1738.3</ele>
   </trkpt>
   <trkpt lat="40.9797010" lon="-112.2156790">
    <ele>1737.1</ele>
   </trkpt>
   <trkpt lat="40.9797780" lon="-112.2156830">
    <ele>1736.1</ele>
   </trkpt>
   <trkpt lat="40.9798980" lon="-112.2156980">
    <ele>1734.3</ele>
   </trkpt>
   <trkpt lat="40.9799780" lon="-112.2156590">
    <ele>1733.2</ele>
   </trkpt>
   <trkpt lat="40.9801440" lon="-112.2154770">
    <ele>1730.9</ele>
   </trkpt>
   <trkpt lat="40.9803210" lon="-112.2153820">
    <ele>1729.1</ele>
   </trkpt>
   <trkpt lat="40.9803670" lon="-112.2153670">
    <ele>1728.7</ele>
   </trkpt>
   <trkpt lat="40.9805530" lon="-112.2153210">
    <ele>1727.5</ele>
   </trkpt>
   <trkpt lat="40.9807000" lon="-112.2152920">
    <ele>1727.0</ele>
   </trkpt>
   <trkpt lat="40.9807440" lon="-112.2152800">
    <ele>1726.9</ele>
   </trkpt>
   <trkpt lat="40.9808720" lon="-112.2152440">
    <ele>1727.0</ele>
   </trkpt>
   <trkpt lat="40.9809530" lon="-112.2152060">
    <ele>1727.2</ele>
   </trkpt>
   <trkpt lat="40.9809900" lon="-112.2151810">
    <ele>1727.2</ele>
   </trkpt>
   <trkpt lat="40.9811900" lon="-112.2150790">
    <ele>1727.4</ele>
   </trkpt>
   <trkpt lat="40.9812310" lon="-112.2150720">
    <ele>1727.4</ele>
   </trkpt>
   <trkpt lat="40.9812720" lon="-112.2150690">
    <ele>1727.4</ele>
   </trkpt>
   <trkpt lat="40.9814350" lon="-112.2150710">
    <ele>1727.7</ele>
   </trkpt>
   <trkpt lat="40.9815520" lon="-112.2150620">
    <ele>1727.7</ele>
   </trkpt>
   <trkpt lat="40.9815710" lon="-112.2150670">
    <ele>1727.6</ele>
   </trkpt>
   <trkpt lat="40.9815900" lon="-112.2150730">
    <ele>1727.6</ele>
   </trkpt>
   <trkpt lat="40.9817420" lon="-112.2151530">
    <ele>1727.0</ele>
   </trkpt>
   <trkpt lat="40.9818600" lon="-112.2152020">
    <ele>1726.2</ele>
   </trkpt>
   <trkpt lat="40.9819410" lon="-112.2152430">
    <ele>1725.5</ele>
   </trkpt>
   <trkpt lat="40.9820210" lon="-112.2152780">
    <ele>1724.7</ele>
   </trkpt>
   <trkpt lat="40.9821490" lon="-112.2153070">
    <ele>1723.4</ele>
   </trkpt>
   <trkpt lat="40.9822630" lon="-112.2153250">
    <ele>1721.8</ele>
   </trkpt>
   <trkpt lat="40.9823450" lon="-112.2153330">
    <ele>1720.6</ele>
   </trkpt>
   <trkpt lat="40.9824400" lon="-112.2153180">
    <ele>1719.1</ele>
   </trkpt>
   <trkpt lat="40.9825110" lon="-112.2153060">
    <ele>1717.9</ele>
   </trkpt>
   <trkpt lat="40.9825530" lon="-112.2152870">
    <ele>1717.3</ele>
   </trkpt>
   <trkpt lat="40.9826500" lon="-112.2152540">
    <ele>1715.8</ele>
   </trkpt>
   <trkpt lat="40.9826840" lon="-112.2152400">
    <ele>1715.4</ele>
   </trkpt>
   <trkpt lat="40.9827710" lon="-112.2152120">
    <ele>1714.1</ele>
   </trkpt>
   <trkpt lat="40.9828750" lon="-112.2151730">
    <ele>1712.7</ele>
   </trkpt>
   <trkpt lat="40.9829450" lon="-112.2151290">
    <ele>1711.8</ele>
   </trkpt>
   <trkpt lat="40.9829740" lon="-112.2150940">
    <ele>1711.4</ele>
   </trkpt>
   <trkpt lat="40.9830210" lon="-112.2150260">
    <ele>1710.5</ele>
   </trkpt>
   <trkpt lat="40.9830460" lon="-112.2150040">
    <ele>1710.2</ele>
   </trkpt>
   <trkpt lat="40.9830950" lon="-112.2149810">
    <ele>1709.5</ele>
   </trkpt>
   <trkpt lat="40.9831160" lon="-112.2149610">
    <ele>1709.2</ele>
   </trkpt>
   <trkpt lat="40.9831770" lon="-112.2148800">
    <ele>1708.3</ele>
   </trkpt>
   <trkpt lat="40.9832870" lon="-112.2147160">
    <ele>1706.9</ele>
   </trkpt>
   <trkpt lat="40.9834260" lon="-112.2145120">
    <ele>1704.9</ele>
   </trkpt>
   <trkpt lat="40.9834530" lon="-112.2144720">
    <ele>1704.5</ele>
   </trkpt>
   <trkpt lat="40.9835690" lon="-112.2142380">
    <ele>1702.3</ele>
   </trkpt>
   <trkpt lat="40.9835900" lon="-112.2141890">
    <ele>1701.8</ele>
   </trkpt>
   <trkpt lat="40.9836440" lon="-112.2140470">
    <ele>1699.8</ele>
   </trkpt>
   <trkpt lat="40.9836760" lon="-112.2139670">
    <ele>1698.5</ele>
   </trkpt>
   <trkpt lat="40.9837770" lon="-112.2139100">
    <ele>1696.3</ele>
   </trkpt>
   <trkpt lat="40.9839500" lon="-112.2138200">
    <ele>1692.4</ele>
   </trkpt>
   <trkpt lat="40.9840870" lon="-112.2138830">
    <ele>1689.2</ele>
   </trkpt>
   <trkpt lat="40.9842190" lon="-112.2140780">
    <ele>1684.3</ele>
   </trkpt>
   <trkpt lat="40.9842410" lon="-112.2141230">
    <ele>1683.3</ele>
   </trkpt>
   <trkpt lat="40.9842850" lon="-112.2142200">
    <ele>1681.0</ele>
   </trkpt>
   <trkpt lat="40.9843080" lon="-112.2143280">
    <ele>1678.9</ele>
   </trkpt>
   <trkpt lat="40.9843160" lon="-112.2143860">
    <ele>1677.8</ele>
   </trkpt>
   <trkpt lat="40.9843280" lon="-112.2144460">
    <ele>1676.8</ele>
   </trkpt>
   <trkpt lat="40.9843490" lon="-112.2145750">
    <ele>1674.8</ele>
   </trkpt>
   <trkpt lat="40.9843400" lon="-112.2146360">
    <ele>1674.0</ele>
   </trkpt>
   <trkpt lat="40.9843200" lon="-112.2147530">
    <ele>1672.4</ele>
   </trkpt>
   <trkpt lat="40.9843050" lon="-112.2148630">
    <ele>1671.1</ele>
   </trkpt>
   <trkpt lat="40.9842910" lon="-112.2149220">
    <ele>1670.4</ele>
   </trkpt>
   <trkpt lat="40.9842720" lon="-112.2149800">
    <ele>1669.7</ele>
   </trkpt>
   <trkpt lat="40.9842310" lon="-112.2151470">
    <ele>1667.8</ele>
   </trkpt>
   <trkpt lat="40.9842180" lon="-112.2152060">
    <ele>1667.1</ele>
   </trkpt>
   <trkpt lat="40.9841560" lon="-112.2154900">
    <ele>1662.4</ele>
   </trkpt>
   <trkpt lat="40.9841160" lon="-112.2156470">
    <ele>1659.5</ele>
   </trkpt>
   <trkpt lat="40.9840920" lon="-112.2157540">
    <ele>1657.6</ele>
   </trkpt>
   <trkpt lat="40.9840630" lon="-112.2159360">
    <ele>1654.9</ele>
   </trkpt>
   <trkpt lat="40.9840480" lon="-112.2159970">
    <ele>1654.1</ele>
   </trkpt>
   <trkpt lat="40.9839720" lon="-112.2162240">
    <ele>1651.7</ele>
   </trkpt>
   <trkpt lat="40.9839630" lon="-112.2162840">
    <ele>1651.1</ele>
   </trkpt>
   <trkpt lat="40.9839570" lon="-112.2165680">
    <ele>1646.8</ele>
   </trkpt>
   <trkpt lat="40.9839750" lon="-112.2167850">
    <ele>1643.1</ele>
   </trkpt>
   <trkpt lat="40.9839720" lon="-112.2168390">
    <ele>1642.2</ele>
   </trkpt>
   <trkpt lat="40.9839630" lon="-112.2168920">
    <ele>1641.3</ele>
   </trkpt>
   <trkpt lat="40.9839540" lon="-112.2169940">
    <ele>1639.7</ele>
   </trkpt>
   <trkpt lat="40.9839570" lon="-112.2171010">
    <ele>1637.9</ele>
   </trkpt>
   <trkpt lat="40.9839350" lon="-112.2172100">
    <ele>1635.8</ele>
   </trkpt>
   <trkpt lat="40.9839200" lon="-112.2173620">
    <ele>1633.0</ele>
   </trkpt>
   <trkpt lat="40.9839230" lon="-112.2174080">
    <ele>1632.1</ele>
   </trkpt>
   <trkpt lat="40.9839260" lon="-112.2174520">
    <ele>1631.1</ele>
   </trkpt>
   <trkpt lat="40.9839290" lon="-112.2175490">
    <ele>1629.0</ele>
   </trkpt>
   <trkpt lat="40.9839470" lon="-112.2176500">
    <ele>1626.7</ele>
   </trkpt>
   <trkpt lat="40.9839470" lon="-112.2176830">
    <ele>1626.0</ele>
   </trkpt>
   <trkpt lat="40.9839610" lon="-112.2177570">
    <ele>1624.3</ele>
   </trkpt>
   <trkpt lat="40.9839920" lon="-112.2177750">
    <ele>1623.3</ele>
   </trkpt>
   <trkpt lat="40.9841030" lon="-112.2177600">
    <ele>1620.2</ele>
   </trkpt>
   <trkpt lat="40.9841140" lon="-112.2177660">
    <ele>1619.8</ele>
   </trkpt>
   <trkpt lat="40.9841030" lon="-112.2178000">
    <ele>1619.1</ele>
   </trkpt>
   <trkpt lat="40.9840850" lon="-112.2178460">
    <ele>1617.9</ele>
   </trkpt>
   <trkpt lat="40.9841000" lon="-112.2178970">
    <ele>1616.7</ele>
   </trkpt>
   <trkpt lat="40.9841300" lon="-112.2179040">
    <ele>1615.7</ele>
   </trkpt>
   <trkpt lat="40.9841460" lon="-112.2178920">
    <ele>1615.2</ele>
   </trkpt>
   <trkpt lat="40.9842110" lon="-112.2178610">
    <ele>1612.9</ele>
   </trkpt>
   <trkpt lat="40.9842170" lon="-112.2178880">
    <ele>1612.2</ele>
   </trkpt>
   <trkpt lat="40.9842400" lon="-112.2179380">
    <ele>1610.8</ele>
   </trkpt>
   <trkpt lat="40.9842320" lon="-112.2179590">
    <ele>1610.2</ele>
   </trkpt>
   <trkpt lat="40.9842210" lon="-112.2180230">
    <ele>1608.5</ele>
   </trkpt>
   <trkpt lat="40.9842370" lon="-112.2180410">
    <ele>1607.8</ele>
   </trkpt>
   <trkpt lat="40.9842780" lon="-112.2180500">
    <ele>1606.5</ele>
   </trkpt>
   <trkpt lat="40.9843080" lon="-112.2180600">
    <ele>1605.4</ele>
   </trkpt>
   <trkpt lat="40.9842810" lon="-112.2181320">
    <ele>1603.5</ele>
   </trkpt>
   <trkpt lat="40.9842890" lon="-112.2181870">
    <ele>1602.2</ele>
   </trkpt>
   <trkpt lat="40.9843340" lon="-112.2182030">
    <ele>1600.8</ele>
   </trkpt>
   <trkpt lat="40.9844840" lon="-112.2182450">
    <ele>1596.8</ele>
   </trkpt>
   <trkpt lat="40.9845660" lon="-112.2182870">
    <ele>1595.5</ele>
   </trkpt>
   <trkpt lat="40.9845740" lon="-112.2182600">
    <ele>1595.4</ele>
   </trkpt>
   <trkpt lat="40.9845100" lon="-112.2181110">
    <ele>1594.9</ele>
   </trkpt>
   <trkpt lat="40.9844740" lon="-112.2180270">
    <ele>1594.4</ele>
   </trkpt>
   <trkpt lat="40.9844710" lon="-112.2179240">
    <ele>1593.7</ele>
   </trkpt>
   <trkpt lat="40.9845210" lon="-112.2177730">
    <ele>1592.2</ele>
   </trkpt>
   <trkpt lat="40.9845500" lon="-112.2177330">
    <ele>1591.6</ele>
   </trkpt>
   <trkpt lat="40.9846880" lon="-112.2176280">
    <ele>1589.7</ele>
   </trkpt>
   <trkpt lat="40.9848100" lon="-112.2174940">
    <ele>1588.5</ele>
   </trkpt>
   <trkpt lat="40.9849090" lon="-112.2172680">
    <ele>1588.7</ele>
   </trkpt>
   <trkpt lat="40.9849780" lon="-112.2171120">
    <ele>1589.3</ele>
   </trkpt>
   <trkpt lat="40.9850620" lon="-112.2168940">
    <ele>1589.5</ele>
   </trkpt>
   <trkpt lat="40.9851030" lon="-112.2168070">
    <ele>1589.6</ele>
   </trkpt>
   <trkpt lat="40.9851250" lon="-112.2167790">
    <ele>1589.6</ele>
   </trkpt>
   <trkpt lat="40.9852050" lon="-112.2166800">
    <ele>1590.2</ele>
   </trkpt>
   <trkpt lat="40.9852830" lon="-112.2165230">
    <ele>1591.4</ele>
   </trkpt>
   <trkpt lat="40.9853360" lon="-112.2164080">
    <ele>1592.1</ele>
   </trkpt>
   <trkpt lat="40.9854010" lon="-112.2161750">
    <ele>1593.0</ele>
   </trkpt>
   <trkpt lat="40.9854440" lon="-112.2159340">
    <ele>1593.7</ele>
   </trkpt>
   <trkpt lat="40.9854540" lon="-112.2158940">
    <ele>1593.7</ele>
   </trkpt>
   <trkpt lat="40.9855670" lon="-112.2157350">
    <ele>1592.5</ele>
   </trkpt>
   <trkpt lat="40.9856290" lon="-112.2156010">
    <ele>1591.2</ele>
   </trkpt>
   <trkpt lat="40.9856510" lon="-112.2155850">
    <ele>1590.9</ele>
   </trkpt>
   <trkpt lat="40.9857310" lon="-112.2154300">
    <ele>1589.5</ele>
   </trkpt>
   <trkpt lat="40.9857460" lon="-112.2153880">
    <ele>1589.3</ele>
   </trkpt>
   <trkpt lat="40.9857700" lon="-112.2153540">
    <ele>1589.1</ele>
   </trkpt>
   <trkpt lat="40.9858240" lon="-112.2152870">
    <ele>1588.9</ele>
   </trkpt>
   <trkpt lat="40.9859320" lon="-112.2151020">
    <ele>1588.6</ele>
   </trkpt>
   <trkpt lat="40.9859900" lon="-112.2150300">
    <ele>1588.4</ele>
   </trkpt>
   <trkpt lat="40.9860750" lon="-112.2149060">
    <ele>1588.5</ele>
   </trkpt>
   <trkpt lat="40.9861680" lon="-112.2146520">
    <ele>1588.1</ele>
   </trkpt>
   <trkpt lat="40.9862160" lon="-112.2145930">
    <ele>1587.6</ele>
   </trkpt>
   <trkpt lat="40.9862500" lon="-112.2145900">
    <ele>1587.4</ele>
   </trkpt>
   <trkpt lat="40.9863300" lon="-112.2145830">
    <ele>1587.1</ele>
   </trkpt>
   <trkpt lat="40.9863590" lon="-112.2145600">
    <ele>1587.0</ele>
   </trkpt>
   <trkpt lat="40.9865220" lon="-112.2143770">
    <ele>1586.8</ele>
   </trkpt>
   <trkpt lat="40.9866700" lon="-112.2141940">
    <ele>1586.7</ele>
   </trkpt>
   <trkpt lat="40.9866960" lon="-112.2141530">
    <ele>1586.7</ele>
   </trkpt>
   <trkpt lat="40.9868250" lon="-112.2139690">
    <ele>1586.1</ele>
   </trkpt>
   <trkpt lat="40.9868680" lon="-112.2138800">
    <ele>1585.7</ele>
   </trkpt>
   <trkpt lat="40.9869760" lon="-112.2137280">
    <ele>1584.9</ele>
   </trkpt>
   <trkpt lat="40.9870370" lon="-112.2136530">
    <ele>1584.9</ele>
   </trkpt>
   <trkpt lat="40.9871420" lon="-112.2134620">
    <ele>1584.6</ele>
   </trkpt>
   <trkpt lat="40.9872470" lon="-112.2132670">
    <ele>1582.5</ele>
   </trkpt>
   <trkpt lat="40.9872700" lon="-112.2132300">
    <ele>1582.0</ele>
   </trkpt>
   <trkpt lat="40.9874150" lon="-112.2130500">
    <ele>1579.7</ele>
   </trkpt>
   <trkpt lat="40.9874710" lon="-112.2129790">
    <ele>1578.8</ele>
   </trkpt>
   <trkpt lat="40.9876090" lon="-112.2128030">
    <ele>1576.2</ele>
   </trkpt>
   <trkpt lat="40.9876990" lon="-112.2126390">
    <ele>1574.0</ele>
   </trkpt>
   <trkpt lat="40.9877560" lon="-112.2125630">
    <ele>1572.9</ele>
   </trkpt>
   <trkpt lat="40.9878110" lon="-112.2124830">
    <ele>1572.0</ele>
   </trkpt>
   <trkpt lat="40.9878440" lon="-112.2124480">
    <ele>1571.6</ele>
   </trkpt>
   <trkpt lat="40.9879320" lon="-112.2123400">
    <ele>1570.5</ele>
   </trkpt>
   <trkpt lat="40.9880360" lon="-112.2121800">
    <ele>1569.2</ele>
   </trkpt>
   <trkpt lat="40.9880670" lon="-112.2121540">
    <ele>1568.8</ele>
   </trkpt>
   <trkpt lat="40.9881000" lon="-112.2121360">
    <ele>1568.5</ele>
   </trkpt>
   <trkpt lat="40.9882550" lon="-112.2120750">
    <ele>1566.6</ele>
   </trkpt>
   <trkpt lat="40.9882720" lon="-112.2120410">
    <ele>1566.2</ele>
   </trkpt>
   <trkpt lat="40.9882970" lon="-112.2119650">
    <ele>1565.3</ele>
   </trkpt>
   <trkpt lat="40.9883790" lon="-112.2118570">
    <ele>1563.7</ele>
   </trkpt>
   <trkpt lat="40.9884130" lon="-112.2118290">
    <ele>1563.3</ele>
   </trkpt>
   <trkpt lat="40.9885990" lon="-112.2117440">
    <ele>1561.3</ele>
   </trkpt>
   <trkpt lat="40.9886360" lon="-112.2117300">
    <ele>1560.8</ele>
   </trkpt>
   <trkpt lat="40.9887380" lon="-112.2116750">
    <ele>1559.1</ele>
   </trkpt>
   <trkpt lat="40.9888240" lon="-112.2115840">
    <ele>1557.3</ele>
   </trkpt>
   <trkpt lat="40.9889460" lon="-112.2114470">
    <ele>1555.7</ele>
   </trkpt>
   <trkpt lat="40.9889880" lon="-112.2114480">
    <ele>1555.6</ele>
   </trkpt>
   <trkpt lat="40.9890680" lon="-112.2114430">
    <ele>1555.3</ele>
   </trkpt>
   <trkpt lat="40.9891420" lon="-112.2114040">
    <ele>1555.0</ele>
   </trkpt>
   <trkpt lat="40.9891830" lon="-112.2113780">
    <ele>1554.9</ele>
   </trkpt>
   <trkpt lat="40.9892650" lon="-112.2113310">
    <ele>1554.5</ele>
   </trkpt>
   <trkpt lat="40.9893360" lon="-112.2112730">
    <ele>1554.1</ele>
   </trkpt>
   <trkpt lat="40.9894100" lon="-112.2112130">
    <ele>1553.6</ele>
   </trkpt>
   <trkpt lat="40.9894840" lon="-112.2111590">
    <ele>1553.0</ele>
   </trkpt>
   <trkpt lat="40.9895740" lon="-112.2110440">
    <ele>1552.1</ele>
   </trkpt>
   <trkpt lat="40.9896030" lon="-112.2110000">
    <ele>1551.7</ele>
   </trkpt>
   <trkpt lat="40.9897510" lon="-112.2108550">
    <ele>1550.0</ele>
   </trkpt>
   <trkpt lat="40.9897960" lon="-112.2108270">
    <ele>1549.5</ele>
   </trkpt>
   <trkpt lat="40.9899440" lon="-112.2107300">
    <ele>1547.3</ele>
   </trkpt>
   <trkpt lat="40.9899810" lon="-112.2106940">
    <ele>1546.8</ele>
   </trkpt>
   <trkpt lat="40.9901370" lon="-112.2105560">
    <ele>1545.9</ele>
   </trkpt>
   <trkpt lat="40.9901980" lon="-112.2104830">
    <ele>1545.5</ele>
   </trkpt>
   <trkpt lat="40.9902330" lon="-112.2104400">
    <ele>1545.2</ele>
   </trkpt>
   <trkpt lat="40.9902630" lon="-112.2103960">
    <ele>1544.8</ele>
   </trkpt>
   <trkpt lat="40.9903870" lon="-112.2101980">
    <ele>1542.6</ele>
   </trkpt>
   <trkpt lat="40.9905120" lon="-112.2100140">
    <ele>1540.7</ele>
   </trkpt>
   <trkpt lat="40.9905890" lon="-112.2099510">
    <ele>1540.0</ele>
   </trkpt>
   <trkpt lat="40.9906650" lon="-112.2098850">
    <ele>1539.0</ele>
   </trkpt>
   <trkpt lat="40.9908170" lon="-112.2097520">
    <ele>1536.5</ele>
   </trkpt>
   <trkpt lat="40.9908560" lon="-112.2097110">
    <ele>1535.9</ele>
   </trkpt>
   <trkpt lat="40.9908900" lon="-112.2096660">
    <ele>1535.2</ele>
   </trkpt>
   <trkpt lat="40.9909590" lon="-112.2095800">
    <ele>1533.6</ele>
   </trkpt>
   <trkpt lat="40.9910290" lon="-112.2095240">
    <ele>1531.9</ele>
   </trkpt>
   <trkpt lat="40.9910950" lon="-112.2094750">
    <ele>1530.4</ele>
   </trkpt>
   <trkpt lat="40.9911670" lon="-112.2094090">
    <ele>1529.0</ele>
   </trkpt>
   <trkpt lat="40.9911900" lon="-112.2093610">
    <ele>1528.4</ele>
   </trkpt>
   <trkpt lat="40.9912370" lon="-112.2092570">
    <ele>1527.1</ele>
   </trkpt>
   <trkpt lat="40.9913120" lon="-112.2091150">
    <ele>1525.0</ele>
   </trkpt>
   <trkpt lat="40.9913370" lon="-112.2090700">
    <ele>1524.2</ele>
   </trkpt>
   <trkpt lat="40.9913620" lon="-112.2090190">
    <ele>1523.3</ele>
   </trkpt>
   <trkpt lat="40.9914510" lon="-112.2088210">
    <ele>1519.6</ele>
   </trkpt>
   <trkpt lat="40.9914620" lon="-112.2087820">
    <ele>1518.9</ele>
   </trkpt>
   <trkpt lat="40.9915020" lon="-112.2086830">
    <ele>1517.1</ele>
   </trkpt>
   <trkpt lat="40.9915480" lon="-112.2085830">
    <ele>1515.1</ele>
   </trkpt>
   <trkpt lat="40.9916000" lon="-112.2084860">
    <ele>1513.0</ele>
   </trkpt>
   <trkpt lat="40.9916290" lon="-112.2084390">
    <ele>1512.0</ele>
   </trkpt>
   <trkpt lat="40.9917030" lon="-112.2083000">
    <ele>1508.9</ele>
   </trkpt>
   <trkpt lat="40.9917320" lon="-112.2082540">
    <ele>1507.9</ele>
   </trkpt>
   <trkpt lat="40.9918470" lon="-112.2080590">
    <ele>1503.9</ele>
   </trkpt>
   <trkpt lat="40.9918610" lon="-112.2079490">
    <ele>1502.3</ele>
   </trkpt>
   <trkpt lat="40.9918540" lon="-112.2077710">
    <ele>1499.9</ele>
   </trkpt>
   <trkpt lat="40.9918620" lon="-112.2077130">
    <ele>1499.1</ele>
   </trkpt>
   <trkpt lat="40.9918780" lon="-112.2076540">
    <ele>1498.3</ele>
   </trkpt>
   <trkpt lat="40.9919600" lon="-112.2074490">
    <ele>1494.7</ele>
   </trkpt>
   <trkpt lat="40.9920300" lon="-112.2073970">
    <ele>1493.0</ele>
   </trkpt>
   <trkpt lat="40.9920680" lon="-112.2074040">
    <ele>1492.3</ele>
   </trkpt>
   <trkpt lat="40.9921050" lon="-112.2074210">
    <ele>1491.5</ele>
   </trkpt>
   <trkpt lat="40.9921700" lon="-112.2074530">
    <ele>1490.0</ele>
   </trkpt>
   <trkpt lat="40.9922040" lon="-112.2074550">
    <ele>1489.3</ele>
   </trkpt>
   <trkpt lat="40.9922420" lon="-112.2074600">
    <ele>1488.4</ele>
   </trkpt>
   <trkpt lat="40.9923290" lon="-112.2074800">
    <ele>1486.5</ele>
   </trkpt>
   <trkpt lat="40.9923670" lon="-112.2074800">
    <ele>1485.8</ele>
   </trkpt>
   <trkpt lat="40.9925650" lon="-112.2074620">
    <ele>1483.1</ele>
   </trkpt>
   <trkpt lat="40.9926130" lon="-112.2074540">
    <ele>1482.7</ele>
   </trkpt>
   <trkpt lat="40.9928030" lon="-112.2073930">
    <ele>1481.1</ele>
   </trkpt>
   <trkpt lat="40.9928940" lon="-112.2073630">
    <ele>1480.1</ele>
   </trkpt>
   <trkpt lat="40.9930630" lon="-112.2072710">
    <ele>1478.3</ele>
   </trkpt>
   <trkpt lat="40.9931090" lon="-112.2072450">
    <ele>1478.0</ele>
   </trkpt>
   <trkpt lat="40.9931540" lon="-112.2072300">
    <ele>1477.7</ele>
   </trkpt>
   <trkpt lat="40.9932430" lon="-112.2072300">
    <ele>1477.3</ele>
   </trkpt>
   <trkpt lat="40.9932890" lon="-112.2072330">
    <ele>1477.2</ele>
   </trkpt>
   <trkpt lat="40.9934300" lon="-112.2072360">
    <ele>1476.6</ele>
   </trkpt>
   <trkpt lat="40.9935230" lon="-112.2072190">
    <ele>1476.3</ele>
   </trkpt>
   <trkpt lat="40.9935680" lon="-112.2072160">
    <ele>1476.1</ele>
   </trkpt>
   <trkpt lat="40.9936140" lon="-112.2072100">
    <ele>1475.9</ele>
   </trkpt>
   <trkpt lat="40.9937850" lon="-112.2071300">
    <ele>1474.7</ele>
   </trkpt>
   <trkpt lat="40.9938250" lon="-112.2071170">
    <ele>1474.4</ele>
   </trkpt>
   <trkpt lat="40.9939410" lon="-112.2070820">
    <ele>1472.8</ele>
   </trkpt>
   <trkpt lat="40.9939750" lon="-112.2070520">
    <ele>1472.0</ele>
   </trkpt>
   <trkpt lat="40.9940390" lon="-112.2070010">
    <ele>1470.3</ele>
   </trkpt>
   <trkpt lat="40.9940850" lon="-112.2069590">
    <ele>1468.7</ele>
   </trkpt>
   <trkpt lat="40.9941030" lon="-112.2069390">
    <ele>1468.1</ele>
   </trkpt>
   <trkpt lat="40.9941670" lon="-112.2067920">
    <ele>1464.6</ele>
   </trkpt>
   <trkpt lat="40.9942610" lon="-112.2066680">
    <ele>1461.6</ele>
   </trkpt>
   <trkpt lat="40.9943880" lon="-112.2065370">
    <ele>1458.2</ele>
   </trkpt>
   <trkpt lat="40.9945410" lon="-112.2063900">
    <ele>1454.2</ele>
   </trkpt>
   <trkpt lat="40.9946950" lon="-112.2062590">
    <ele>1450.5</ele>
   </trkpt>
   <trkpt lat="40.9948580" lon="-112.2060730">
    <ele>1445.7</ele>
   </trkpt>
   <trkpt lat="40.9949180" lon="-112.2060110">
    <ele>1443.8</ele>
   </trkpt>
   <trkpt lat="40.9949960" lon="-112.2059050">
    <ele>1440.9</ele>
   </trkpt>
   <trkpt lat="40.9949880" lon="-112.2058610">
    <ele>1440.1</ele>
   </trkpt>
   <trkpt lat="40.9948640" lon="-112.2056990">
    <ele>1435.9</ele>
   </trkpt>
   <trkpt lat="40.9947040" lon="-112.2054900">
    <ele>1431.3</ele>
   </trkpt>
   <trkpt lat="40.9946520" lon="-112.2054160">
    <ele>1429.7</ele>
   </trkpt>
   <trkpt lat="40.9945650" lon="-112.2052860">
    <ele>1427.2</ele>
   </trkpt>
   <trkpt lat="40.9944980" lon="-112.2051990">
    <ele>1425.4</ele>
   </trkpt>
   <trkpt lat="40.9944690" lon="-112.2051490">
    <ele>1424.5</ele>
   </trkpt>
   <trkpt lat="40.9944450" lon="-112.2051000">
    <ele>1423.7</ele>
   </trkpt>
   <trkpt lat="40.9943880" lon="-112.2048870">
    <ele>1420.5</ele>
   </trkpt>
   <trkpt lat="40.9943550" lon="-112.2047830">
    <ele>1418.9</ele>
   </trkpt>
   <trkpt lat="40.9942800" lon="-112.2046620">
    <ele>1416.8</ele>
   </trkpt>
   <trkpt lat="40.9942360" lon="-112.2045750">
    <ele>1415.4</ele>
   </trkpt>
   <trkpt lat="40.9941740" lon="-112.2043500">
    <ele>1412.1</ele>
   </trkpt>
   <trkpt lat="40.9941420" lon="-112.2042410">
    <ele>1410.4</ele>
   </trkpt>
   <trkpt lat="40.9941150" lon="-112.2040810">
    <ele>1407.9</ele>
   </trkpt>
   <trkpt lat="40.9941030" lon="-112.2040240">
    <ele>1407.0</ele>
   </trkpt>
   <trkpt lat="40.9940570" lon="-112.2038850">
    <ele>1404.7</ele>
   </trkpt>
   <trkpt lat="40.9940330" lon="-112.2038510">
    <ele>1404.1</ele>
   </trkpt>
   <trkpt lat="40.9940000" lon="-112.2038260">
    <ele>1403.3</ele>
   </trkpt>
   <trkpt lat="40.9939250" lon="-112.2037710">
    <ele>1401.6</ele>
   </trkpt>
   <trkpt lat="40.9938870" lon="-112.2037550">
    <ele>1400.7</ele>
   </trkpt>
   <trkpt lat="40.9938250" lon="-112.2037270">
    <ele>1399.2</ele>
   </trkpt>
   <trkpt lat="40.9937480" lon="-112.2036590">
    <ele>1397.0</ele>
   </trkpt>
   <trkpt lat="40.9936240" lon="-112.2034520">
    <ele>1392.2</ele>
   </trkpt>
   <trkpt lat="40.9935190" lon="-112.2032490">
    <ele>1387.7</ele>
   </trkpt>
   <trkpt lat="40.9935040" lon="-112.2032050">
    <ele>1386.9</ele>
   </trkpt>
   <trkpt lat="40.9935100" lon="-112.2029600">
    <ele>1383.1</ele>
   </trkpt>
   <trkpt lat="40.9935530" lon="-112.2028010">
    <ele>1381.1</ele>
   </trkpt>
   <trkpt lat="40.9936420" lon="-112.2026860">
    <ele>1379.5</ele>
   </trkpt>
   <trkpt lat="40.9936770" lon="-112.2026540">
    <ele>1379.1</ele>
   </trkpt>
  </trkseg>
 </trk>
</gpx>
