<?xml version="1.0" encoding="utf-8"?>
<gpx xmlns="http://www.topografix.com/GPX/1/1" xmlns:xsi="http://www.w3.org/2001/XMLSchema-instance" version="1.1" xsi:schemaLocation="http://www.topografix.com/GPX/1/1 http://www.topografix.com/GPX/1/1/gpx.xsd" creator="https://mountainproject.com">
<metadata><name>Black Velvet Peak Descent Route</name><author><name/><link href="https://www.mountainproject.com/user/10168/josh-janes"/></author><copyright author="MTB Project"><year>2025</year></copyright></metadata><trk><name>Black Velvet Peak Descent Route</name><link href="https://www.mountainproject.com/approach-trail/200466853/black-velvet-peak-descent-route"/><trkseg><trkpt lon="-115.468881" lat="36.034692"><ele>1740.5</ele><time>2024-02-14T10:27:53-07:00</time></trkpt><trkpt lon="-115.468935" lat="36.034721"><ele>1750.74</ele><time>2024-02-14T10:28:53-07:00</time></trkpt><trkpt lon="-115.469024" lat="36.034641"><ele>1776.67</ele><time>2024-02-14T10:29:53-07:00</time></trkpt><trkpt lon="-115.469222" lat="36.034532"><ele>1806.03</ele><time>2024-02-14T10:30:53-07:00</time></trkpt><trkpt lon="-115.469402" lat="36.034365"><ele>1822.63</ele><time>2024-02-14T10:31:53-07:00</time></trkpt><trkpt lon="-115.469375" lat="36.0343"><ele>1836.9</ele><time>2024-02-14T10:32:53-07:00</time></trkpt><trkpt lon="-115.46959" lat="36.034067"><ele>1852.63</ele><time>2024-02-14T10:33:53-07:00</time></trkpt><trkpt lon="-115.469599" lat="36.033966"><ele>1860.12</ele><time>2024-02-14T10:34:53-07:00</time></trkpt><trkpt lon="-115.469384" lat="36.033544"><ele>1860.98</ele><time>2024-02-14T10:35:53-07:00</time></trkpt><trkpt lon="-115.469222" lat="36.033537"><ele>1858.97</ele><time>2024-02-14T10:36:53-07:00</time></trkpt><trkpt lon="-115.469132" lat="36.033406"><ele>1856.07</ele><time>2024-02-14T10:37:53-07:00</time></trkpt><trkpt lon="-115.469033" lat="36.033443"><ele>1847.44</ele><time>2024-02-14T10:38:53-07:00</time></trkpt><trkpt lon="-115.468755" lat="36.033457"><ele>1834.22</ele><time>2024-02-14T10:39:53-07:00</time></trkpt><trkpt lon="-115.468369" lat="36.033232"><ele>1826.14</ele><time>2024-02-14T10:40:53-07:00</time></trkpt><trkpt lon="-115.468378" lat="36.033196"><ele>1816.82</ele><time>2024-02-14T10:41:53-07:00</time></trkpt><trkpt lon="-115.468099" lat="36.032651"><ele>1805.6</ele><time>2024-02-14T10:42:53-07:00</time></trkpt><trkpt lon="-115.467812" lat="36.032607"><ele>1801.13</ele><time>2024-02-14T10:43:53-07:00</time></trkpt><trkpt lon="-115.46774" lat="36.032498"><ele>1799.58</ele><time>2024-02-14T10:44:53-07:00</time></trkpt><trkpt lon="-115.467686" lat="36.032542"><ele>1799.2</ele><time>2024-02-14T10:45:53-07:00</time></trkpt><trkpt lon="-115.46756" lat="36.032491"><ele>1799.43</ele><time>2024-02-14T10:46:53-07:00</time></trkpt><trkpt lon="-115.467506" lat="36.032397"><ele>1800.91</ele><time>2024-02-14T10:47:53-07:00</time></trkpt><trkpt lon="-115.467228" lat="36.032309"><ele>1802.87</ele><time>2024-02-14T10:48:53-07:00</time></trkpt><trkpt lon="-115.467012" lat="36.032288"><ele>1800.05</ele><time>2024-02-14T10:49:53-07:00</time></trkpt><trkpt lon="-115.466626" lat="36.032346"><ele>1794.95</ele><time>2024-02-14T10:50:53-07:00</time></trkpt><trkpt lon="-115.466159" lat="36.031982"><ele>1793.7</ele><time>2024-02-14T10:51:53-07:00</time></trkpt><trkpt lon="-115.466105" lat="36.031823"><ele>1793.73</ele><time>2024-02-14T10:52:53-07:00</time></trkpt><trkpt lon="-115.466006" lat="36.031786"><ele>1790.89</ele><time>2024-02-14T10:53:53-07:00</time></trkpt><trkpt lon="-115.465817" lat="36.031823"><ele>1789.8</ele><time>2024-02-14T10:54:53-07:00</time></trkpt><trkpt lon="-115.465925" lat="36.031692"><ele>1789.5</ele><time>2024-02-14T10:55:53-07:00</time></trkpt><trkpt lon="-115.465817" lat="36.031794"><ele>1788.08</ele><time>2024-02-14T10:56:53-07:00</time></trkpt><trkpt lon="-115.46588" lat="36.031765"><ele>1787.11</ele><time>2024-02-14T10:57:53-07:00</time></trkpt><trkpt lon="-115.465781" lat="36.031765"><ele>1779.7</ele><time>2024-02-14T10:58:53-07:00</time></trkpt><trkpt lon="-115.465404" lat="36.031677"><ele>1771.33</ele><time>2024-02-14T10:59:53-07:00</time></trkpt><trkpt lon="-115.465377" lat="36.031721"><ele>1766.67</ele><time>2024-02-14T11:00:53-07:00</time></trkpt><trkpt lon="-115.465278" lat="36.031656"><ele>1759.97</ele><time>2024-02-14T11:01:53-07:00</time></trkpt><trkpt lon="-115.465054" lat="36.031634"><ele>1754.09</ele><time>2024-02-14T11:02:53-07:00</time></trkpt><trkpt lon="-115.465045" lat="36.031459"><ele>1748.91</ele><time>2024-02-14T11:03:53-07:00</time></trkpt><trkpt lon="-115.464874" lat="36.03135"><ele>1745.64</ele><time>2024-02-14T11:04:53-07:00</time></trkpt><trkpt lon="-115.464874" lat="36.031481"><ele>1741.37</ele><time>2024-02-14T11:05:53-07:00</time></trkpt><trkpt lon="-115.46465" lat="36.031474"><ele>1732.31</ele><time>2024-02-14T11:06:53-07:00</time></trkpt><trkpt lon="-115.464515" lat="36.031285"><ele>1726.3</ele><time>2024-02-14T11:07:53-07:00</time></trkpt><trkpt lon="-115.464497" lat="36.031336"><ele>1719.86</ele><time>2024-02-14T11:08:53-07:00</time></trkpt><trkpt lon="-115.464353" lat="36.031358"><ele>1708.89</ele><time>2024-02-14T11:09:53-07:00</time></trkpt><trkpt lon="-115.464236" lat="36.031467"><ele>1701.44</ele><time>2024-02-14T11:10:53-07:00</time></trkpt><trkpt lon="-115.464299" lat="36.031481"><ele>1695.35</ele><time>2024-02-14T11:11:53-07:00</time></trkpt><trkpt lon="-115.464254" lat="36.031648"><ele>1685.73</ele><time>2024-02-14T11:12:53-07:00</time></trkpt><trkpt lon="-115.464093" lat="36.031663"><ele>1673.02</ele><time>2024-02-14T11:13:53-07:00</time></trkpt><trkpt lon="-115.463913" lat="36.03183"><ele>1660.78</ele><time>2024-02-14T11:14:53-07:00</time></trkpt><trkpt lon="-115.463823" lat="36.031852"><ele>1653.1</ele><time>2024-02-14T11:15:53-07:00</time></trkpt><trkpt lon="-115.463787" lat="36.031917"><ele>1644.37</ele><time>2024-02-14T11:16:53-07:00</time></trkpt><trkpt lon="-115.463617" lat="36.031982"><ele>1637.73</ele><time>2024-02-14T11:17:53-07:00</time></trkpt><trkpt lon="-115.463661" lat="36.032012"><ele>1634.54</ele><time>2024-02-14T11:18:53-07:00</time></trkpt><trkpt lon="-115.463599" lat="36.03207"><ele>1628.83</ele><time>2024-02-14T11:19:53-07:00</time></trkpt><trkpt lon="-115.463428" lat="36.032404"><ele>1619.99</ele><time>2024-02-14T11:20:53-07:00</time></trkpt><trkpt lon="-115.463338" lat="36.032455"><ele>1611.51</ele><time>2024-02-14T11:21:53-07:00</time></trkpt><trkpt lon="-115.463338" lat="36.032535"><ele>1604.84</ele><time>2024-02-14T11:22:53-07:00</time></trkpt><trkpt lon="-115.463275" lat="36.032549"><ele>1595.83</ele><time>2024-02-14T11:23:53-07:00</time></trkpt><trkpt lon="-115.463176" lat="36.032658"><ele>1591.46</ele><time>2024-02-14T11:24:53-07:00</time></trkpt><trkpt lon="-115.463392" lat="36.032803"><ele>1591.83</ele><time>2024-02-14T11:25:53-07:00</time></trkpt><trkpt lon="-115.463338" lat="36.03284"><ele>1588.01</ele><time>2024-02-14T11:26:53-07:00</time></trkpt><trkpt lon="-115.463446" lat="36.032934"><ele>1581.84</ele><time>2024-02-14T11:27:53-07:00</time></trkpt><trkpt lon="-115.463428" lat="36.033036"><ele>1575.36</ele><time>2024-02-14T11:28:53-07:00</time></trkpt><trkpt lon="-115.463482" lat="36.033145"><ele>1568.2</ele><time>2024-02-14T11:29:53-07:00</time></trkpt><trkpt lon="-115.463149" lat="36.033203"><ele>1557.95</ele><time>2024-02-14T11:30:53-07:00</time></trkpt><trkpt lon="-115.463185" lat="36.033464"><ele>1539.98</ele><time>2024-02-14T11:31:53-07:00</time></trkpt><trkpt lon="-115.462925" lat="36.033515"><ele>1508.93</ele><time>2024-02-14T11:32:53-07:00</time></trkpt><trkpt lon="-115.462233" lat="36.033523"><ele>1482.16</ele><time>2024-02-14T11:33:53-07:00</time></trkpt><trkpt lon="-115.46208" lat="36.033341"><ele>1472.38</ele><time>2024-02-14T11:34:53-07:00</time></trkpt><trkpt lon="-115.462009" lat="36.033123"><ele>1465.61</ele><time>2024-02-14T11:35:53-07:00</time></trkpt><trkpt lon="-115.461847" lat="36.033138"><ele>1455.39</ele><time>2024-02-14T11:36:53-07:00</time></trkpt><trkpt lon="-115.461631" lat="36.03305"><ele>1448.29</ele><time>2024-02-14T11:37:53-07:00</time></trkpt><trkpt lon="-115.461658" lat="36.03297"><ele>1435.6</ele><time>2024-02-14T11:38:53-07:00</time></trkpt><trkpt lon="-115.461281" lat="36.03284"><ele>1422.22</ele><time>2024-02-14T11:39:53-07:00</time></trkpt><trkpt lon="-115.461209" lat="36.032912"><ele>1410.87</ele><time>2024-02-14T11:40:53-07:00</time></trkpt><trkpt lon="-115.460778" lat="36.032854"><ele>1395.71</ele><time>2024-02-14T11:41:53-07:00</time></trkpt><trkpt lon="-115.460679" lat="36.033029"><ele>1386.15</ele><time>2024-02-14T11:42:53-07:00</time></trkpt><trkpt lon="-115.460589" lat="36.032934"><ele>1379.99</ele><time>2024-02-14T11:43:53-07:00</time></trkpt><trkpt lon="-115.460526" lat="36.032927"><ele>1374.96</ele><time>2024-02-14T11:44:53-07:00</time></trkpt><trkpt lon="-115.460446" lat="36.033036"><ele>1367.37</ele><time>2024-02-14T11:45:53-07:00</time></trkpt><trkpt lon="-115.460203" lat="36.033029"><ele>1359.44</ele><time>2024-02-14T11:46:53-07:00</time></trkpt><trkpt lon="-115.460122" lat="36.03305"><ele>1354.43</ele><time>2024-02-14T11:47:53-07:00</time></trkpt><trkpt lon="-115.460095" lat="36.033094"><ele>1350.23</ele><time>2024-02-14T11:48:53-07:00</time></trkpt><trkpt lon="-115.459996" lat="36.033145"><ele>1345.83</ele><time>2024-02-14T11:49:53-07:00</time></trkpt><trkpt lon="-115.459933" lat="36.03321"><ele>1340.29</ele><time>2024-02-14T11:50:53-07:00</time></trkpt><trkpt lon="-115.459709" lat="36.033145"><ele>1335.06</ele><time>2024-02-14T11:51:53-07:00</time></trkpt><trkpt lon="-115.459637" lat="36.033094"><ele>1330.95</ele><time>2024-02-14T11:52:53-07:00</time></trkpt><trkpt lon="-115.459538" lat="36.033181"><ele>1325.79</ele><time>2024-02-14T11:53:53-07:00</time></trkpt><trkpt lon="-115.459377" lat="36.033152"><ele>1321.88</ele><time>2024-02-14T11:54:53-07:00</time></trkpt><trkpt lon="-115.459385" lat="36.033196"><ele>1319.14</ele><time>2024-02-14T11:55:53-07:00</time></trkpt><trkpt lon="-115.45926" lat="36.033196"><ele>1315.33</ele><time>2024-02-14T11:56:53-07:00</time></trkpt><trkpt lon="-115.459251" lat="36.033276"><ele>1311.7</ele><time>2024-02-14T11:57:53-07:00</time></trkpt><trkpt lon="-115.459179" lat="36.033377"><ele>1308.26</ele><time>2024-02-14T11:58:53-07:00</time></trkpt><trkpt lon="-115.459053" lat="36.033384"><ele>1305.82</ele><time>2024-02-14T11:59:53-07:00</time></trkpt><trkpt lon="-115.45908" lat="36.033479"><ele>1304.61</ele><time>2024-02-14T12:00:53-07:00</time></trkpt><trkpt lon="-115.459062" lat="36.033523"><ele>1304.1</ele><time>2024-02-14T12:01:53-07:00</time></trkpt><trkpt lon="-115.459134" lat="36.03353"><ele>1303.81</ele><time>2024-02-14T12:02:53-07:00</time></trkpt><trkpt lon="-115.459143" lat="36.033631"><ele>1303.1</ele><time>2024-02-14T12:03:53-07:00</time></trkpt><trkpt lon="-115.459215" lat="36.033719"><ele>1294.82</ele><time>2024-02-14T12:04:53-07:00</time></trkpt><trkpt lon="-115.458891" lat="36.034242"><ele>1283.08</ele><time>2024-02-14T12:05:53-07:00</time></trkpt><trkpt lon="-115.458793" lat="36.034249"><ele>1276.06</ele><time>2024-02-14T12:06:53-07:00</time></trkpt><trkpt lon="-115.458685" lat="36.034394"><ele>1269.75</ele><time>2024-02-14T12:07:53-07:00</time></trkpt><trkpt lon="-115.45846" lat="36.034489"><ele>1263.22</ele><time>2024-02-14T12:08:53-07:00</time></trkpt><trkpt lon="-115.458272" lat="36.034772"><ele>1258.92</ele><time>2024-02-14T12:09:53-07:00</time></trkpt><trkpt lon="-115.458146" lat="36.034866"><ele>1256.39</ele><time>2024-02-14T12:10:53-07:00</time></trkpt><trkpt lon="-115.457939" lat="36.034808"><ele>1253.57</ele><time>2024-02-14T12:11:53-07:00</time></trkpt><trkpt lon="-115.457831" lat="36.034881"><ele>1251.5</ele><time>2024-02-14T12:12:53-07:00</time></trkpt><trkpt lon="-115.457795" lat="36.034975"><ele>1248.98</ele><time>2024-02-14T12:13:53-07:00</time></trkpt><trkpt lon="-115.457589" lat="36.035063"><ele>1246.07</ele><time>2024-02-14T12:14:53-07:00</time></trkpt><trkpt lon="-115.45758" lat="36.035244"><ele>1243.46</ele><time>2024-02-14T12:15:53-07:00</time></trkpt><trkpt lon="-115.457481" lat="36.035382"><ele>1241.4</ele><time>2024-02-14T12:16:53-07:00</time></trkpt><trkpt lon="-115.457221" lat="36.035462"><ele>1239.43</ele><time>2024-02-14T12:17:53-07:00</time></trkpt><trkpt lon="-115.457113" lat="36.035593"><ele>1237.17</ele><time>2024-02-14T12:18:53-07:00</time></trkpt><trkpt lon="-115.456915" lat="36.03568"><ele>1234.86</ele><time>2024-02-14T12:19:53-07:00</time></trkpt><trkpt lon="-115.4567" lat="36.035687"><ele>1232.87</ele><time>2024-02-14T12:20:53-07:00</time></trkpt><trkpt lon="-115.456493" lat="36.035651"><ele>1231.44</ele><time>2024-02-14T12:21:53-07:00</time></trkpt><trkpt lon="-115.456457" lat="36.035745"><ele>1229.62</ele><time>2024-02-14T12:22:53-07:00</time></trkpt><trkpt lon="-115.456071" lat="36.03576"><ele>1228.07</ele><time>2024-02-14T12:23:53-07:00</time></trkpt><trkpt lon="-115.456026" lat="36.035724"><ele>1226.5</ele><time>2024-02-14T12:24:53-07:00</time></trkpt><trkpt lon="-115.455487" lat="36.035636"><ele>1224.34</ele><time>2024-02-14T12:25:53-07:00</time></trkpt><trkpt lon="-115.455352" lat="36.035665"><ele>1221.66</ele><time>2024-02-14T12:26:53-07:00</time></trkpt><trkpt lon="-115.454562" lat="36.035375"><ele>1218.14</ele><time>2024-02-14T12:27:53-07:00</time></trkpt><trkpt lon="-115.454265" lat="36.03531"><ele>1214.77</ele><time>2024-02-14T12:28:53-07:00</time></trkpt><trkpt lon="-115.453978" lat="36.035288"><ele>1211.78</ele><time>2024-02-14T12:29:53-07:00</time></trkpt><trkpt lon="-115.453358" lat="36.035012"><ele>1208.5</ele><time>2024-02-14T12:30:53-07:00</time></trkpt><trkpt lon="-115.452873" lat="36.034845"><ele>1204.42</ele><time>2024-02-14T12:31:53-07:00</time></trkpt><trkpt lon="-115.452235" lat="36.034968"><ele>1200.39</ele><time>2024-02-14T12:32:53-07:00</time></trkpt><trkpt lon="-115.451947" lat="36.034816"><ele>1195.77</ele><time>2024-02-14T12:33:53-07:00</time></trkpt><trkpt lon="-115.450851" lat="36.034612"><ele>1192.16</ele><time>2024-02-14T12:34:53-07:00</time></trkpt><trkpt lon="-115.450609" lat="36.034481"><ele>1190.89</ele><time>2024-02-14T12:35:53-07:00</time></trkpt><trkpt lon="-115.450232" lat="36.034416"><ele>1189.44</ele><time>2024-02-14T12:36:53-07:00</time></trkpt><trkpt lon="-115.449899" lat="36.034474"><ele>1187.04</ele><time>2024-02-14T12:37:53-07:00</time></trkpt><trkpt lon="-115.449657" lat="36.034489"><ele>1185.11</ele><time>2024-02-14T12:38:53-07:00</time></trkpt></trkseg></trk></gpx>
