<?xml version="1.0" encoding="utf-8"?>
<gpx xmlns="http://www.topografix.com/GPX/1/1" xmlns:xsi="http://www.w3.org/2001/XMLSchema-instance" version="1.1" xsi:schemaLocation="http://www.topografix.com/GPX/1/1 http://www.topografix.com/GPX/1/1/gpx.xsd" creator="https://powderproject.com">
<metadata><name>Cardiac Ridge Skinner</name><author><name/><link href="https://www.powderproject.com/user/106223916/charlie-b"/></author><copyright author="MTB Project"><year>2023</year></copyright></metadata><trk><name>Cardiac Ridge Skinner</name><link href="https://www.powderproject.com/trail/7001563/cardiac-ridge-skinner"/><trkseg><trkpt lon="-111.659817" lat="40.601974"><ele>2862.3</ele><time>2022-01-11T11:57:55-07:00</time></trkpt><trkpt lon="-111.660949" lat="40.601244"><ele>2875.35</ele><time>2022-01-11T11:58:55-07:00</time></trkpt><trkpt lon="-111.661982" lat="40.601681"><ele>2888.84</ele><time>2022-01-11T11:59:55-07:00</time></trkpt><trkpt lon="-111.661982" lat="40.600889"><ele>2901</ele><time>2022-01-11T12:00:55-07:00</time></trkpt><trkpt lon="-111.662719" lat="40.601531"><ele>2914.72</ele><time>2022-01-11T12:01:55-07:00</time></trkpt><trkpt lon="-111.662943" lat="40.600849"><ele>2927.19</ele><time>2022-01-11T12:02:55-07:00</time></trkpt><trkpt lon="-111.66333" lat="40.601797"><ele>2941.19</ele><time>2022-01-11T12:03:55-07:00</time></trkpt><trkpt lon="-111.663824" lat="40.601046"><ele>2954.69</ele><time>2022-01-11T12:04:55-07:00</time></trkpt><trkpt lon="-111.664192" lat="40.601858"><ele>2977.15</ele><time>2022-01-11T12:05:55-07:00</time></trkpt><trkpt lon="-111.665279" lat="40.601319"><ele>3011.91</ele><time>2022-01-11T12:06:55-07:00</time></trkpt><trkpt lon="-111.66589" lat="40.602001"><ele>3042.35</ele><time>2022-01-11T12:07:55-07:00</time></trkpt><trkpt lon="-111.666492" lat="40.601292"><ele>3080.78</ele><time>2022-01-11T12:08:55-07:00</time></trkpt><trkpt lon="-111.667354" lat="40.602042"><ele>3117.83</ele><time>2022-01-11T12:09:55-07:00</time></trkpt><trkpt lon="-111.667938" lat="40.601326"><ele>3139.98</ele><time>2022-01-11T12:10:55-07:00</time></trkpt><trkpt lon="-111.668549" lat="40.602063"><ele>3153.9</ele><time>2022-01-11T12:11:55-07:00</time></trkpt></trkseg></trk></gpx>
