<?xml version="1.0" ?><gpx xmlns="http://www.topografix.com/GPX/1/1" creator="GaiaGPS" version="1.1" xmlns:xsi="http://www.w3.org/2001/XMLSchema-instance" xsi:schemaLocation="http://www.topografix.com/GPX/1/1 http://www.topografix.com/GPX/1/1/gpx.xsd"><trk><name>Death Hollow via Boulder Mail Trail</name><type>knownroute</type><trkseg><trkpt lat="37.884204" lon="-111.464463" ele="2069.0"/><trkpt lat="37.884212" lon="-111.464509" ele="2069.0"/><trkpt lat="37.884193" lon="-111.464592" ele="2070.0"/><trkpt lat="37.884162" lon="-111.464661" ele="2071.0"/><trkpt lat="37.884166" lon="-111.464722" ele="2071.0"/><trkpt lat="37.884189" lon="-111.464776" ele="2071.0"/><trkpt lat="37.88425" lon="-111.46489" ele="2072.0"/><trkpt lat="37.884235" lon="-111.464936" ele="2072.0"/><trkpt lat="37.884181" lon="-111.465012" ele="2073.0"/><trkpt lat="37.884174" lon="-111.465073" ele="2073.0"/><trkpt lat="37.884365" lon="-111.465508" ele="2074.0"/><trkpt lat="37.884437" lon="-111.465592" ele="2074.0"/><trkpt lat="37.884529" lon="-111.465714" ele="2074.0"/><trkpt lat="37.884532" lon="-111.465828" ele="2075.0"/><trkpt lat="37.88459" lon="-111.465951" ele="2075.0"/><trkpt lat="37.884628" lon="-111.466111" ele="2075.0"/><trkpt lat="37.884616" lon="-111.466271" ele="2075.0"/><trkpt lat="37.884609" lon="-111.46637" ele="2075.0"/><trkpt lat="37.884567" lon="-111.466446" ele="2074.0"/><trkpt lat="37.884559" lon="-111.466561" ele="2073.0"/><trkpt lat="37.884513" lon="-111.466652" ele="2072.0"/><trkpt lat="37.884407" lon="-111.466691" ele="2070.0"/><trkpt lat="37.884254" lon="-111.466942" ele="2066.0"/><trkpt lat="37.884197" lon="-111.466958" ele="2065.0"/><trkpt lat="37.884143" lon="-111.467087" ele="2064.0"/><trkpt lat="37.883983" lon="-111.467324" ele="2061.0"/><trkpt lat="37.884002" lon="-111.467438" ele="2061.0"/><trkpt lat="37.883895" lon="-111.46753" ele="2059.0"/><trkpt lat="37.883815" lon="-111.46753" ele="2059.0"/><trkpt lat="37.883678" lon="-111.467629" ele="2057.0"/><trkpt lat="37.883548" lon="-111.46769" ele="2056.0"/><trkpt lat="37.883426" lon="-111.46782" ele="2055.0"/><trkpt lat="37.883316" lon="-111.468026" ele="2054.0"/><trkpt lat="37.883083" lon="-111.468369" ele="2054.0"/><trkpt lat="37.882732" lon="-111.468659" ele="2051.0"/><trkpt lat="37.882377" lon="-111.468819" ele="2047.0"/><trkpt lat="37.882194" lon="-111.468972" ele="2046.0"/><trkpt lat="37.882057" lon="-111.469178" ele="2045.0"/><trkpt lat="37.881912" lon="-111.469246" ele="2045.0"/><trkpt lat="37.881835" lon="-111.469376" ele="2044.0"/><trkpt lat="37.881633" lon="-111.469506" ele="2043.0"/><trkpt lat="37.881492" lon="-111.469605" ele="2042.0"/><trkpt lat="37.881423" lon="-111.469727" ele="2041.0"/><trkpt lat="37.881271" lon="-111.469903" ele="2040.0"/><trkpt lat="37.881168" lon="-111.470002" ele="2039.0"/><trkpt lat="37.88097" lon="-111.470009" ele="2039.0"/><trkpt lat="37.880924" lon="-111.470086" ele="2039.0"/><trkpt lat="37.880931" lon="-111.470383" ele="2039.0"/><trkpt lat="37.880512" lon="-111.470749" ele="2038.0"/><trkpt lat="37.880424" lon="-111.471192" ele="2035.0"/><trkpt lat="37.879985" lon="-111.471016" ele="2036.0"/><trkpt lat="37.879772" lon="-111.471398" ele="2033.0"/><trkpt lat="37.879463" lon="-111.471795" ele="2033.0"/><trkpt lat="37.87931" lon="-111.472504" ele="2029.0"/><trkpt lat="37.879276" lon="-111.472901" ele="2029.0"/><trkpt lat="37.879329" lon="-111.473176" ele="2028.0"/><trkpt lat="37.878829" lon="-111.473809" ele="2023.0"/><trkpt lat="37.878799" lon="-111.474144" ele="2021.0"/><trkpt lat="37.878845" lon="-111.474709" ele="2020.0"/><trkpt lat="37.878932" lon="-111.475304" ele="2020.0"/><trkpt lat="37.878936" lon="-111.475709" ele="2016.0"/><trkpt lat="37.878871" lon="-111.476616" ele="2014.0"/><trkpt lat="37.878635" lon="-111.476967" ele="2014.0"/><trkpt lat="37.877998" lon="-111.477417" ele="2014.0"/><trkpt lat="37.877174" lon="-111.477273" ele="2015.0"/><trkpt lat="37.876689" lon="-111.47741" ele="2013.0"/><trkpt lat="37.876045" lon="-111.477349" ele="2011.0"/><trkpt lat="37.875492" lon="-111.47715" ele="2012.0"/><trkpt lat="37.874019" lon="-111.477402" ele="2019.0"/><trkpt lat="37.873901" lon="-111.47754" ele="2019.0"/><trkpt lat="37.87347" lon="-111.477532" ele="2021.0"/><trkpt lat="37.873115" lon="-111.477311" ele="2020.0"/><trkpt lat="37.872711" lon="-111.477669" ele="2018.0"/><trkpt lat="37.872501" lon="-111.478013" ele="2015.0"/><trkpt lat="37.872257" lon="-111.478196" ele="2013.0"/><trkpt lat="37.871994" lon="-111.478287" ele="2011.0"/><trkpt lat="37.871669" lon="-111.478577" ele="2010.0"/><trkpt lat="37.87096" lon="-111.479378" ele="2006.0"/><trkpt lat="37.870502" lon="-111.479661" ele="2000.0"/><trkpt lat="37.869991" lon="-111.479676" ele="1991.0"/><trkpt lat="37.869594" lon="-111.47995" ele="1983.0"/><trkpt lat="37.8693" lon="-111.480324" ele="1973.0"/><trkpt lat="37.868911" lon="-111.480149" ele="1968.0"/><trkpt lat="37.868762" lon="-111.480416" ele="1965.0"/><trkpt lat="37.868412" lon="-111.481789" ele="1956.0"/><trkpt lat="37.867156" lon="-111.483071" ele="1954.0"/><trkpt lat="37.866775" lon="-111.483361" ele="1953.0"/><trkpt lat="37.866336" lon="-111.483559" ele="1954.0"/><trkpt lat="37.86605" lon="-111.483834" ele="1952.0"/><trkpt lat="37.86589" lon="-111.483979" ele="1949.0"/><trkpt lat="37.865707" lon="-111.484055" ele="1946.0"/><trkpt lat="37.865646" lon="-111.48404" ele="1947.0"/><trkpt lat="37.865619" lon="-111.483979" ele="1948.0"/><trkpt lat="37.865577" lon="-111.483925" ele="1949.0"/><trkpt lat="37.865535" lon="-111.483887" ele="1950.0"/><trkpt lat="37.865413" lon="-111.483918" ele="1947.0"/><trkpt lat="37.865318" lon="-111.484047" ele="1944.0"/><trkpt lat="37.865291" lon="-111.484177" ele="1942.0"/><trkpt lat="37.865299" lon="-111.484307" ele="1940.0"/><trkpt lat="37.865356" lon="-111.484414" ele="1938.0"/><trkpt lat="37.865333" lon="-111.484589" ele="1936.0"/><trkpt lat="37.865108" lon="-111.484986" ele="1928.0"/><trkpt lat="37.864944" lon="-111.485077" ele="1925.0"/><trkpt lat="37.864822" lon="-111.485123" ele="1922.0"/><trkpt lat="37.864746" lon="-111.485146" ele="1920.0"/><trkpt lat="37.864566" lon="-111.485131" ele="1918.0"/><trkpt lat="37.864379" lon="-111.485062" ele="1917.0"/><trkpt lat="37.864231" lon="-111.485108" ele="1916.0"/><trkpt lat="37.864055" lon="-111.485283" ele="1914.0"/><trkpt lat="37.863815" lon="-111.485596" ele="1910.0"/><trkpt lat="37.863689" lon="-111.48594" ele="1907.0"/><trkpt lat="37.863674" lon="-111.486039" ele="1907.0"/><trkpt lat="37.863681" lon="-111.486161" ele="1906.0"/><trkpt lat="37.863677" lon="-111.48668" ele="1900.0"/><trkpt lat="37.863704" lon="-111.48687" ele="1898.0"/><trkpt lat="37.863777" lon="-111.48716" ele="1894.0"/><trkpt lat="37.863609" lon="-111.487488" ele="1888.0"/><trkpt lat="37.86362" lon="-111.487855" ele="1886.0"/><trkpt lat="37.863536" lon="-111.488167" ele="1886.0"/><trkpt lat="37.86351" lon="-111.488663" ele="1883.0"/><trkpt lat="37.86338" lon="-111.488831" ele="1885.0"/><trkpt lat="37.863239" lon="-111.489365" ele="1878.0"/><trkpt lat="37.863044" lon="-111.489731" ele="1875.0"/><trkpt lat="37.862888" lon="-111.489892" ele="1872.0"/><trkpt lat="37.862758" lon="-111.490029" ele="1870.0"/><trkpt lat="37.862613" lon="-111.490143" ele="1870.0"/><trkpt lat="37.862422" lon="-111.490059" ele="1871.0"/><trkpt lat="37.862354" lon="-111.490021" ele="1870.0"/><trkpt lat="37.862014" lon="-111.489815" ele="1872.0"/><trkpt lat="37.861679" lon="-111.489716" ele="1868.0"/><trkpt lat="37.861621" lon="-111.489724" ele="1868.0"/><trkpt lat="37.861469" lon="-111.489762" ele="1869.0"/><trkpt lat="37.861286" lon="-111.489937" ele="1870.0"/><trkpt lat="37.86111" lon="-111.490098" ele="1870.0"/><trkpt lat="37.861045" lon="-111.490227" ele="1872.0"/><trkpt lat="37.860927" lon="-111.490281" ele="1872.0"/><trkpt lat="37.860904" lon="-111.490281" ele="1872.0"/><trkpt lat="37.860866" lon="-111.490349" ele="1874.0"/><trkpt lat="37.860774" lon="-111.490502" ele="1880.0"/><trkpt lat="37.860431" lon="-111.490609" ele="1882.0"/><trkpt lat="37.86037" lon="-111.490723" ele="1884.0"/><trkpt lat="37.859806" lon="-111.491135" ele="1869.0"/><trkpt lat="37.859657" lon="-111.49144" ele="1865.0"/><trkpt lat="37.859535" lon="-111.492249" ele="1865.0"/><trkpt lat="37.859394" lon="-111.492524" ele="1865.0"/><trkpt lat="37.859027" lon="-111.492661" ele="1863.0"/><trkpt lat="37.858818" lon="-111.492646" ele="1861.0"/><trkpt lat="37.858879" lon="-111.492882" ele="1866.0"/><trkpt lat="37.859073" lon="-111.493065" ele="1874.0"/><trkpt lat="37.859062" lon="-111.493218" ele="1877.0"/><trkpt lat="37.85918" lon="-111.493447" ele="1883.0"/><trkpt lat="37.859111" lon="-111.494133" ele="1891.0"/><trkpt lat="37.859523" lon="-111.494759" ele="1894.0"/><trkpt lat="37.859859" lon="-111.495415" ele="1901.0"/><trkpt lat="37.860382" lon="-111.495995" ele="1906.0"/><trkpt lat="37.860462" lon="-111.496377" ele="1907.0"/><trkpt lat="37.860401" lon="-111.497078" ele="1911.0"/><trkpt lat="37.860633" lon="-111.498063" ele="1912.0"/><trkpt lat="37.860401" lon="-111.498429" ele="1918.0"/><trkpt lat="37.860385" lon="-111.498864" ele="1921.0"/><trkpt lat="37.86061" lon="-111.499627" ele="1925.0"/><trkpt lat="37.860328" lon="-111.499772" ele="1934.0"/><trkpt lat="37.860229" lon="-111.499665" ele="1934.0"/><trkpt lat="37.859867" lon="-111.49984" ele="1941.0"/><trkpt lat="37.859851" lon="-111.500054" ele="1944.0"/><trkpt lat="37.8596" lon="-111.500382" ele="1951.0"/><trkpt lat="37.858989" lon="-111.500565" ele="1958.0"/><trkpt lat="37.859039" lon="-111.500657" ele="1957.0"/><trkpt lat="37.858657" lon="-111.50132" ele="1959.0"/><trkpt lat="37.858547" lon="-111.501641" ele="1961.0"/><trkpt lat="37.858203" lon="-111.502007" ele="1966.0"/><trkpt lat="37.857933" lon="-111.502091" ele="1971.0"/><trkpt lat="37.857658" lon="-111.502282" ele="1974.0"/><trkpt lat="37.857513" lon="-111.502518" ele="1976.0"/><trkpt lat="37.857437" lon="-111.502732" ele="1974.0"/><trkpt lat="37.857238" lon="-111.502945" ele="1973.0"/><trkpt lat="37.857246" lon="-111.503235" ele="1972.0"/><trkpt lat="37.857101" lon="-111.503434" ele="1973.0"/><trkpt lat="37.856723" lon="-111.503838" ele="1979.0"/><trkpt lat="37.856563" lon="-111.503838" ele="1979.0"/><trkpt lat="37.856426" lon="-111.503922" ele="1979.0"/><trkpt lat="37.856353" lon="-111.50409" ele="1981.0"/><trkpt lat="37.856006" lon="-111.504365" ele="1985.0"/><trkpt lat="37.855625" lon="-111.504342" ele="1990.0"/><trkpt lat="37.85548" lon="-111.504517" ele="1992.0"/><trkpt lat="37.855491" lon="-111.5047" ele="1994.0"/><trkpt lat="37.855556" lon="-111.505478" ele="2001.0"/><trkpt lat="37.85527" lon="-111.505456" ele="2002.0"/><trkpt lat="37.85493" lon="-111.50602" ele="2010.0"/><trkpt lat="37.854892" lon="-111.506333" ele="2012.0"/><trkpt lat="37.854682" lon="-111.50663" ele="2014.0"/><trkpt lat="37.85411" lon="-111.506974" ele="2015.0"/><trkpt lat="37.853939" lon="-111.507271" ele="2016.0"/><trkpt lat="37.853755" lon="-111.507386" ele="2016.0"/><trkpt lat="37.852916" lon="-111.509041" ele="2016.0"/><trkpt lat="37.852752" lon="-111.5094" ele="2015.0"/><trkpt lat="37.852798" lon="-111.50969" ele="2015.0"/><trkpt lat="37.852458" lon="-111.510743" ele="2016.0"/><trkpt lat="37.852172" lon="-111.511101" ele="2014.0"/><trkpt lat="37.851856" lon="-111.511315" ele="2013.0"/><trkpt lat="37.851627" lon="-111.511735" ele="2014.0"/><trkpt lat="37.851196" lon="-111.511994" ele="2012.0"/><trkpt lat="37.851074" lon="-111.51233" ele="2012.0"/><trkpt lat="37.850837" lon="-111.512627" ele="2012.0"/><trkpt lat="37.850517" lon="-111.512848" ele="2010.0"/><trkpt lat="37.849655" lon="-111.51397" ele="2010.0"/><trkpt lat="37.849143" lon="-111.514184" ele="2007.0"/><trkpt lat="37.848438" lon="-111.51413" ele="2002.0"/><trkpt lat="37.847991" lon="-111.514313" ele="2000.0"/><trkpt lat="37.847373" lon="-111.514336" ele="1999.0"/><trkpt lat="37.847099" lon="-111.514313" ele="1998.0"/><trkpt lat="37.846626" lon="-111.5141" ele="1997.0"/><trkpt lat="37.845462" lon="-111.513451" ele="1994.0"/><trkpt lat="37.844654" lon="-111.512627" ele="1992.0"/><trkpt lat="37.843753" lon="-111.511941" ele="1990.0"/><trkpt lat="37.843322" lon="-111.512093" ele="1990.0"/><trkpt lat="37.84312" lon="-111.512467" ele="1987.0"/><trkpt lat="37.842918" lon="-111.513421" ele="1975.0"/><trkpt lat="37.842887" lon="-111.51355" ele="1974.0"/><trkpt lat="37.842853" lon="-111.513718" ele="1973.0"/><trkpt lat="37.842811" lon="-111.513855" ele="1972.0"/><trkpt lat="37.843036" lon="-111.514176" ele="1970.0"/><trkpt lat="37.843269" lon="-111.514123" ele="1974.0"/><trkpt lat="37.843364" lon="-111.514191" ele="1975.0"/><trkpt lat="37.843105" lon="-111.514412" ele="1968.0"/><trkpt lat="37.843719" lon="-111.514924" ele="1964.0"/><trkpt lat="37.844108" lon="-111.515145" ele="1965.0"/><trkpt lat="37.844402" lon="-111.515526" ele="1961.0"/><trkpt lat="37.844493" lon="-111.51661" ele="1930.0"/><trkpt lat="37.84513" lon="-111.517098" ele="1916.0"/><trkpt lat="37.845333" lon="-111.517098" ele="1926.0"/><trkpt lat="37.845367" lon="-111.517357" ele="1918.0"/><trkpt lat="37.845256" lon="-111.51751" ele="1906.0"/><trkpt lat="37.845375" lon="-111.518136" ele="1891.0"/><trkpt lat="37.84552" lon="-111.518334" ele="1892.0"/><trkpt lat="37.845397" lon="-111.518342" ele="1883.0"/><trkpt lat="37.845466" lon="-111.518639" ele="1880.0"/><trkpt lat="37.845439" lon="-111.518738" ele="1876.0"/><trkpt lat="37.845363" lon="-111.5187" ele="1869.0"/><trkpt lat="37.845336" lon="-111.518982" ele="1864.0"/><trkpt lat="37.84539" lon="-111.519646" ele="1860.0"/><trkpt lat="37.845161" lon="-111.51957" ele="1849.0"/><trkpt lat="37.844951" lon="-111.519135" ele="1836.0"/><trkpt lat="37.844875" lon="-111.518754" ele="1829.0"/><trkpt lat="37.844757" lon="-111.518487" ele="1823.0"/><trkpt lat="37.844615" lon="-111.518342" ele="1816.0"/><trkpt lat="37.844566" lon="-111.518326" ele="1813.0"/><trkpt lat="37.844341" lon="-111.518349" ele="1801.0"/><trkpt lat="37.844097" lon="-111.518654" ele="1791.0"/><trkpt lat="37.844017" lon="-111.518761" ele="1788.0"/><trkpt lat="37.843955" lon="-111.519143" ele="1784.0"/><trkpt lat="37.843807" lon="-111.519341" ele="1783.0"/><trkpt lat="37.843723" lon="-111.519349" ele="1786.0"/><trkpt lat="37.843502" lon="-111.518746" ele="1784.0"/><trkpt lat="37.843288" lon="-111.518387" ele="1784.0"/><trkpt lat="37.843063" lon="-111.518372" ele="1789.0"/><trkpt lat="37.842918" lon="-111.518532" ele="1811.0"/><trkpt lat="37.842845" lon="-111.518693" ele="1813.0"/><trkpt lat="37.842815" lon="-111.519005" ele="1805.0"/><trkpt lat="37.842876" lon="-111.519547" ele="1809.0"/><trkpt lat="37.842811" lon="-111.519928" ele="1817.0"/><trkpt lat="37.842735" lon="-111.520005" ele="1816.0"/><trkpt lat="37.842311" lon="-111.51986" ele="1817.0"/><trkpt lat="37.842041" lon="-111.519654" ele="1808.0"/><trkpt lat="37.841789" lon="-111.519173" ele="1803.0"/><trkpt lat="37.841464" lon="-111.519005" ele="1801.0"/><trkpt lat="37.841293" lon="-111.518952" ele="1800.0"/><trkpt lat="37.840991" lon="-111.51931" ele="1795.0"/><trkpt lat="37.840847" lon="-111.519478" ele="1795.0"/><trkpt lat="37.840675" lon="-111.519402" ele="1795.0"/><trkpt lat="37.840423" lon="-111.519097" ele="1799.0"/><trkpt lat="37.84029" lon="-111.518731" ele="1786.0"/><trkpt lat="37.840118" lon="-111.518372" ele="1792.0"/><trkpt lat="37.83971" lon="-111.517968" ele="1799.0"/><trkpt lat="37.839496" lon="-111.517952" ele="1804.0"/><trkpt lat="37.839305" lon="-111.518174" ele="1798.0"/><trkpt lat="37.838775" lon="-111.51825" ele="1807.0"/><trkpt lat="37.838165" lon="-111.517396" ele="1797.0"/><trkpt lat="37.837825" lon="-111.516228" ele="1775.0"/><trkpt lat="37.837375" lon="-111.515488" ele="1802.0"/><trkpt lat="37.837104" lon="-111.515336" ele="1816.0"/><trkpt lat="37.836978" lon="-111.515526" ele="1803.0"/><trkpt lat="37.837146" lon="-111.515809" ele="1795.0"/><trkpt lat="37.837081" lon="-111.516083" ele="1794.0"/><trkpt lat="37.836917" lon="-111.51619" ele="1793.0"/><trkpt lat="37.837158" lon="-111.516175" ele="1795.0"/><trkpt lat="37.83702" lon="-111.516297" ele="1793.0"/><trkpt lat="37.837249" lon="-111.516213" ele="1795.0"/><trkpt lat="37.837368" lon="-111.516572" ele="1803.0"/><trkpt lat="37.837131" lon="-111.51709" ele="1808.0"/><trkpt lat="37.837123" lon="-111.517609" ele="1822.0"/><trkpt lat="37.837757" lon="-111.51841" ele="1855.0"/><trkpt lat="37.838226" lon="-111.518433" ele="1850.0"/><trkpt lat="37.838241" lon="-111.519173" ele="1873.0"/><trkpt lat="37.837833" lon="-111.519822" ele="1883.0"/><trkpt lat="37.838298" lon="-111.520333" ele="1900.0"/><trkpt lat="37.838386" lon="-111.520813" ele="1901.0"/><trkpt lat="37.838573" lon="-111.521157" ele="1901.0"/><trkpt lat="37.838478" lon="-111.522316" ele="1917.0"/><trkpt lat="37.838741" lon="-111.522713" ele="1919.0"/><trkpt lat="37.838741" lon="-111.523186" ele="1921.0"/><trkpt lat="37.838623" lon="-111.52324" ele="1922.0"/><trkpt lat="37.838581" lon="-111.52398" ele="1932.0"/><trkpt lat="37.838462" lon="-111.524636" ele="1941.0"/><trkpt lat="37.838512" lon="-111.52504" ele="1943.0"/><trkpt lat="37.839138" lon="-111.525773" ele="1955.0"/><trkpt lat="37.839164" lon="-111.526436" ele="1959.0"/><trkpt lat="37.838886" lon="-111.527176" ele="1964.0"/><trkpt lat="37.837951" lon="-111.527672" ele="1976.0"/><trkpt lat="37.837417" lon="-111.528435" ele="1990.0"/><trkpt lat="37.836528" lon="-111.527985" ele="1990.0"/><trkpt lat="37.8357" lon="-111.527909" ele="1984.0"/><trkpt lat="37.83485" lon="-111.52884" ele="1982.0"/><trkpt lat="37.834224" lon="-111.529389" ele="1982.0"/><trkpt lat="37.833099" lon="-111.531365" ele="1976.0"/><trkpt lat="37.831638" lon="-111.532342" ele="1969.0"/><trkpt lat="37.830173" lon="-111.533639" ele="1958.0"/><trkpt lat="37.828243" lon="-111.536332" ele="1938.0"/><trkpt lat="37.828212" lon="-111.537873" ele="1921.0"/><trkpt lat="37.82788" lon="-111.537583" ele="1917.0"/><trkpt lat="37.82722" lon="-111.538163" ele="1882.0"/><trkpt lat="37.82732" lon="-111.538559" ele="1873.0"/><trkpt lat="37.82656" lon="-111.538064" ele="1861.0"/><trkpt lat="37.82587" lon="-111.538308" ele="1849.0"/><trkpt lat="37.825592" lon="-111.538094" ele="1846.0"/><trkpt lat="37.825183" lon="-111.537186" ele="1845.0"/><trkpt lat="37.825149" lon="-111.537102" ele="1845.0"/><trkpt lat="37.825115" lon="-111.537018" ele="1845.0"/><trkpt lat="37.825023" lon="-111.537064" ele="1846.0"/><trkpt lat="37.824928" lon="-111.53695" ele="1847.0"/><trkpt lat="37.824752" lon="-111.536522" ele="1851.0"/><trkpt lat="37.824645" lon="-111.536393" ele="1854.0"/><trkpt lat="37.82447" lon="-111.536133" ele="1857.0"/><trkpt lat="37.82431" lon="-111.536355" ele="1860.0"/><trkpt lat="37.823745" lon="-111.537499" ele="1879.0"/><trkpt lat="37.823516" lon="-111.537667" ele="1881.0"/><trkpt lat="37.82344" lon="-111.538071" ele="1881.0"/><trkpt lat="37.823402" lon="-111.538353" ele="1884.0"/><trkpt lat="37.823406" lon="-111.538826" ele="1889.0"/><trkpt lat="37.823364" lon="-111.539116" ele="1888.0"/><trkpt lat="37.82331" lon="-111.539277" ele="1888.0"/><trkpt lat="37.823032" lon="-111.539658" ele="1892.0"/><trkpt lat="37.82307" lon="-111.540055" ele="1891.0"/><trkpt lat="37.82257" lon="-111.542145" ele="1919.0"/><trkpt lat="37.822586" lon="-111.542458" ele="1920.0"/><trkpt lat="37.822582" lon="-111.54287" ele="1920.0"/><trkpt lat="37.82246" lon="-111.543099" ele="1923.0"/><trkpt lat="37.82238" lon="-111.543633" ele="1926.0"/><trkpt lat="37.821983" lon="-111.544823" ele="1926.0"/><trkpt lat="37.821624" lon="-111.545502" ele="1911.0"/><trkpt lat="37.821208" lon="-111.545968" ele="1912.0"/><trkpt lat="37.820968" lon="-111.545975" ele="1912.0"/><trkpt lat="37.820789" lon="-111.546288" ele="1911.0"/><trkpt lat="37.820587" lon="-111.546509" ele="1912.0"/><trkpt lat="37.820255" lon="-111.546601" ele="1916.0"/><trkpt lat="37.81966" lon="-111.546731" ele="1923.0"/><trkpt lat="37.819374" lon="-111.54699" ele="1922.0"/><trkpt lat="37.819232" lon="-111.547326" ele="1924.0"/><trkpt lat="37.818981" lon="-111.547394" ele="1926.0"/><trkpt lat="37.81866" lon="-111.547829" ele="1930.0"/><trkpt lat="37.818328" lon="-111.547974" ele="1935.0"/><trkpt lat="37.817966" lon="-111.547997" ele="1940.0"/><trkpt lat="37.817455" lon="-111.54805" ele="1942.0"/><trkpt lat="37.817039" lon="-111.548119" ele="1944.0"/><trkpt lat="37.816719" lon="-111.548241" ele="1948.0"/><trkpt lat="37.81649" lon="-111.548562" ele="1953.0"/><trkpt lat="37.815986" lon="-111.548646" ele="1958.0"/><trkpt lat="37.815612" lon="-111.548928" ele="1955.0"/><trkpt lat="37.815013" lon="-111.549035" ele="1951.0"/><trkpt lat="37.814754" lon="-111.549187" ele="1950.0"/><trkpt lat="37.814319" lon="-111.549248" ele="1947.0"/><trkpt lat="37.813354" lon="-111.549431" ele="1944.0"/><trkpt lat="37.812179" lon="-111.549523" ele="1947.0"/><trkpt lat="37.810161" lon="-111.549813" ele="1952.0"/><trkpt lat="37.809864" lon="-111.550072" ele="1956.0"/><trkpt lat="37.809394" lon="-111.550133" ele="1959.0"/><trkpt lat="37.808437" lon="-111.550026" ele="1971.0"/><trkpt lat="37.808128" lon="-111.550049" ele="1974.0"/><trkpt lat="37.807647" lon="-111.549874" ele="1969.0"/><trkpt lat="37.807533" lon="-111.549759" ele="1968.0"/><trkpt lat="37.807022" lon="-111.54963" ele="1966.0"/><trkpt lat="37.806289" lon="-111.550133" ele="1959.0"/><trkpt lat="37.805595" lon="-111.55037" ele="1954.0"/><trkpt lat="37.805267" lon="-111.550576" ele="1949.0"/><trkpt lat="37.804775" lon="-111.55124" ele="1936.0"/><trkpt lat="37.804157" lon="-111.552483" ele="1934.0"/><trkpt lat="37.803989" lon="-111.552895" ele="1935.0"/><trkpt lat="37.803947" lon="-111.553231" ele="1936.0"/><trkpt lat="37.803703" lon="-111.55407" ele="1944.0"/><trkpt lat="37.80347" lon="-111.555558" ele="1943.0"/><trkpt lat="37.803672" lon="-111.556595" ele="1957.0"/><trkpt lat="37.803546" lon="-111.557107" ele="1963.0"/><trkpt lat="37.803581" lon="-111.558068" ele="1969.0"/><trkpt lat="37.803459" lon="-111.55922" ele="1979.0"/><trkpt lat="37.80355" lon="-111.559311" ele="1981.0"/><trkpt lat="37.803565" lon="-111.559731" ele="1984.0"/><trkpt lat="37.803756" lon="-111.559952" ele="1987.0"/><trkpt lat="37.803607" lon="-111.560624" ele="2002.0"/><trkpt lat="37.803497" lon="-111.560853" ele="2005.0"/><trkpt lat="37.80331" lon="-111.560936" ele="2008.0"/><trkpt lat="37.802947" lon="-111.561333" ele="2020.0"/><trkpt lat="37.802463" lon="-111.561463" ele="2021.0"/><trkpt lat="37.802173" lon="-111.561127" ele="2024.0"/><trkpt lat="37.802062" lon="-111.561112" ele="2026.0"/><trkpt lat="37.801967" lon="-111.561432" ele="2029.0"/><trkpt lat="37.801727" lon="-111.561562" ele="2033.0"/><trkpt lat="37.801334" lon="-111.561547" ele="2040.0"/><trkpt lat="37.800727" lon="-111.561669" ele="2051.0"/><trkpt lat="37.80017" lon="-111.561715" ele="2052.0"/><trkpt lat="37.799793" lon="-111.561974" ele="2054.0"/><trkpt lat="37.799606" lon="-111.562241" ele="2055.0"/><trkpt lat="37.799015" lon="-111.56263" ele="2055.0"/><trkpt lat="37.798187" lon="-111.563279" ele="2055.0"/><trkpt lat="37.797634" lon="-111.563683" ele="2058.0"/><trkpt lat="37.797451" lon="-111.56392" ele="2060.0"/><trkpt lat="37.796741" lon="-111.564271" ele="2063.0"/><trkpt lat="37.795852" lon="-111.564942" ele="2059.0"/><trkpt lat="37.794277" lon="-111.565743" ele="2054.0"/><trkpt lat="37.793804" lon="-111.566124" ele="2053.0"/><trkpt lat="37.79346" lon="-111.566636" ele="2053.0"/><trkpt lat="37.79319" lon="-111.567231" ele="2052.0"/><trkpt lat="37.793025" lon="-111.567322" ele="2052.0"/><trkpt lat="37.792736" lon="-111.567765" ele="2050.0"/><trkpt lat="37.792293" lon="-111.568078" ele="2046.0"/><trkpt lat="37.79187" lon="-111.568085" ele="2043.0"/><trkpt lat="37.791847" lon="-111.569184" ele="2029.0"/><trkpt lat="37.791954" lon="-111.569825" ele="2018.0"/><trkpt lat="37.792102" lon="-111.569863" ele="2011.0"/><trkpt lat="37.79235" lon="-111.571122" ele="1982.0"/><trkpt lat="37.792324" lon="-111.57132" ele="1977.0"/><trkpt lat="37.792514" lon="-111.572297" ele="1969.0"/><trkpt lat="37.792846" lon="-111.573456" ele="1969.0"/><trkpt lat="37.792911" lon="-111.574288" ele="1951.0"/><trkpt lat="37.793281" lon="-111.574944" ele="1955.0"/><trkpt lat="37.79343" lon="-111.575783" ele="1941.0"/><trkpt lat="37.793174" lon="-111.576165" ele="1921.0"/><trkpt lat="37.793121" lon="-111.576615" ele="1910.0"/><trkpt lat="37.792636" lon="-111.576256" ele="1902.0"/><trkpt lat="37.792324" lon="-111.576211" ele="1897.0"/><trkpt lat="37.792175" lon="-111.576493" ele="1896.0"/><trkpt lat="37.791709" lon="-111.577721" ele="1888.0"/><trkpt lat="37.791606" lon="-111.577714" ele="1887.0"/><trkpt lat="37.791336" lon="-111.577385" ele="1883.0"/><trkpt lat="37.790904" lon="-111.578026" ele="1873.0"/><trkpt lat="37.790454" lon="-111.57811" ele="1874.0"/><trkpt lat="37.789989" lon="-111.578637" ele="1876.0"/><trkpt lat="37.789798" lon="-111.579163" ele="1885.0"/><trkpt lat="37.789543" lon="-111.579072" ele="1890.0"/><trkpt lat="37.78931" lon="-111.579171" ele="1894.0"/><trkpt lat="37.789318" lon="-111.579316" ele="1896.0"/><trkpt lat="37.789081" lon="-111.579422" ele="1897.0"/><trkpt lat="37.788795" lon="-111.579644" ele="1895.0"/><trkpt lat="37.788604" lon="-111.579964" ele="1893.0"/><trkpt lat="37.787906" lon="-111.580407" ele="1891.0"/><trkpt lat="37.787872" lon="-111.580895" ele="1887.0"/><trkpt lat="37.787975" lon="-111.581605" ele="1881.0"/><trkpt lat="37.787609" lon="-111.581749" ele="1871.0"/><trkpt lat="37.78672" lon="-111.581711" ele="1846.0"/><trkpt lat="37.786426" lon="-111.581795" ele="1834.0"/><trkpt lat="37.786098" lon="-111.58181" ele="1825.0"/><trkpt lat="37.785488" lon="-111.581635" ele="1812.0"/><trkpt lat="37.78543" lon="-111.581696" ele="1809.0"/><trkpt lat="37.785511" lon="-111.582055" ele="1808.0"/><trkpt lat="37.785343" lon="-111.582161" ele="1804.0"/><trkpt lat="37.784542" lon="-111.582291" ele="1785.0"/><trkpt lat="37.784393" lon="-111.5821" ele="1783.0"/><trkpt lat="37.783412" lon="-111.582398" ele="1756.0"/><trkpt lat="37.783" lon="-111.582169" ele="1755.0"/><trkpt lat="37.781879" lon="-111.581711" ele="1756.0"/><trkpt lat="37.781166" lon="-111.581788" ele="1749.0"/><trkpt lat="37.78078" lon="-111.581582" ele="1747.0"/><trkpt lat="37.780586" lon="-111.581543" ele="1747.0"/><trkpt lat="37.780372" lon="-111.580849" ele="1746.0"/><trkpt lat="37.780292" lon="-111.580536" ele="1748.0"/><trkpt lat="37.78033" lon="-111.579827" ele="1756.0"/><trkpt lat="37.780246" lon="-111.579682" ele="1754.0"/><trkpt lat="37.780281" lon="-111.578881" ele="1751.0"/><trkpt lat="37.780292" lon="-111.57837" ele="1755.0"/><trkpt lat="37.780109" lon="-111.577858" ele="1752.0"/><trkpt lat="37.779956" lon="-111.577645" ele="1751.0"/><trkpt lat="37.778938" lon="-111.577248" ele="1746.0"/><trkpt lat="37.778831" lon="-111.577248" ele="1747.0"/><trkpt lat="37.778617" lon="-111.576813" ele="1745.0"/><trkpt lat="37.778221" lon="-111.575348" ele="1740.0"/><trkpt lat="37.77761" lon="-111.575638" ele="1749.0"/><trkpt lat="37.777378" lon="-111.575585" ele="1745.0"/><trkpt lat="37.777038" lon="-111.576066" ele="1740.0"/><trkpt lat="37.777046" lon="-111.576943" ele="1752.0"/><trkpt lat="37.776912" lon="-111.577492" ele="1745.0"/><trkpt lat="37.776676" lon="-111.577668" ele="1744.0"/><trkpt lat="37.776473" lon="-111.578393" ele="1744.0"/><trkpt lat="37.776142" lon="-111.578362" ele="1745.0"/><trkpt lat="37.775939" lon="-111.578408" ele="1746.0"/><trkpt lat="37.775775" lon="-111.578545" ele="1744.0"/><trkpt lat="37.775028" lon="-111.579133" ele="1738.0"/><trkpt lat="37.774745" lon="-111.579171" ele="1741.0"/><trkpt lat="37.774341" lon="-111.579232" ele="1740.0"/><trkpt lat="37.774021" lon="-111.579217" ele="1742.0"/><trkpt lat="37.773437" lon="-111.579171" ele="1745.0"/><trkpt lat="37.773147" lon="-111.579598" ele="1747.0"/><trkpt lat="37.771827" lon="-111.579628" ele="1754.0"/><trkpt lat="37.771663" lon="-111.57956" ele="1755.0"/><trkpt lat="37.771541" lon="-111.579461" ele="1754.0"/><trkpt lat="37.771255" lon="-111.579346" ele="1756.0"/><trkpt lat="37.771022" lon="-111.579217" ele="1760.0"/><trkpt lat="37.770744" lon="-111.579026" ele="1762.0"/><trkpt lat="37.77042" lon="-111.578942" ele="1766.0"/><trkpt lat="37.770221" lon="-111.578789" ele="1765.0"/></trkseg></trk></gpx>