<?xml version="1.0" ?><gpx xmlns="http://www.topografix.com/GPX/1/1" creator="GaiaGPS" version="1.1" xmlns:xsi="http://www.w3.org/2001/XMLSchema-instance" xsi:schemaLocation="http://www.topografix.com/GPX/1/1 http://www.topografix.com/GPX/1/1/gpx.xsd"><trk><name>Death Hollow Loop via Boulder Mail Trail and Escalante River Trail</name><type>knownroute</type><trkseg><trkpt lat="37.76848" lon="-111.578025" ele="1777.0"/><trkpt lat="37.768505" lon="-111.578035" ele="1776.0"/><trkpt lat="37.768864" lon="-111.578317" ele="1772.0"/><trkpt lat="37.769217" lon="-111.578402" ele="1770.0"/><trkpt lat="37.769542" lon="-111.57853" ele="1768.0"/><trkpt lat="37.769835" lon="-111.578664" ele="1766.0"/><trkpt lat="37.770142" lon="-111.578728" ele="1764.0"/><trkpt lat="37.770418" lon="-111.578945" ele="1766.0"/><trkpt lat="37.770745" lon="-111.579028" ele="1762.0"/><trkpt lat="37.771025" lon="-111.579219" ele="1760.0"/><trkpt lat="37.771255" lon="-111.579345" ele="1756.0"/><trkpt lat="37.77154" lon="-111.57946" ele="1754.0"/><trkpt lat="37.771662" lon="-111.579557" ele="1755.0"/><trkpt lat="37.771826" lon="-111.579626" ele="1754.0"/><trkpt lat="37.772684" lon="-111.57963" ele="1749.0"/><trkpt lat="37.77299" lon="-111.579713" ele="1747.0"/><trkpt lat="37.773183" lon="-111.579664" ele="1747.0"/><trkpt lat="37.773467" lon="-111.579219" ele="1745.0"/><trkpt lat="37.773708" lon="-111.57898" ele="1742.0"/><trkpt lat="37.773952" lon="-111.578894" ele="1742.0"/><trkpt lat="37.774419" lon="-111.578934" ele="1741.0"/><trkpt lat="37.774599" lon="-111.578734" ele="1744.0"/><trkpt lat="37.774737" lon="-111.578814" ele="1743.0"/><trkpt lat="37.774898" lon="-111.578749" ele="1742.0"/><trkpt lat="37.77526" lon="-111.578578" ele="1744.0"/><trkpt lat="37.775484" lon="-111.578621" ele="1743.0"/><trkpt lat="37.775796" lon="-111.578508" ele="1745.0"/><trkpt lat="37.775833" lon="-111.578482" ele="1745.0"/><trkpt lat="37.775955" lon="-111.578364" ele="1747.0"/><trkpt lat="37.776055" lon="-111.578333" ele="1747.0"/><trkpt lat="37.776142" lon="-111.57836" ele="1745.0"/><trkpt lat="37.776473" lon="-111.578393" ele="1744.0"/><trkpt lat="37.776567" lon="-111.578179" ele="1746.0"/><trkpt lat="37.776617" lon="-111.577954" ele="1746.0"/><trkpt lat="37.776621" lon="-111.577778" ele="1745.0"/><trkpt lat="37.776675" lon="-111.577676" ele="1744.0"/><trkpt lat="37.776706" lon="-111.577644" ele="1744.0"/><trkpt lat="37.776737" lon="-111.57763" ele="1744.0"/><trkpt lat="37.776789" lon="-111.577589" ele="1745.0"/><trkpt lat="37.776914" lon="-111.577491" ele="1745.0"/><trkpt lat="37.777046" lon="-111.576939" ele="1752.0"/><trkpt lat="37.777063" lon="-111.576113" ele="1741.0"/><trkpt lat="37.777332" lon="-111.5757" ele="1747.0"/><trkpt lat="37.777438" lon="-111.575735" ele="1750.0"/><trkpt lat="37.777629" lon="-111.575702" ele="1750.0"/><trkpt lat="37.778105" lon="-111.575376" ele="1741.0"/><trkpt lat="37.778209" lon="-111.575512" ele="1741.0"/><trkpt lat="37.77828" lon="-111.575914" ele="1741.0"/><trkpt lat="37.778389" lon="-111.576124" ele="1738.0"/><trkpt lat="37.7785" lon="-111.576703" ele="1745.0"/><trkpt lat="37.778619" lon="-111.576815" ele="1745.0"/><trkpt lat="37.77885" lon="-111.576955" ele="1750.0"/><trkpt lat="37.779023" lon="-111.577005" ele="1749.0"/><trkpt lat="37.779096" lon="-111.577081" ele="1747.0"/><trkpt lat="37.779216" lon="-111.577207" ele="1741.0"/><trkpt lat="37.779543" lon="-111.577232" ele="1744.0"/><trkpt lat="37.779773" lon="-111.577546" ele="1746.0"/><trkpt lat="37.779876" lon="-111.577771" ele="1747.0"/><trkpt lat="37.779975" lon="-111.577973" ele="1745.0"/><trkpt lat="37.78002" lon="-111.577985" ele="1746.0"/><trkpt lat="37.780083" lon="-111.578004" ele="1749.0"/><trkpt lat="37.780228" lon="-111.578532" ele="1752.0"/><trkpt lat="37.780221" lon="-111.57895" ele="1750.0"/><trkpt lat="37.780291" lon="-111.579412" ele="1755.0"/><trkpt lat="37.780247" lon="-111.57968" ele="1754.0"/><trkpt lat="37.780238" lon="-111.579881" ele="1753.0"/><trkpt lat="37.780317" lon="-111.580153" ele="1753.0"/><trkpt lat="37.780327" lon="-111.580528" ele="1749.0"/><trkpt lat="37.780488" lon="-111.580793" ele="1749.0"/><trkpt lat="37.780739" lon="-111.581026" ele="1750.0"/><trkpt lat="37.780881" lon="-111.581246" ele="1749.0"/><trkpt lat="37.781103" lon="-111.581415" ele="1749.0"/><trkpt lat="37.781273" lon="-111.581515" ele="1750.0"/><trkpt lat="37.781279" lon="-111.581604" ele="1749.0"/><trkpt lat="37.781493" lon="-111.581803" ele="1751.0"/><trkpt lat="37.781588" lon="-111.581799" ele="1752.0"/><trkpt lat="37.781636" lon="-111.581785" ele="1753.0"/><trkpt lat="37.781879" lon="-111.581713" ele="1756.0"/><trkpt lat="37.781983" lon="-111.581561" ele="1758.0"/><trkpt lat="37.782324" lon="-111.581698" ele="1757.0"/><trkpt lat="37.782553" lon="-111.581832" ele="1757.0"/><trkpt lat="37.783145" lon="-111.58218" ele="1755.0"/><trkpt lat="37.783297" lon="-111.582339" ele="1755.0"/><trkpt lat="37.783414" lon="-111.582394" ele="1756.0"/><trkpt lat="37.784139" lon="-111.582186" ele="1773.0"/><trkpt lat="37.78447" lon="-111.58214" ele="1785.0"/><trkpt lat="37.784629" lon="-111.582279" ele="1787.0"/><trkpt lat="37.785014" lon="-111.582247" ele="1795.0"/><trkpt lat="37.785133" lon="-111.582143" ele="1799.0"/><trkpt lat="37.785343" lon="-111.582164" ele="1804.0"/><trkpt lat="37.785536" lon="-111.582094" ele="1808.0"/><trkpt lat="37.785502" lon="-111.581945" ele="1810.0"/><trkpt lat="37.785419" lon="-111.581757" ele="1809.0"/><trkpt lat="37.785487" lon="-111.581638" ele="1812.0"/><trkpt lat="37.786098" lon="-111.58181" ele="1825.0"/><trkpt lat="37.786347" lon="-111.581901" ele="1831.0"/><trkpt lat="37.786428" lon="-111.581794" ele="1834.0"/><trkpt lat="37.786606" lon="-111.581816" ele="1840.0"/><trkpt lat="37.786702" lon="-111.581681" ele="1846.0"/><trkpt lat="37.787017" lon="-111.581644" ele="1856.0"/><trkpt lat="37.787229" lon="-111.58173" ele="1862.0"/><trkpt lat="37.787611" lon="-111.581745" ele="1872.0"/><trkpt lat="37.787768" lon="-111.5817" ele="1876.0"/><trkpt lat="37.787946" lon="-111.581579" ele="1881.0"/><trkpt lat="37.787914" lon="-111.581467" ele="1883.0"/><trkpt lat="37.787819" lon="-111.581099" ele="1884.0"/><trkpt lat="37.787825" lon="-111.580833" ele="1886.0"/><trkpt lat="37.787895" lon="-111.58066" ele="1890.0"/><trkpt lat="37.787908" lon="-111.58041" ele="1891.0"/><trkpt lat="37.788054" lon="-111.58026" ele="1897.0"/><trkpt lat="37.788718" lon="-111.579865" ele="1893.0"/><trkpt lat="37.788836" lon="-111.579659" ele="1894.0"/><trkpt lat="37.789082" lon="-111.579425" ele="1897.0"/><trkpt lat="37.789319" lon="-111.579317" ele="1896.0"/><trkpt lat="37.78931" lon="-111.579171" ele="1894.0"/><trkpt lat="37.789541" lon="-111.579071" ele="1890.0"/><trkpt lat="37.789774" lon="-111.579104" ele="1885.0"/><trkpt lat="37.789883" lon="-111.578791" ele="1878.0"/><trkpt lat="37.79008" lon="-111.578476" ele="1875.0"/><trkpt lat="37.790271" lon="-111.578353" ele="1876.0"/><trkpt lat="37.790456" lon="-111.578113" ele="1874.0"/><trkpt lat="37.790842" lon="-111.578007" ele="1872.0"/><trkpt lat="37.791053" lon="-111.577843" ele="1877.0"/><trkpt lat="37.791074" lon="-111.577717" ele="1878.0"/><trkpt lat="37.791278" lon="-111.577479" ele="1881.0"/><trkpt lat="37.791445" lon="-111.577414" ele="1885.0"/><trkpt lat="37.791608" lon="-111.577713" ele="1887.0"/><trkpt lat="37.791709" lon="-111.577721" ele="1888.0"/><trkpt lat="37.791744" lon="-111.577653" ele="1889.0"/><trkpt lat="37.791765" lon="-111.577401" ele="1891.0"/><trkpt lat="37.792174" lon="-111.57649" ele="1896.0"/><trkpt lat="37.792169" lon="-111.576358" ele="1896.0"/><trkpt lat="37.792266" lon="-111.576226" ele="1897.0"/><trkpt lat="37.79248" lon="-111.576159" ele="1899.0"/><trkpt lat="37.792683" lon="-111.576234" ele="1903.0"/><trkpt lat="37.792954" lon="-111.57651" ele="1908.0"/><trkpt lat="37.793071" lon="-111.576569" ele="1909.0"/><trkpt lat="37.793143" lon="-111.576513" ele="1913.0"/><trkpt lat="37.793118" lon="-111.576338" ele="1915.0"/><trkpt lat="37.793177" lon="-111.576163" ele="1922.0"/><trkpt lat="37.793268" lon="-111.576027" ele="1928.0"/><trkpt lat="37.793306" lon="-111.575888" ele="1933.0"/><trkpt lat="37.793423" lon="-111.57575" ele="1942.0"/><trkpt lat="37.793383" lon="-111.575325" ele="1951.0"/><trkpt lat="37.793283" lon="-111.574944" ele="1955.0"/><trkpt lat="37.792912" lon="-111.57429" ele="1951.0"/><trkpt lat="37.792785" lon="-111.573721" ele="1963.0"/><trkpt lat="37.792773" lon="-111.573304" ele="1967.0"/><trkpt lat="37.792514" lon="-111.572294" ele="1969.0"/><trkpt lat="37.792325" lon="-111.571321" ele="1977.0"/><trkpt lat="37.79235" lon="-111.571121" ele="1982.0"/><trkpt lat="37.792104" lon="-111.569859" ele="2011.0"/><trkpt lat="37.792012" lon="-111.569696" ele="2020.0"/><trkpt lat="37.791914" lon="-111.569526" ele="2026.0"/><trkpt lat="37.791848" lon="-111.569182" ele="2029.0"/><trkpt lat="37.791931" lon="-111.568145" ele="2043.0"/><trkpt lat="37.792295" lon="-111.568075" ele="2046.0"/><trkpt lat="37.792566" lon="-111.567798" ele="2049.0"/><trkpt lat="37.792793" lon="-111.567737" ele="2050.0"/><trkpt lat="37.792812" lon="-111.567622" ele="2051.0"/><trkpt lat="37.793025" lon="-111.567321" ele="2052.0"/><trkpt lat="37.793192" lon="-111.567232" ele="2052.0"/><trkpt lat="37.793408" lon="-111.567029" ele="2052.0"/><trkpt lat="37.793556" lon="-111.566654" ele="2053.0"/><trkpt lat="37.793949" lon="-111.566014" ele="2054.0"/><trkpt lat="37.794277" lon="-111.56574" ele="2054.0"/><trkpt lat="37.794993" lon="-111.565344" ele="2053.0"/><trkpt lat="37.795844" lon="-111.564932" ele="2059.0"/><trkpt lat="37.796269" lon="-111.5647" ele="2059.0"/><trkpt lat="37.796564" lon="-111.564462" ele="2061.0"/><trkpt lat="37.796742" lon="-111.564267" ele="2063.0"/><trkpt lat="37.796883" lon="-111.56414" ele="2063.0"/><trkpt lat="37.797034" lon="-111.564081" ele="2062.0"/><trkpt lat="37.797453" lon="-111.563921" ele="2060.0"/><trkpt lat="37.797588" lon="-111.563818" ele="2059.0"/><trkpt lat="37.797635" lon="-111.563682" ele="2058.0"/><trkpt lat="37.798173" lon="-111.563265" ele="2055.0"/><trkpt lat="37.798433" lon="-111.563" ele="2053.0"/><trkpt lat="37.799015" lon="-111.562632" ele="2055.0"/><trkpt lat="37.799391" lon="-111.562458" ele="2055.0"/><trkpt lat="37.79969" lon="-111.562235" ele="2054.0"/><trkpt lat="37.799831" lon="-111.561963" ele="2053.0"/><trkpt lat="37.80017" lon="-111.561713" ele="2052.0"/><trkpt lat="37.800729" lon="-111.561671" ele="2050.0"/><trkpt lat="37.800832" lon="-111.561704" ele="2049.0"/><trkpt lat="37.801152" lon="-111.561627" ele="2042.0"/><trkpt lat="37.801334" lon="-111.561544" ele="2040.0"/><trkpt lat="37.801629" lon="-111.561506" ele="2035.0"/><trkpt lat="37.801802" lon="-111.561508" ele="2032.0"/><trkpt lat="37.802015" lon="-111.561376" ele="2028.0"/><trkpt lat="37.802063" lon="-111.561113" ele="2026.0"/><trkpt lat="37.802175" lon="-111.561129" ele="2024.0"/><trkpt lat="37.802475" lon="-111.561408" ele="2021.0"/><trkpt lat="37.80275" lon="-111.561334" ele="2019.0"/><trkpt lat="37.802981" lon="-111.561273" ele="2019.0"/><trkpt lat="37.803309" lon="-111.56099" ele="2008.0"/><trkpt lat="37.80342" lon="-111.560827" ele="2006.0"/><trkpt lat="37.803497" lon="-111.560851" ele="2005.0"/><trkpt lat="37.803687" lon="-111.560689" ele="2003.0"/><trkpt lat="37.803746" lon="-111.560406" ele="1998.0"/><trkpt lat="37.803658" lon="-111.55986" ele="1986.0"/><trkpt lat="37.803607" lon="-111.559657" ele="1984.0"/><trkpt lat="37.803552" lon="-111.559427" ele="1982.0"/><trkpt lat="37.80355" lon="-111.559197" ele="1979.0"/><trkpt lat="37.803604" lon="-111.559081" ele="1978.0"/><trkpt lat="37.803572" lon="-111.558921" ele="1975.0"/><trkpt lat="37.803539" lon="-111.558754" ele="1972.0"/><trkpt lat="37.803691" lon="-111.558423" ele="1970.0"/><trkpt lat="37.803644" lon="-111.557972" ele="1969.0"/><trkpt lat="37.803574" lon="-111.557173" ele="1964.0"/><trkpt lat="37.803674" lon="-111.556594" ele="1957.0"/><trkpt lat="37.803531" lon="-111.555801" ele="1944.0"/><trkpt lat="37.803506" lon="-111.555665" ele="1944.0"/><trkpt lat="37.803632" lon="-111.555136" ele="1945.0"/><trkpt lat="37.803632" lon="-111.554578" ele="1948.0"/><trkpt lat="37.803704" lon="-111.554067" ele="1943.0"/><trkpt lat="37.803778" lon="-111.553808" ele="1940.0"/><trkpt lat="37.803806" lon="-111.553526" ele="1937.0"/><trkpt lat="37.803922" lon="-111.553232" ele="1936.0"/><trkpt lat="37.80399" lon="-111.552898" ele="1935.0"/><trkpt lat="37.804157" lon="-111.552486" ele="1934.0"/><trkpt lat="37.804258" lon="-111.552316" ele="1933.0"/><trkpt lat="37.804471" lon="-111.55196" ele="1931.0"/><trkpt lat="37.80467" lon="-111.551641" ele="1933.0"/><trkpt lat="37.804777" lon="-111.551236" ele="1936.0"/><trkpt lat="37.805266" lon="-111.550579" ele="1949.0"/><trkpt lat="37.805594" lon="-111.550371" ele="1954.0"/><trkpt lat="37.8059" lon="-111.550211" ele="1956.0"/><trkpt lat="37.806264" lon="-111.550214" ele="1960.0"/><trkpt lat="37.806394" lon="-111.550144" ele="1959.0"/><trkpt lat="37.806493" lon="-111.549935" ele="1958.0"/><trkpt lat="37.807022" lon="-111.549632" ele="1966.0"/><trkpt lat="37.807533" lon="-111.549759" ele="1968.0"/><trkpt lat="37.807649" lon="-111.549875" ele="1969.0"/><trkpt lat="37.808129" lon="-111.550052" ele="1974.0"/><trkpt lat="37.808408" lon="-111.550009" ele="1971.0"/><trkpt lat="37.808591" lon="-111.550055" ele="1969.0"/><trkpt lat="37.809051" lon="-111.550034" ele="1961.0"/><trkpt lat="37.809396" lon="-111.550132" ele="1959.0"/><trkpt lat="37.809864" lon="-111.550075" ele="1956.0"/><trkpt lat="37.810242" lon="-111.549809" ele="1952.0"/><trkpt lat="37.810591" lon="-111.549731" ele="1949.0"/><trkpt lat="37.81118" lon="-111.549701" ele="1948.0"/><trkpt lat="37.811668" lon="-111.549613" ele="1949.0"/><trkpt lat="37.811888" lon="-111.549637" ele="1949.0"/><trkpt lat="37.812179" lon="-111.549521" ele="1947.0"/><trkpt lat="37.813366" lon="-111.549395" ele="1944.0"/><trkpt lat="37.81374" lon="-111.549342" ele="1945.0"/><trkpt lat="37.813888" lon="-111.549272" ele="1944.0"/><trkpt lat="37.81432" lon="-111.54925" ele="1947.0"/><trkpt lat="37.814463" lon="-111.549146" ele="1949.0"/><trkpt lat="37.814753" lon="-111.549188" ele="1950.0"/><trkpt lat="37.815012" lon="-111.549032" ele="1951.0"/><trkpt lat="37.815612" lon="-111.548928" ele="1955.0"/><trkpt lat="37.815813" lon="-111.548713" ele="1957.0"/><trkpt lat="37.816078" lon="-111.548567" ele="1958.0"/><trkpt lat="37.816436" lon="-111.548517" ele="1954.0"/><trkpt lat="37.816619" lon="-111.548329" ele="1950.0"/><trkpt lat="37.81704" lon="-111.548117" ele="1944.0"/><trkpt lat="37.817227" lon="-111.548017" ele="1942.0"/><trkpt lat="37.817966" lon="-111.547993" ele="1940.0"/><trkpt lat="37.818312" lon="-111.547931" ele="1935.0"/><trkpt lat="37.818661" lon="-111.547827" ele="1930.0"/><trkpt lat="37.819003" lon="-111.547459" ele="1926.0"/><trkpt lat="37.819264" lon="-111.547361" ele="1924.0"/><trkpt lat="37.819399" lon="-111.547036" ele="1922.0"/><trkpt lat="37.819661" lon="-111.546733" ele="1923.0"/><trkpt lat="37.819887" lon="-111.546751" ele="1920.0"/><trkpt lat="37.820016" lon="-111.546617" ele="1918.0"/><trkpt lat="37.820145" lon="-111.546633" ele="1917.0"/><trkpt lat="37.820213" lon="-111.54655" ele="1916.0"/><trkpt lat="37.82037" lon="-111.54661" ele="1914.0"/><trkpt lat="37.820587" lon="-111.546508" ele="1912.0"/><trkpt lat="37.820813" lon="-111.546225" ele="1911.0"/><trkpt lat="37.82097" lon="-111.546098" ele="1912.0"/><trkpt lat="37.821208" lon="-111.545967" ele="1912.0"/><trkpt lat="37.821624" lon="-111.545498" ele="1911.0"/><trkpt lat="37.8219" lon="-111.544971" ele="1924.0"/><trkpt lat="37.822262" lon="-111.544844" ele="1924.0"/><trkpt lat="37.822389" lon="-111.544678" ele="1925.0"/><trkpt lat="37.822514" lon="-111.544522" ele="1926.0"/><trkpt lat="37.822468" lon="-111.544281" ele="1926.0"/><trkpt lat="37.822508" lon="-111.544088" ele="1926.0"/><trkpt lat="37.822351" lon="-111.54376" ele="1927.0"/><trkpt lat="37.822381" lon="-111.543629" ele="1926.0"/><trkpt lat="37.82246" lon="-111.543098" ele="1923.0"/><trkpt lat="37.822581" lon="-111.54287" ele="1920.0"/><trkpt lat="37.822586" lon="-111.542456" ele="1920.0"/><trkpt lat="37.822639" lon="-111.542262" ele="1920.0"/><trkpt lat="37.822805" lon="-111.541961" ele="1920.0"/><trkpt lat="37.822887" lon="-111.541684" ele="1916.0"/><trkpt lat="37.822841" lon="-111.541462" ele="1914.0"/><trkpt lat="37.822762" lon="-111.541306" ele="1912.0"/><trkpt lat="37.822684" lon="-111.540912" ele="1905.0"/><trkpt lat="37.822701" lon="-111.540652" ele="1902.0"/><trkpt lat="37.822809" lon="-111.540512" ele="1899.0"/><trkpt lat="37.822847" lon="-111.540314" ele="1898.0"/><trkpt lat="37.822976" lon="-111.540206" ele="1894.0"/><trkpt lat="37.82307" lon="-111.540056" ele="1891.0"/><trkpt lat="37.823034" lon="-111.539659" ele="1892.0"/><trkpt lat="37.823312" lon="-111.539278" ele="1888.0"/><trkpt lat="37.823363" lon="-111.539115" ele="1888.0"/><trkpt lat="37.823404" lon="-111.538828" ele="1889.0"/><trkpt lat="37.823402" lon="-111.53835" ele="1884.0"/><trkpt lat="37.823416" lon="-111.538059" ele="1881.0"/><trkpt lat="37.823526" lon="-111.537625" ele="1881.0"/><trkpt lat="37.823746" lon="-111.537495" ele="1879.0"/><trkpt lat="37.823995" lon="-111.537017" ele="1874.0"/><trkpt lat="37.824006" lon="-111.536875" ele="1873.0"/><trkpt lat="37.824129" lon="-111.536642" ele="1867.0"/><trkpt lat="37.824211" lon="-111.536596" ele="1864.0"/><trkpt lat="37.82431" lon="-111.536351" ele="1860.0"/><trkpt lat="37.824471" lon="-111.536246" ele="1857.0"/><trkpt lat="37.82465" lon="-111.53636" ele="1854.0"/><trkpt lat="37.824772" lon="-111.536476" ele="1851.0"/><trkpt lat="37.824918" lon="-111.536727" ele="1847.0"/><trkpt lat="37.825017" lon="-111.53693" ele="1845.0"/><trkpt lat="37.825116" lon="-111.537017" ele="1845.0"/><trkpt lat="37.82513" lon="-111.537119" ele="1845.0"/><trkpt lat="37.825212" lon="-111.537211" ele="1845.0"/><trkpt lat="37.825283" lon="-111.537377" ele="1844.0"/><trkpt lat="37.825477" lon="-111.537603" ele="1844.0"/><trkpt lat="37.825597" lon="-111.537994" ele="1845.0"/><trkpt lat="37.82561" lon="-111.538187" ele="1846.0"/><trkpt lat="37.825688" lon="-111.538273" ele="1847.0"/><trkpt lat="37.82587" lon="-111.53831" ele="1849.0"/><trkpt lat="37.82648" lon="-111.538196" ele="1859.0"/><trkpt lat="37.826872" lon="-111.538171" ele="1865.0"/><trkpt lat="37.827175" lon="-111.538528" ele="1869.0"/><trkpt lat="37.827296" lon="-111.538495" ele="1875.0"/><trkpt lat="37.827333" lon="-111.538339" ele="1883.0"/><trkpt lat="37.827371" lon="-111.538151" ele="1891.0"/><trkpt lat="37.82758" lon="-111.537902" ele="1903.0"/><trkpt lat="37.827747" lon="-111.53786" ele="1908.0"/><trkpt lat="37.827794" lon="-111.537714" ele="1912.0"/><trkpt lat="37.827875" lon="-111.537667" ele="1915.0"/><trkpt lat="37.827934" lon="-111.537633" ele="1917.0"/><trkpt lat="37.827993" lon="-111.537654" ele="1919.0"/><trkpt lat="37.828081" lon="-111.537757" ele="1919.0"/><trkpt lat="37.828211" lon="-111.537872" ele="1921.0"/><trkpt lat="37.828284" lon="-111.537875" ele="1923.0"/><trkpt lat="37.828372" lon="-111.537792" ele="1926.0"/><trkpt lat="37.828371" lon="-111.537581" ele="1928.0"/><trkpt lat="37.828258" lon="-111.53739" ele="1928.0"/><trkpt lat="37.828256" lon="-111.537289" ele="1930.0"/><trkpt lat="37.828184" lon="-111.537122" ele="1932.0"/><trkpt lat="37.828254" lon="-111.53695" ele="1937.0"/><trkpt lat="37.828314" lon="-111.536301" ele="1943.0"/><trkpt lat="37.82869" lon="-111.535668" ele="1959.0"/><trkpt lat="37.829008" lon="-111.535065" ele="1954.0"/><trkpt lat="37.829385" lon="-111.53445" ele="1955.0"/><trkpt lat="37.829726" lon="-111.534104" ele="1955.0"/><trkpt lat="37.830124" lon="-111.533842" ele="1957.0"/><trkpt lat="37.830285" lon="-111.533538" ele="1958.0"/><trkpt lat="37.830567" lon="-111.533423" ele="1960.0"/><trkpt lat="37.83069" lon="-111.533399" ele="1961.0"/><trkpt lat="37.830914" lon="-111.533219" ele="1963.0"/><trkpt lat="37.831268" lon="-111.532989" ele="1966.0"/><trkpt lat="37.831461" lon="-111.532833" ele="1968.0"/><trkpt lat="37.831585" lon="-111.532599" ele="1969.0"/><trkpt lat="37.831707" lon="-111.532439" ele="1969.0"/><trkpt lat="37.83169" lon="-111.532356" ele="1969.0"/><trkpt lat="37.83177" lon="-111.532179" ele="1969.0"/><trkpt lat="37.831914" lon="-111.532122" ele="1970.0"/><trkpt lat="37.832022" lon="-111.532093" ele="1971.0"/><trkpt lat="37.832387" lon="-111.531913" ele="1972.0"/><trkpt lat="37.832889" lon="-111.531529" ele="1974.0"/><trkpt lat="37.833066" lon="-111.53133" ele="1975.0"/><trkpt lat="37.833378" lon="-111.530993" ele="1978.0"/><trkpt lat="37.833688" lon="-111.530451" ele="1980.0"/><trkpt lat="37.83402" lon="-111.529923" ele="1982.0"/><trkpt lat="37.834103" lon="-111.529706" ele="1982.0"/><trkpt lat="37.834101" lon="-111.52958" ele="1982.0"/><trkpt lat="37.834225" lon="-111.529389" ele="1982.0"/><trkpt lat="37.834865" lon="-111.528868" ele="1982.0"/><trkpt lat="37.835617" lon="-111.527956" ele="1984.0"/><trkpt lat="37.835772" lon="-111.527911" ele="1984.0"/><trkpt lat="37.836035" lon="-111.527919" ele="1984.0"/><trkpt lat="37.836338" lon="-111.528086" ele="1988.0"/><trkpt lat="37.83656" lon="-111.527978" ele="1991.0"/><trkpt lat="37.836684" lon="-111.528015" ele="1992.0"/><trkpt lat="37.83703" lon="-111.528204" ele="1993.0"/><trkpt lat="37.837231" lon="-111.528359" ele="1991.0"/><trkpt lat="37.837419" lon="-111.528434" ele="1989.0"/><trkpt lat="37.838023" lon="-111.527771" ele="1976.0"/><trkpt lat="37.838037" lon="-111.527536" ele="1972.0"/><trkpt lat="37.838255" lon="-111.527469" ele="1971.0"/><trkpt lat="37.838885" lon="-111.527085" ele="1964.0"/><trkpt lat="37.839011" lon="-111.526777" ele="1962.0"/><trkpt lat="37.839135" lon="-111.526339" ele="1959.0"/><trkpt lat="37.83914" lon="-111.525773" ele="1955.0"/><trkpt lat="37.839115" lon="-111.525696" ele="1953.0"/><trkpt lat="37.838873" lon="-111.525559" ele="1954.0"/><trkpt lat="37.838583" lon="-111.525149" ele="1943.0"/><trkpt lat="37.838532" lon="-111.524893" ele="1941.0"/><trkpt lat="37.838462" lon="-111.524636" ele="1941.0"/><trkpt lat="37.838397" lon="-111.524451" ele="1944.0"/><trkpt lat="37.838581" lon="-111.524046" ele="1933.0"/><trkpt lat="37.838604" lon="-111.523874" ele="1929.0"/><trkpt lat="37.838561" lon="-111.523426" ele="1922.0"/><trkpt lat="37.838625" lon="-111.523109" ele="1921.0"/><trkpt lat="37.838741" lon="-111.522715" ele="1919.0"/><trkpt lat="37.838515" lon="-111.522316" ele="1917.0"/><trkpt lat="37.838505" lon="-111.521916" ele="1911.0"/><trkpt lat="37.838572" lon="-111.52116" ele="1901.0"/><trkpt lat="37.838398" lon="-111.520797" ele="1901.0"/><trkpt lat="37.838301" lon="-111.520333" ele="1900.0"/><trkpt lat="37.83788" lon="-111.519891" ele="1886.0"/><trkpt lat="37.837871" lon="-111.519797" ele="1883.0"/><trkpt lat="37.838241" lon="-111.519175" ele="1873.0"/><trkpt lat="37.838191" lon="-111.518528" ele="1854.0"/><trkpt lat="37.837916" lon="-111.518322" ele="1855.0"/><trkpt lat="37.837697" lon="-111.518306" ele="1852.0"/><trkpt lat="37.837323" lon="-111.518076" ele="1837.0"/><trkpt lat="37.837318" lon="-111.517958" ele="1834.0"/><trkpt lat="37.837193" lon="-111.517541" ele="1823.0"/><trkpt lat="37.837178" lon="-111.517179" ele="1816.0"/><trkpt lat="37.837384" lon="-111.516681" ele="1808.0"/><trkpt lat="37.837369" lon="-111.516568" ele="1803.0"/><trkpt lat="37.837334" lon="-111.516389" ele="1796.0"/><trkpt lat="37.837281" lon="-111.516295" ele="1796.0"/><trkpt lat="37.837097" lon="-111.516387" ele="1794.0"/><trkpt lat="37.837055" lon="-111.516384" ele="1794.0"/><trkpt lat="37.837118" lon="-111.516299" ele="1794.0"/><trkpt lat="37.837157" lon="-111.516171" ele="1795.0"/><trkpt lat="37.837021" lon="-111.516227" ele="1793.0"/><trkpt lat="37.836985" lon="-111.516209" ele="1793.0"/><trkpt lat="37.837081" lon="-111.516085" ele="1794.0"/><trkpt lat="37.837148" lon="-111.515806" ele="1795.0"/><trkpt lat="37.836979" lon="-111.515527" ele="1803.0"/><trkpt lat="37.836866" lon="-111.515629" ele="1802.0"/><trkpt lat="37.83683" lon="-111.515682" ele="1801.0"/><trkpt lat="37.836777" lon="-111.515761" ele="1801.0"/><trkpt lat="37.836719" lon="-111.515906" ele="1801.0"/><trkpt lat="37.836699" lon="-111.516083" ele="1799.0"/><trkpt lat="37.836623" lon="-111.516333" ele="1793.0"/><trkpt lat="37.836483" lon="-111.516536" ele="1785.0"/><trkpt lat="37.83627" lon="-111.516725" ele="1777.0"/><trkpt lat="37.836225" lon="-111.516795" ele="1775.0"/><trkpt lat="37.836096" lon="-111.516787" ele="1775.0"/><trkpt lat="37.83603" lon="-111.51681" ele="1776.0"/><trkpt lat="37.835977" lon="-111.516868" ele="1777.0"/><trkpt lat="37.836004" lon="-111.51697" ele="1774.0"/><trkpt lat="37.835966" lon="-111.51707" ele="1775.0"/><trkpt lat="37.836015" lon="-111.517329" ele="1774.0"/><trkpt lat="37.836047" lon="-111.51754" ele="1778.0"/><trkpt lat="37.836098" lon="-111.517825" ele="1787.0"/><trkpt lat="37.836206" lon="-111.518189" ele="1794.0"/><trkpt lat="37.836196" lon="-111.518306" ele="1792.0"/><trkpt lat="37.836147" lon="-111.518402" ele="1791.0"/><trkpt lat="37.83607" lon="-111.518431" ele="1789.0"/><trkpt lat="37.836015" lon="-111.518407" ele="1788.0"/><trkpt lat="37.835933" lon="-111.518432" ele="1787.0"/><trkpt lat="37.835818" lon="-111.518564" ele="1786.0"/><trkpt lat="37.835798" lon="-111.518588" ele="1786.0"/><trkpt lat="37.835719" lon="-111.518613" ele="1785.0"/><trkpt lat="37.835513" lon="-111.518602" ele="1780.0"/><trkpt lat="37.835306" lon="-111.51854" ele="1766.0"/><trkpt lat="37.835294" lon="-111.518521" ele="1764.0"/><trkpt lat="37.835262" lon="-111.518471" ele="1762.0"/><trkpt lat="37.835102" lon="-111.518421" ele="1762.0"/><trkpt lat="37.834997" lon="-111.518364" ele="1762.0"/><trkpt lat="37.834899" lon="-111.518289" ele="1761.0"/><trkpt lat="37.834836" lon="-111.518209" ele="1759.0"/><trkpt lat="37.834801" lon="-111.517837" ele="1756.0"/><trkpt lat="37.834789" lon="-111.517749" ele="1756.0"/><trkpt lat="37.834745" lon="-111.517632" ele="1756.0"/><trkpt lat="37.834692" lon="-111.517595" ele="1755.0"/><trkpt lat="37.834628" lon="-111.517607" ele="1755.0"/><trkpt lat="37.834567" lon="-111.517661" ele="1755.0"/><trkpt lat="37.834532" lon="-111.517758" ele="1754.0"/><trkpt lat="37.834479" lon="-111.517846" ele="1754.0"/><trkpt lat="37.834442" lon="-111.517995" ele="1754.0"/><trkpt lat="37.8344" lon="-111.518075" ele="1755.0"/><trkpt lat="37.834321" lon="-111.518056" ele="1756.0"/><trkpt lat="37.834263" lon="-111.518088" ele="1757.0"/><trkpt lat="37.834256" lon="-111.518194" ele="1756.0"/><trkpt lat="37.834222" lon="-111.518237" ele="1756.0"/><trkpt lat="37.834195" lon="-111.518271" ele="1756.0"/><trkpt lat="37.834197" lon="-111.518403" ele="1754.0"/><trkpt lat="37.834173" lon="-111.518514" ele="1753.0"/><trkpt lat="37.834146" lon="-111.518634" ele="1753.0"/><trkpt lat="37.834057" lon="-111.518758" ele="1756.0"/><trkpt lat="37.833995" lon="-111.518805" ele="1758.0"/><trkpt lat="37.833885" lon="-111.518815" ele="1759.0"/><trkpt lat="37.833653" lon="-111.518872" ele="1760.0"/><trkpt lat="37.83335" lon="-111.518972" ele="1757.0"/><trkpt lat="37.833034" lon="-111.519042" ele="1752.0"/><trkpt lat="37.832956" lon="-111.519095" ele="1754.0"/><trkpt lat="37.832966" lon="-111.519157" ele="1754.0"/><trkpt lat="37.832973" lon="-111.519204" ele="1754.0"/><trkpt lat="37.832927" lon="-111.519232" ele="1755.0"/><trkpt lat="37.832927" lon="-111.51931" ele="1756.0"/><trkpt lat="37.832867" lon="-111.519427" ele="1758.0"/><trkpt lat="37.832904" lon="-111.519549" ele="1757.0"/><trkpt lat="37.832907" lon="-111.519725" ele="1757.0"/><trkpt lat="37.832978" lon="-111.519932" ele="1761.0"/><trkpt lat="37.832968" lon="-111.520208" ele="1758.0"/><trkpt lat="37.833018" lon="-111.520332" ele="1758.0"/><trkpt lat="37.833031" lon="-111.520484" ele="1756.0"/><trkpt lat="37.833033" lon="-111.520618" ele="1754.0"/><trkpt lat="37.833026" lon="-111.520755" ele="1753.0"/><trkpt lat="37.83305" lon="-111.520848" ele="1752.0"/><trkpt lat="37.833029" lon="-111.520919" ele="1754.0"/><trkpt lat="37.832983" lon="-111.521022" ele="1756.0"/><trkpt lat="37.832909" lon="-111.521066" ele="1758.0"/><trkpt lat="37.832813" lon="-111.521051" ele="1758.0"/><trkpt lat="37.832774" lon="-111.521089" ele="1760.0"/><trkpt lat="37.832715" lon="-111.52105" ele="1760.0"/><trkpt lat="37.832611" lon="-111.521008" ele="1760.0"/><trkpt lat="37.832601" lon="-111.52096" ele="1759.0"/><trkpt lat="37.832483" lon="-111.5209" ele="1758.0"/><trkpt lat="37.832261" lon="-111.520758" ele="1755.0"/><trkpt lat="37.832139" lon="-111.520645" ele="1757.0"/><trkpt lat="37.832043" lon="-111.520476" ele="1750.0"/><trkpt lat="37.832094" lon="-111.520422" ele="1748.0"/><trkpt lat="37.832058" lon="-111.520327" ele="1743.0"/><trkpt lat="37.832032" lon="-111.520149" ele="1741.0"/><trkpt lat="37.831892" lon="-111.520057" ele="1741.0"/><trkpt lat="37.831838" lon="-111.519985" ele="1741.0"/><trkpt lat="37.831826" lon="-111.519908" ele="1741.0"/><trkpt lat="37.831778" lon="-111.519843" ele="1741.0"/><trkpt lat="37.831706" lon="-111.519755" ele="1741.0"/><trkpt lat="37.831645" lon="-111.519786" ele="1742.0"/><trkpt lat="37.831552" lon="-111.519752" ele="1746.0"/><trkpt lat="37.831492" lon="-111.519615" ele="1748.0"/><trkpt lat="37.831506" lon="-111.519522" ele="1747.0"/><trkpt lat="37.831403" lon="-111.519268" ele="1750.0"/><trkpt lat="37.831359" lon="-111.519219" ele="1751.0"/><trkpt lat="37.831289" lon="-111.51914" ele="1750.0"/><trkpt lat="37.831165" lon="-111.519104" ele="1749.0"/><trkpt lat="37.831064" lon="-111.519162" ele="1748.0"/><trkpt lat="37.830807" lon="-111.519281" ele="1748.0"/><trkpt lat="37.830625" lon="-111.51935" ele="1753.0"/><trkpt lat="37.83054" lon="-111.51943" ele="1758.0"/><trkpt lat="37.830402" lon="-111.519518" ele="1773.0"/><trkpt lat="37.830354" lon="-111.519573" ele="1778.0"/><trkpt lat="37.830305" lon="-111.519558" ele="1782.0"/><trkpt lat="37.830244" lon="-111.519545" ele="1785.0"/><trkpt lat="37.830177" lon="-111.519437" ele="1786.0"/><trkpt lat="37.830091" lon="-111.519258" ele="1781.0"/><trkpt lat="37.830101" lon="-111.519205" ele="1777.0"/><trkpt lat="37.830036" lon="-111.51907" ele="1770.0"/><trkpt lat="37.830041" lon="-111.518976" ele="1757.0"/><trkpt lat="37.830096" lon="-111.518858" ele="1745.0"/><trkpt lat="37.830074" lon="-111.518769" ele="1745.0"/><trkpt lat="37.830083" lon="-111.518653" ele="1746.0"/><trkpt lat="37.830145" lon="-111.518517" ele="1747.0"/><trkpt lat="37.830134" lon="-111.518449" ele="1747.0"/><trkpt lat="37.830146" lon="-111.518324" ele="1749.0"/><trkpt lat="37.830108" lon="-111.518212" ele="1750.0"/><trkpt lat="37.830106" lon="-111.518085" ele="1752.0"/><trkpt lat="37.830085" lon="-111.517958" ele="1753.0"/><trkpt lat="37.830049" lon="-111.517771" ele="1753.0"/><trkpt lat="37.829986" lon="-111.517671" ele="1752.0"/><trkpt lat="37.829921" lon="-111.517686" ele="1751.0"/><trkpt lat="37.829821" lon="-111.517503" ele="1750.0"/><trkpt lat="37.829806" lon="-111.5174" ele="1751.0"/><trkpt lat="37.829743" lon="-111.517291" ele="1749.0"/><trkpt lat="37.829667" lon="-111.517196" ele="1751.0"/><trkpt lat="37.829562" lon="-111.517116" ele="1753.0"/><trkpt lat="37.829481" lon="-111.517026" ele="1755.0"/><trkpt lat="37.829372" lon="-111.517004" ele="1759.0"/><trkpt lat="37.829223" lon="-111.516942" ele="1767.0"/><trkpt lat="37.82918" lon="-111.516888" ele="1771.0"/><trkpt lat="37.829151" lon="-111.516852" ele="1773.0"/><trkpt lat="37.829055" lon="-111.516828" ele="1775.0"/><trkpt lat="37.828975" lon="-111.516789" ele="1777.0"/><trkpt lat="37.828916" lon="-111.516818" ele="1776.0"/><trkpt lat="37.82884" lon="-111.516782" ele="1778.0"/><trkpt lat="37.828686" lon="-111.516813" ele="1778.0"/><trkpt lat="37.828604" lon="-111.516868" ele="1775.0"/><trkpt lat="37.828561" lon="-111.516896" ele="1774.0"/><trkpt lat="37.828413" lon="-111.516958" ele="1774.0"/><trkpt lat="37.828337" lon="-111.517112" ele="1773.0"/><trkpt lat="37.828298" lon="-111.517151" ele="1773.0"/><trkpt lat="37.828218" lon="-111.517239" ele="1771.0"/><trkpt lat="37.828109" lon="-111.517431" ele="1765.0"/><trkpt lat="37.828094" lon="-111.517558" ele="1762.0"/><trkpt lat="37.828063" lon="-111.5177" ele="1760.0"/><trkpt lat="37.828012" lon="-111.517767" ele="1759.0"/><trkpt lat="37.827983" lon="-111.51777" ele="1759.0"/><trkpt lat="37.827931" lon="-111.517777" ele="1759.0"/><trkpt lat="37.827881" lon="-111.517816" ele="1758.0"/><trkpt lat="37.827791" lon="-111.517919" ele="1758.0"/><trkpt lat="37.827728" lon="-111.517928" ele="1758.0"/><trkpt lat="37.827661" lon="-111.517901" ele="1759.0"/><trkpt lat="37.827634" lon="-111.517824" ele="1760.0"/><trkpt lat="37.827501" lon="-111.517749" ele="1764.0"/><trkpt lat="37.827429" lon="-111.517721" ele="1765.0"/><trkpt lat="37.827279" lon="-111.517607" ele="1765.0"/><trkpt lat="37.827199" lon="-111.517604" ele="1764.0"/><trkpt lat="37.827134" lon="-111.517604" ele="1765.0"/><trkpt lat="37.82702" lon="-111.517553" ele="1767.0"/><trkpt lat="37.826862" lon="-111.517569" ele="1774.0"/><trkpt lat="37.826772" lon="-111.517606" ele="1778.0"/><trkpt lat="37.826712" lon="-111.517742" ele="1775.0"/><trkpt lat="37.826685" lon="-111.517865" ele="1770.0"/><trkpt lat="37.826691" lon="-111.518114" ele="1759.0"/><trkpt lat="37.826682" lon="-111.518133" ele="1759.0"/><trkpt lat="37.826641" lon="-111.518221" ele="1756.0"/><trkpt lat="37.826658" lon="-111.518356" ele="1752.0"/><trkpt lat="37.826626" lon="-111.518463" ele="1750.0"/><trkpt lat="37.826591" lon="-111.518484" ele="1750.0"/><trkpt lat="37.826535" lon="-111.518472" ele="1751.0"/><trkpt lat="37.826436" lon="-111.518485" ele="1752.0"/><trkpt lat="37.826322" lon="-111.518402" ele="1754.0"/><trkpt lat="37.826209" lon="-111.518393" ele="1757.0"/><trkpt lat="37.826167" lon="-111.51836" ele="1758.0"/><trkpt lat="37.826113" lon="-111.518251" ele="1765.0"/><trkpt lat="37.825975" lon="-111.518119" ele="1772.0"/><trkpt lat="37.825785" lon="-111.518079" ele="1772.0"/><trkpt lat="37.825716" lon="-111.518068" ele="1772.0"/><trkpt lat="37.82562" lon="-111.518054" ele="1772.0"/><trkpt lat="37.825519" lon="-111.518236" ele="1761.0"/><trkpt lat="37.825467" lon="-111.518406" ele="1755.0"/><trkpt lat="37.825476" lon="-111.518585" ele="1750.0"/><trkpt lat="37.825445" lon="-111.518756" ele="1750.0"/><trkpt lat="37.825459" lon="-111.518919" ele="1750.0"/><trkpt lat="37.82541" lon="-111.518975" ele="1750.0"/><trkpt lat="37.825335" lon="-111.518957" ele="1750.0"/><trkpt lat="37.825262" lon="-111.518997" ele="1749.0"/><trkpt lat="37.825164" lon="-111.519048" ele="1747.0"/><trkpt lat="37.825053" lon="-111.519063" ele="1745.0"/><trkpt lat="37.824948" lon="-111.519038" ele="1744.0"/><trkpt lat="37.824857" lon="-111.51895" ele="1747.0"/><trkpt lat="37.824773" lon="-111.518924" ele="1749.0"/><trkpt lat="37.82456" lon="-111.518733" ele="1755.0"/><trkpt lat="37.824521" lon="-111.518741" ele="1754.0"/><trkpt lat="37.824497" lon="-111.518745" ele="1753.0"/><trkpt lat="37.824425" lon="-111.51869" ele="1760.0"/><trkpt lat="37.824303" lon="-111.518618" ele="1766.0"/><trkpt lat="37.824184" lon="-111.518581" ele="1767.0"/><trkpt lat="37.824132" lon="-111.518575" ele="1767.0"/><trkpt lat="37.824083" lon="-111.518586" ele="1764.0"/><trkpt lat="37.82401" lon="-111.518553" ele="1767.0"/><trkpt lat="37.82389" lon="-111.518544" ele="1765.0"/><trkpt lat="37.823812" lon="-111.518557" ele="1770.0"/><trkpt lat="37.823728" lon="-111.518621" ele="1770.0"/><trkpt lat="37.823546" lon="-111.518687" ele="1772.0"/><trkpt lat="37.823348" lon="-111.518783" ele="1761.0"/><trkpt lat="37.823285" lon="-111.518837" ele="1757.0"/><trkpt lat="37.823014" lon="-111.518939" ele="1749.0"/><trkpt lat="37.822833" lon="-111.519035" ele="1740.0"/><trkpt lat="37.822742" lon="-111.519084" ele="1738.0"/><trkpt lat="37.822605" lon="-111.519114" ele="1736.0"/><trkpt lat="37.822542" lon="-111.519207" ele="1734.0"/><trkpt lat="37.822405" lon="-111.519303" ele="1733.0"/><trkpt lat="37.822206" lon="-111.519314" ele="1732.0"/><trkpt lat="37.822112" lon="-111.519363" ele="1731.0"/><trkpt lat="37.82198" lon="-111.519407" ele="1729.0"/><trkpt lat="37.821951" lon="-111.519417" ele="1728.0"/><trkpt lat="37.821847" lon="-111.519482" ele="1731.0"/><trkpt lat="37.821776" lon="-111.519474" ele="1732.0"/><trkpt lat="37.821692" lon="-111.519546" ele="1736.0"/><trkpt lat="37.821607" lon="-111.519585" ele="1739.0"/><trkpt lat="37.821523" lon="-111.519614" ele="1741.0"/><trkpt lat="37.821429" lon="-111.519608" ele="1742.0"/><trkpt lat="37.821356" lon="-111.519589" ele="1742.0"/><trkpt lat="37.82127" lon="-111.519573" ele="1743.0"/><trkpt lat="37.821228" lon="-111.519561" ele="1743.0"/><trkpt lat="37.821172" lon="-111.519522" ele="1743.0"/><trkpt lat="37.821126" lon="-111.519452" ele="1741.0"/><trkpt lat="37.821115" lon="-111.519321" ele="1737.0"/><trkpt lat="37.82112" lon="-111.519209" ele="1734.0"/><trkpt lat="37.821144" lon="-111.519094" ele="1732.0"/><trkpt lat="37.821146" lon="-111.519002" ele="1731.0"/><trkpt lat="37.821128" lon="-111.518902" ele="1730.0"/><trkpt lat="37.821081" lon="-111.518852" ele="1730.0"/><trkpt lat="37.821074" lon="-111.518747" ele="1729.0"/><trkpt lat="37.821048" lon="-111.518716" ele="1730.0"/><trkpt lat="37.820982" lon="-111.518579" ele="1729.0"/><trkpt lat="37.820956" lon="-111.518481" ele="1729.0"/><trkpt lat="37.820879" lon="-111.518387" ele="1729.0"/><trkpt lat="37.820804" lon="-111.518353" ele="1729.0"/><trkpt lat="37.82076" lon="-111.518333" ele="1729.0"/><trkpt lat="37.820682" lon="-111.518207" ele="1732.0"/><trkpt lat="37.820653" lon="-111.518123" ele="1734.0"/><trkpt lat="37.820544" lon="-111.518046" ele="1736.0"/><trkpt lat="37.820459" lon="-111.518043" ele="1734.0"/><trkpt lat="37.820331" lon="-111.518108" ele="1729.0"/><trkpt lat="37.820259" lon="-111.518084" ele="1728.0"/><trkpt lat="37.820161" lon="-111.51814" ele="1726.0"/><trkpt lat="37.820052" lon="-111.518146" ele="1725.0"/><trkpt lat="37.819903" lon="-111.518307" ele="1724.0"/><trkpt lat="37.819818" lon="-111.518418" ele="1725.0"/><trkpt lat="37.819707" lon="-111.518508" ele="1725.0"/><trkpt lat="37.819524" lon="-111.518619" ele="1727.0"/><trkpt lat="37.819459" lon="-111.518729" ele="1730.0"/><trkpt lat="37.819395" lon="-111.518777" ele="1733.0"/><trkpt lat="37.819319" lon="-111.518853" ele="1737.0"/><trkpt lat="37.819247" lon="-111.518812" ele="1738.0"/><trkpt lat="37.819235" lon="-111.518805" ele="1738.0"/><trkpt lat="37.819194" lon="-111.518781" ele="1739.0"/><trkpt lat="37.819196" lon="-111.518558" ele="1731.0"/><trkpt lat="37.819149" lon="-111.518435" ele="1727.0"/><trkpt lat="37.819127" lon="-111.518324" ele="1723.0"/><trkpt lat="37.819117" lon="-111.518167" ele="1724.0"/><trkpt lat="37.819041" lon="-111.51805" ele="1724.0"/><trkpt lat="37.818973" lon="-111.517828" ele="1728.0"/><trkpt lat="37.818984" lon="-111.517748" ele="1730.0"/><trkpt lat="37.818956" lon="-111.517643" ele="1735.0"/><trkpt lat="37.8189" lon="-111.517641" ele="1735.0"/><trkpt lat="37.818805" lon="-111.517576" ele="1743.0"/><trkpt lat="37.818765" lon="-111.517498" ele="1751.0"/><trkpt lat="37.818744" lon="-111.517507" ele="1752.0"/><trkpt lat="37.818724" lon="-111.517516" ele="1753.0"/><trkpt lat="37.818682" lon="-111.517458" ele="1759.0"/><trkpt lat="37.818626" lon="-111.517432" ele="1764.0"/><trkpt lat="37.818586" lon="-111.517474" ele="1764.0"/><trkpt lat="37.818536" lon="-111.517543" ele="1759.0"/><trkpt lat="37.818436" lon="-111.517685" ele="1747.0"/><trkpt lat="37.818371" lon="-111.517809" ele="1740.0"/><trkpt lat="37.818302" lon="-111.518054" ele="1734.0"/><trkpt lat="37.818261" lon="-111.51827" ele="1733.0"/><trkpt lat="37.818255" lon="-111.518407" ele="1731.0"/><trkpt lat="37.818226" lon="-111.518548" ele="1731.0"/><trkpt lat="37.818225" lon="-111.518832" ele="1729.0"/><trkpt lat="37.81824" lon="-111.519076" ele="1730.0"/><trkpt lat="37.818267" lon="-111.51927" ele="1729.0"/><trkpt lat="37.818247" lon="-111.5194" ele="1729.0"/><trkpt lat="37.818278" lon="-111.519476" ele="1728.0"/><trkpt lat="37.818298" lon="-111.519611" ele="1728.0"/><trkpt lat="37.818356" lon="-111.519763" ele="1731.0"/><trkpt lat="37.818424" lon="-111.519882" ele="1736.0"/><trkpt lat="37.818482" lon="-111.519919" ele="1741.0"/><trkpt lat="37.81852" lon="-111.519962" ele="1744.0"/><trkpt lat="37.818508" lon="-111.520022" ele="1745.0"/><trkpt lat="37.818481" lon="-111.520072" ele="1744.0"/><trkpt lat="37.818458" lon="-111.520115" ele="1744.0"/><trkpt lat="37.818413" lon="-111.520251" ele="1745.0"/><trkpt lat="37.818346" lon="-111.520348" ele="1743.0"/><trkpt lat="37.818307" lon="-111.52041" ele="1742.0"/><trkpt lat="37.818226" lon="-111.520398" ele="1738.0"/><trkpt lat="37.818177" lon="-111.520327" ele="1735.0"/><trkpt lat="37.818024" lon="-111.520238" ele="1729.0"/><trkpt lat="37.817977" lon="-111.52015" ele="1728.0"/><trkpt lat="37.817908" lon="-111.520116" ele="1727.0"/><trkpt lat="37.817858" lon="-111.520016" ele="1726.0"/><trkpt lat="37.817765" lon="-111.519968" ele="1726.0"/><trkpt lat="37.817726" lon="-111.519917" ele="1728.0"/><trkpt lat="37.817692" lon="-111.519863" ele="1730.0"/><trkpt lat="37.817638" lon="-111.519779" ele="1733.0"/><trkpt lat="37.817534" lon="-111.519816" ele="1736.0"/><trkpt lat="37.817474" lon="-111.519906" ele="1738.0"/><trkpt lat="37.81746" lon="-111.519987" ele="1738.0"/><trkpt lat="37.817456" lon="-111.52017" ele="1738.0"/><trkpt lat="37.817467" lon="-111.520414" ele="1738.0"/><trkpt lat="37.817531" lon="-111.520641" ele="1738.0"/><trkpt lat="37.817535" lon="-111.520818" ele="1741.0"/><trkpt lat="37.8176" lon="-111.520865" ele="1739.0"/><trkpt lat="37.81761" lon="-111.520983" ele="1734.0"/><trkpt lat="37.817596" lon="-111.521103" ele="1728.0"/><trkpt lat="37.817606" lon="-111.5212" ele="1733.0"/><trkpt lat="37.817545" lon="-111.52125" ele="1735.0"/><trkpt lat="37.817507" lon="-111.521279" ele="1736.0"/><trkpt lat="37.817462" lon="-111.521314" ele="1738.0"/><trkpt lat="37.817353" lon="-111.521323" ele="1739.0"/><trkpt lat="37.81725" lon="-111.521309" ele="1739.0"/><trkpt lat="37.817176" lon="-111.521306" ele="1738.0"/><trkpt lat="37.81709" lon="-111.521273" ele="1735.0"/><trkpt lat="37.81694" lon="-111.521223" ele="1734.0"/><trkpt lat="37.816857" lon="-111.521181" ele="1733.0"/><trkpt lat="37.816717" lon="-111.521153" ele="1731.0"/><trkpt lat="37.816553" lon="-111.521056" ele="1730.0"/><trkpt lat="37.816335" lon="-111.52099" ele="1727.0"/><trkpt lat="37.816206" lon="-111.520917" ele="1725.0"/><trkpt lat="37.816075" lon="-111.520805" ele="1725.0"/><trkpt lat="37.81599" lon="-111.520767" ele="1725.0"/><trkpt lat="37.81591" lon="-111.520632" ele="1725.0"/><trkpt lat="37.815857" lon="-111.520533" ele="1725.0"/><trkpt lat="37.815825" lon="-111.520447" ele="1729.0"/><trkpt lat="37.815736" lon="-111.52034" ele="1735.0"/><trkpt lat="37.815664" lon="-111.520336" ele="1737.0"/><trkpt lat="37.81559" lon="-111.520266" ele="1740.0"/><trkpt lat="37.815471" lon="-111.520231" ele="1746.0"/><trkpt lat="37.815246" lon="-111.520219" ele="1749.0"/><trkpt lat="37.815112" lon="-111.520407" ele="1758.0"/><trkpt lat="37.815018" lon="-111.520556" ele="1761.0"/><trkpt lat="37.815016" lon="-111.52068" ele="1750.0"/><trkpt lat="37.814959" lon="-111.520861" ele="1737.0"/><trkpt lat="37.814813" lon="-111.521001" ele="1737.0"/><trkpt lat="37.814719" lon="-111.521084" ele="1738.0"/><trkpt lat="37.81467" lon="-111.521123" ele="1738.0"/><trkpt lat="37.814621" lon="-111.521162" ele="1738.0"/><trkpt lat="37.8145" lon="-111.521267" ele="1739.0"/><trkpt lat="37.814382" lon="-111.521294" ele="1741.0"/><trkpt lat="37.814367" lon="-111.521348" ele="1742.0"/><trkpt lat="37.814187" lon="-111.521353" ele="1745.0"/><trkpt lat="37.814039" lon="-111.521369" ele="1746.0"/><trkpt lat="37.813834" lon="-111.521386" ele="1745.0"/><trkpt lat="37.813677" lon="-111.521333" ele="1743.0"/><trkpt lat="37.813503" lon="-111.521239" ele="1740.0"/><trkpt lat="37.813351" lon="-111.521072" ele="1735.0"/><trkpt lat="37.813285" lon="-111.520908" ele="1729.0"/><trkpt lat="37.813163" lon="-111.520595" ele="1720.0"/><trkpt lat="37.813041" lon="-111.520508" ele="1717.0"/><trkpt lat="37.812909" lon="-111.520462" ele="1715.0"/><trkpt lat="37.812755" lon="-111.520345" ele="1713.0"/><trkpt lat="37.812665" lon="-111.520353" ele="1712.0"/><trkpt lat="37.812568" lon="-111.520449" ele="1711.0"/><trkpt lat="37.812457" lon="-111.520427" ele="1710.0"/><trkpt lat="37.812283" lon="-111.520351" ele="1713.0"/><trkpt lat="37.812115" lon="-111.520381" ele="1714.0"/><trkpt lat="37.811975" lon="-111.52036" ele="1714.0"/><trkpt lat="37.811811" lon="-111.520256" ele="1709.0"/><trkpt lat="37.811766" lon="-111.520182" ele="1710.0"/><trkpt lat="37.811724" lon="-111.520109" ele="1711.0"/><trkpt lat="37.811665" lon="-111.520051" ele="1710.0"/><trkpt lat="37.811551" lon="-111.520057" ele="1713.0"/><trkpt lat="37.811494" lon="-111.520002" ele="1716.0"/><trkpt lat="37.81127" lon="-111.519755" ele="1720.0"/><trkpt lat="37.811107" lon="-111.519695" ele="1723.0"/><trkpt lat="37.810987" lon="-111.519613" ele="1719.0"/><trkpt lat="37.810911" lon="-111.519472" ele="1714.0"/><trkpt lat="37.810793" lon="-111.519426" ele="1713.0"/><trkpt lat="37.810633" lon="-111.519298" ele="1711.0"/><trkpt lat="37.810403" lon="-111.519184" ele="1715.0"/><trkpt lat="37.810207" lon="-111.519186" ele="1720.0"/><trkpt lat="37.810048" lon="-111.519188" ele="1722.0"/><trkpt lat="37.80995" lon="-111.519041" ele="1722.0"/><trkpt lat="37.809677" lon="-111.518979" ele="1710.0"/><trkpt lat="37.809511" lon="-111.518978" ele="1716.0"/><trkpt lat="37.809423" lon="-111.518927" ele="1721.0"/><trkpt lat="37.809316" lon="-111.518927" ele="1724.0"/><trkpt lat="37.809225" lon="-111.518949" ele="1726.0"/><trkpt lat="37.809043" lon="-111.519168" ele="1714.0"/><trkpt lat="37.808689" lon="-111.519398" ele="1709.0"/><trkpt lat="37.808612" lon="-111.519427" ele="1708.0"/><trkpt lat="37.808543" lon="-111.519499" ele="1709.0"/><trkpt lat="37.808486" lon="-111.519474" ele="1709.0"/><trkpt lat="37.808405" lon="-111.519388" ele="1708.0"/><trkpt lat="37.808309" lon="-111.519263" ele="1708.0"/><trkpt lat="37.808275" lon="-111.51913" ele="1707.0"/><trkpt lat="37.808274" lon="-111.518957" ele="1706.0"/><trkpt lat="37.80831" lon="-111.518793" ele="1707.0"/><trkpt lat="37.808294" lon="-111.518608" ele="1708.0"/><trkpt lat="37.808241" lon="-111.51847" ele="1709.0"/><trkpt lat="37.808192" lon="-111.51844" ele="1708.0"/><trkpt lat="37.808087" lon="-111.518445" ele="1708.0"/><trkpt lat="37.808057" lon="-111.518456" ele="1708.0"/><trkpt lat="37.807977" lon="-111.518449" ele="1709.0"/><trkpt lat="37.807907" lon="-111.518418" ele="1709.0"/><trkpt lat="37.807809" lon="-111.518423" ele="1709.0"/><trkpt lat="37.807709" lon="-111.518435" ele="1708.0"/><trkpt lat="37.807616" lon="-111.518506" ele="1706.0"/><trkpt lat="37.807505" lon="-111.518594" ele="1705.0"/><trkpt lat="37.807427" lon="-111.518813" ele="1704.0"/><trkpt lat="37.807343" lon="-111.51887" ele="1707.0"/><trkpt lat="37.807244" lon="-111.519039" ele="1709.0"/><trkpt lat="37.80716" lon="-111.519184" ele="1714.0"/><trkpt lat="37.807054" lon="-111.519264" ele="1722.0"/><trkpt lat="37.806981" lon="-111.519381" ele="1725.0"/><trkpt lat="37.806853" lon="-111.519509" ele="1727.0"/><trkpt lat="37.806797" lon="-111.519483" ele="1730.0"/><trkpt lat="37.806721" lon="-111.519487" ele="1733.0"/><trkpt lat="37.80658" lon="-111.519527" ele="1737.0"/><trkpt lat="37.806088" lon="-111.519304" ele="1754.0"/><trkpt lat="37.806061" lon="-111.519357" ele="1755.0"/><trkpt lat="37.80604" lon="-111.519399" ele="1757.0"/><trkpt lat="37.805947" lon="-111.519385" ele="1756.0"/><trkpt lat="37.805866" lon="-111.519363" ele="1753.0"/><trkpt lat="37.805774" lon="-111.519303" ele="1741.0"/><trkpt lat="37.805765" lon="-111.519162" ele="1725.0"/><trkpt lat="37.805646" lon="-111.51905" ele="1721.0"/><trkpt lat="37.805583" lon="-111.519003" ele="1718.0"/><trkpt lat="37.805506" lon="-111.518873" ele="1715.0"/><trkpt lat="37.805368" lon="-111.518756" ele="1720.0"/><trkpt lat="37.805355" lon="-111.518666" ele="1721.0"/><trkpt lat="37.805167" lon="-111.518456" ele="1731.0"/><trkpt lat="37.805045" lon="-111.518413" ele="1738.0"/><trkpt lat="37.804939" lon="-111.518293" ele="1744.0"/><trkpt lat="37.804827" lon="-111.518222" ele="1748.0"/><trkpt lat="37.80479" lon="-111.518097" ele="1747.0"/><trkpt lat="37.804778" lon="-111.517999" ele="1746.0"/><trkpt lat="37.80468" lon="-111.517926" ele="1751.0"/><trkpt lat="37.804587" lon="-111.517779" ele="1757.0"/><trkpt lat="37.80458" lon="-111.517664" ele="1754.0"/><trkpt lat="37.804619" lon="-111.517505" ele="1747.0"/><trkpt lat="37.804719" lon="-111.517382" ele="1740.0"/><trkpt lat="37.804812" lon="-111.517218" ele="1737.0"/><trkpt lat="37.804883" lon="-111.516992" ele="1733.0"/><trkpt lat="37.804986" lon="-111.516914" ele="1730.0"/><trkpt lat="37.805086" lon="-111.516864" ele="1724.0"/><trkpt lat="37.805377" lon="-111.516714" ele="1708.0"/><trkpt lat="37.806076" lon="-111.516424" ele="1704.0"/><trkpt lat="37.806155" lon="-111.516488" ele="1703.0"/><trkpt lat="37.806269" lon="-111.516484" ele="1704.0"/><trkpt lat="37.806322" lon="-111.516418" ele="1705.0"/><trkpt lat="37.806337" lon="-111.516351" ele="1707.0"/><trkpt lat="37.806327" lon="-111.516305" ele="1709.0"/><trkpt lat="37.806348" lon="-111.516107" ele="1716.0"/><trkpt lat="37.806423" lon="-111.515878" ele="1728.0"/><trkpt lat="37.806582" lon="-111.515529" ele="1724.0"/><trkpt lat="37.806912" lon="-111.515082" ele="1716.0"/><trkpt lat="37.80699" lon="-111.514936" ele="1721.0"/><trkpt lat="37.807015" lon="-111.514807" ele="1727.0"/><trkpt lat="37.807025" lon="-111.514653" ele="1732.0"/><trkpt lat="37.806956" lon="-111.514542" ele="1731.0"/><trkpt lat="37.806739" lon="-111.514522" ele="1723.0"/><trkpt lat="37.806637" lon="-111.514557" ele="1719.0"/><trkpt lat="37.806527" lon="-111.514517" ele="1716.0"/><trkpt lat="37.806411" lon="-111.514539" ele="1712.0"/><trkpt lat="37.80616" lon="-111.514407" ele="1701.0"/><trkpt lat="37.806049" lon="-111.51437" ele="1701.0"/><trkpt lat="37.805922" lon="-111.514206" ele="1702.0"/><trkpt lat="37.805824" lon="-111.514008" ele="1700.0"/><trkpt lat="37.805608" lon="-111.513607" ele="1695.0"/><trkpt lat="37.805556" lon="-111.513542" ele="1694.0"/><trkpt lat="37.805457" lon="-111.513175" ele="1700.0"/><trkpt lat="37.80536" lon="-111.512908" ele="1709.0"/><trkpt lat="37.805203" lon="-111.512565" ele="1720.0"/><trkpt lat="37.805039" lon="-111.512253" ele="1748.0"/><trkpt lat="37.804854" lon="-111.512062" ele="1770.0"/><trkpt lat="37.804772" lon="-111.512064" ele="1773.0"/><trkpt lat="37.804613" lon="-111.512267" ele="1764.0"/><trkpt lat="37.804558" lon="-111.512436" ele="1770.0"/><trkpt lat="37.804373" lon="-111.51266" ele="1795.0"/><trkpt lat="37.804149" lon="-111.512732" ele="1802.0"/><trkpt lat="37.803956" lon="-111.512671" ele="1805.0"/><trkpt lat="37.803848" lon="-111.512542" ele="1800.0"/><trkpt lat="37.803615" lon="-111.512454" ele="1796.0"/><trkpt lat="37.803374" lon="-111.512436" ele="1801.0"/><trkpt lat="37.803228" lon="-111.512537" ele="1801.0"/><trkpt lat="37.803137" lon="-111.512759" ele="1795.0"/><trkpt lat="37.803005" lon="-111.512823" ele="1787.0"/><trkpt lat="37.802806" lon="-111.512832" ele="1779.0"/><trkpt lat="37.802669" lon="-111.512755" ele="1777.0"/><trkpt lat="37.80256" lon="-111.512588" ele="1780.0"/><trkpt lat="37.80249" lon="-111.512673" ele="1777.0"/><trkpt lat="37.802294" lon="-111.512649" ele="1792.0"/><trkpt lat="37.802006" lon="-111.512881" ele="1786.0"/><trkpt lat="37.801846" lon="-111.51301" ele="1765.0"/><trkpt lat="37.801617" lon="-111.513249" ele="1735.0"/><trkpt lat="37.801437" lon="-111.513407" ele="1700.0"/><trkpt lat="37.801278" lon="-111.51343" ele="1691.0"/><trkpt lat="37.801112" lon="-111.513423" ele="1686.0"/><trkpt lat="37.800932" lon="-111.513325" ele="1692.0"/><trkpt lat="37.80081" lon="-111.513134" ele="1697.0"/><trkpt lat="37.800688" lon="-111.512945" ele="1704.0"/><trkpt lat="37.800516" lon="-111.512846" ele="1709.0"/><trkpt lat="37.80045" lon="-111.512719" ele="1716.0"/><trkpt lat="37.800405" lon="-111.512558" ele="1729.0"/><trkpt lat="37.800381" lon="-111.512386" ele="1741.0"/><trkpt lat="37.800364" lon="-111.512211" ele="1753.0"/><trkpt lat="37.800334" lon="-111.512016" ele="1766.0"/><trkpt lat="37.800294" lon="-111.511905" ele="1772.0"/><trkpt lat="37.800313" lon="-111.511469" ele="1777.0"/><trkpt lat="37.800291" lon="-111.511068" ele="1770.0"/><trkpt lat="37.800315" lon="-111.51073" ele="1764.0"/><trkpt lat="37.800352" lon="-111.510504" ele="1763.0"/><trkpt lat="37.800178" lon="-111.510222" ele="1760.0"/><trkpt lat="37.80008" lon="-111.509964" ele="1768.0"/><trkpt lat="37.800025" lon="-111.509848" ele="1772.0"/><trkpt lat="37.799944" lon="-111.509724" ele="1774.0"/><trkpt lat="37.799737" lon="-111.509525" ele="1779.0"/><trkpt lat="37.799465" lon="-111.50949" ele="1779.0"/><trkpt lat="37.799199" lon="-111.509587" ele="1758.0"/><trkpt lat="37.798949" lon="-111.509596" ele="1748.0"/><trkpt lat="37.798675" lon="-111.509748" ele="1762.0"/><trkpt lat="37.798614" lon="-111.509989" ele="1754.0"/><trkpt lat="37.798673" lon="-111.510194" ele="1753.0"/><trkpt lat="37.79859" lon="-111.51066" ele="1750.0"/><trkpt lat="37.798464" lon="-111.510812" ele="1744.0"/><trkpt lat="37.798222" lon="-111.511158" ele="1713.0"/><trkpt lat="37.798138" lon="-111.511229" ele="1704.0"/><trkpt lat="37.798051" lon="-111.511176" ele="1705.0"/><trkpt lat="37.798005" lon="-111.511156" ele="1706.0"/><trkpt lat="37.797984" lon="-111.511202" ele="1703.0"/><trkpt lat="37.797998" lon="-111.511263" ele="1699.0"/><trkpt lat="37.797965" lon="-111.511321" ele="1695.0"/><trkpt lat="37.797886" lon="-111.511384" ele="1694.0"/><trkpt lat="37.797725" lon="-111.511501" ele="1694.0"/><trkpt lat="37.797606" lon="-111.511536" ele="1694.0"/><trkpt lat="37.797554" lon="-111.511501" ele="1696.0"/><trkpt lat="37.79746" lon="-111.511541" ele="1695.0"/><trkpt lat="37.797413" lon="-111.511487" ele="1697.0"/><trkpt lat="37.797296" lon="-111.511515" ele="1697.0"/><trkpt lat="37.797223" lon="-111.511607" ele="1693.0"/><trkpt lat="37.797099" lon="-111.511664" ele="1692.0"/><trkpt lat="37.79701" lon="-111.511643" ele="1693.0"/><trkpt lat="37.796872" lon="-111.511605" ele="1697.0"/><trkpt lat="37.796726" lon="-111.511597" ele="1703.0"/><trkpt lat="37.79667" lon="-111.511539" ele="1705.0"/><trkpt lat="37.796519" lon="-111.511491" ele="1705.0"/><trkpt lat="37.796278" lon="-111.511484" ele="1706.0"/><trkpt lat="37.796044" lon="-111.511406" ele="1698.0"/><trkpt lat="37.79598" lon="-111.51138" ele="1687.0"/><trkpt lat="37.795942" lon="-111.511299" ele="1679.0"/><trkpt lat="37.795926" lon="-111.511092" ele="1670.0"/><trkpt lat="37.795828" lon="-111.510901" ele="1672.0"/><trkpt lat="37.795788" lon="-111.510839" ele="1676.0"/><trkpt lat="37.795783" lon="-111.51061" ele="1678.0"/><trkpt lat="37.795719" lon="-111.510485" ele="1680.0"/><trkpt lat="37.795662" lon="-111.510396" ele="1680.0"/><trkpt lat="37.795576" lon="-111.510344" ele="1680.0"/><trkpt lat="37.795524" lon="-111.510315" ele="1680.0"/><trkpt lat="37.795415" lon="-111.510248" ele="1681.0"/><trkpt lat="37.795323" lon="-111.510163" ele="1680.0"/><trkpt lat="37.795295" lon="-111.510018" ele="1676.0"/><trkpt lat="37.795287" lon="-111.50996" ele="1676.0"/><trkpt lat="37.795177" lon="-111.509823" ele="1679.0"/><trkpt lat="37.795133" lon="-111.509831" ele="1681.0"/><trkpt lat="37.795096" lon="-111.509689" ele="1679.0"/><trkpt lat="37.795089" lon="-111.509549" ele="1679.0"/><trkpt lat="37.795142" lon="-111.509454" ele="1678.0"/><trkpt lat="37.795194" lon="-111.509425" ele="1677.0"/><trkpt lat="37.795241" lon="-111.509439" ele="1676.0"/><trkpt lat="37.795328" lon="-111.509356" ele="1677.0"/><trkpt lat="37.795421" lon="-111.509287" ele="1678.0"/><trkpt lat="37.795571" lon="-111.509232" ele="1677.0"/><trkpt lat="37.795648" lon="-111.509165" ele="1676.0"/><trkpt lat="37.795751" lon="-111.509095" ele="1674.0"/><trkpt lat="37.795939" lon="-111.508929" ele="1690.0"/><trkpt lat="37.796013" lon="-111.508868" ele="1708.0"/><trkpt lat="37.796131" lon="-111.508768" ele="1734.0"/><trkpt lat="37.796167" lon="-111.508672" ele="1739.0"/><trkpt lat="37.796168" lon="-111.508487" ele="1734.0"/><trkpt lat="37.796157" lon="-111.50841" ele="1729.0"/><trkpt lat="37.796165" lon="-111.508245" ele="1719.0"/><trkpt lat="37.796106" lon="-111.508101" ele="1702.0"/><trkpt lat="37.796038" lon="-111.508" ele="1695.0"/><trkpt lat="37.796044" lon="-111.507893" ele="1694.0"/><trkpt lat="37.795996" lon="-111.507852" ele="1691.0"/><trkpt lat="37.795971" lon="-111.507798" ele="1689.0"/><trkpt lat="37.795924" lon="-111.507787" ele="1687.0"/><trkpt lat="37.795901" lon="-111.507745" ele="1689.0"/><trkpt lat="37.795772" lon="-111.507673" ele="1696.0"/><trkpt lat="37.795737" lon="-111.507598" ele="1703.0"/><trkpt lat="37.795637" lon="-111.507501" ele="1710.0"/><trkpt lat="37.795342" lon="-111.507428" ele="1706.0"/><trkpt lat="37.795213" lon="-111.507466" ele="1705.0"/><trkpt lat="37.795089" lon="-111.507507" ele="1705.0"/><trkpt lat="37.794707" lon="-111.507389" ele="1694.0"/><trkpt lat="37.794569" lon="-111.507307" ele="1690.0"/><trkpt lat="37.794401" lon="-111.507252" ele="1686.0"/><trkpt lat="37.79428" lon="-111.507231" ele="1684.0"/><trkpt lat="37.794155" lon="-111.507283" ele="1682.0"/><trkpt lat="37.794003" lon="-111.507343" ele="1684.0"/><trkpt lat="37.793951" lon="-111.507401" ele="1684.0"/><trkpt lat="37.793864" lon="-111.507539" ele="1685.0"/><trkpt lat="37.793849" lon="-111.507656" ele="1683.0"/><trkpt lat="37.793796" lon="-111.507744" ele="1684.0"/><trkpt lat="37.793757" lon="-111.507809" ele="1685.0"/><trkpt lat="37.793752" lon="-111.507944" ele="1685.0"/><trkpt lat="37.793731" lon="-111.508001" ele="1686.0"/><trkpt lat="37.793684" lon="-111.508065" ele="1687.0"/><trkpt lat="37.793636" lon="-111.508172" ele="1690.0"/><trkpt lat="37.793578" lon="-111.508324" ele="1694.0"/><trkpt lat="37.793532" lon="-111.508394" ele="1694.0"/><trkpt lat="37.793378" lon="-111.508428" ele="1692.0"/><trkpt lat="37.793169" lon="-111.508464" ele="1687.0"/><trkpt lat="37.793022" lon="-111.508532" ele="1680.0"/><trkpt lat="37.792896" lon="-111.508535" ele="1676.0"/><trkpt lat="37.792711" lon="-111.508513" ele="1675.0"/><trkpt lat="37.792541" lon="-111.508544" ele="1684.0"/><trkpt lat="37.792406" lon="-111.508514" ele="1688.0"/><trkpt lat="37.792106" lon="-111.508457" ele="1695.0"/><trkpt lat="37.79189" lon="-111.508468" ele="1696.0"/><trkpt lat="37.791718" lon="-111.508399" ele="1699.0"/><trkpt lat="37.791522" lon="-111.508359" ele="1699.0"/><trkpt lat="37.791284" lon="-111.50837" ele="1700.0"/><trkpt lat="37.791086" lon="-111.508423" ele="1703.0"/><trkpt lat="37.791041" lon="-111.508584" ele="1703.0"/><trkpt lat="37.790827" lon="-111.508756" ele="1708.0"/><trkpt lat="37.790738" lon="-111.509113" ele="1709.0"/><trkpt lat="37.790675" lon="-111.509294" ele="1713.0"/><trkpt lat="37.790592" lon="-111.509486" ele="1717.0"/><trkpt lat="37.790534" lon="-111.50971" ele="1723.0"/><trkpt lat="37.790418" lon="-111.510069" ele="1734.0"/><trkpt lat="37.790326" lon="-111.510204" ele="1733.0"/><trkpt lat="37.79024" lon="-111.510257" ele="1733.0"/><trkpt lat="37.78997" lon="-111.510386" ele="1734.0"/><trkpt lat="37.789619" lon="-111.510414" ele="1738.0"/><trkpt lat="37.789507" lon="-111.510502" ele="1735.0"/><trkpt lat="37.789337" lon="-111.510515" ele="1735.0"/><trkpt lat="37.78925" lon="-111.510541" ele="1734.0"/><trkpt lat="37.789149" lon="-111.510613" ele="1732.0"/><trkpt lat="37.789068" lon="-111.510681" ele="1734.0"/><trkpt lat="37.788984" lon="-111.510684" ele="1737.0"/><trkpt lat="37.788865" lon="-111.510713" ele="1740.0"/><trkpt lat="37.788373" lon="-111.510667" ele="1736.0"/><trkpt lat="37.78783" lon="-111.510589" ele="1722.0"/><trkpt lat="37.787457" lon="-111.510477" ele="1734.0"/><trkpt lat="37.787279" lon="-111.510386" ele="1743.0"/><trkpt lat="37.78716" lon="-111.510232" ele="1748.0"/><trkpt lat="37.787037" lon="-111.510135" ele="1751.0"/><trkpt lat="37.787008" lon="-111.510025" ele="1751.0"/><trkpt lat="37.786981" lon="-111.509928" ele="1747.0"/><trkpt lat="37.786925" lon="-111.509544" ele="1725.0"/><trkpt lat="37.786981" lon="-111.509234" ele="1707.0"/><trkpt lat="37.786964" lon="-111.508998" ele="1706.0"/><trkpt lat="37.786971" lon="-111.508865" ele="1709.0"/><trkpt lat="37.786882" lon="-111.508614" ele="1724.0"/><trkpt lat="37.786782" lon="-111.508334" ele="1751.0"/><trkpt lat="37.786658" lon="-111.508277" ele="1750.0"/><trkpt lat="37.786466" lon="-111.508241" ele="1718.0"/><trkpt lat="37.786144" lon="-111.508419" ele="1689.0"/><trkpt lat="37.786045" lon="-111.508433" ele="1694.0"/><trkpt lat="37.785751" lon="-111.508383" ele="1703.0"/><trkpt lat="37.785595" lon="-111.508348" ele="1709.0"/><trkpt lat="37.78556" lon="-111.508217" ele="1711.0"/><trkpt lat="37.785294" lon="-111.50791" ele="1722.0"/><trkpt lat="37.785089" lon="-111.507717" ele="1729.0"/><trkpt lat="37.784812" lon="-111.507506" ele="1724.0"/><trkpt lat="37.784698" lon="-111.507363" ele="1724.0"/><trkpt lat="37.784532" lon="-111.507151" ele="1730.0"/><trkpt lat="37.784347" lon="-111.507118" ele="1730.0"/><trkpt lat="37.784147" lon="-111.507086" ele="1729.0"/><trkpt lat="37.783885" lon="-111.50716" ele="1725.0"/><trkpt lat="37.783754" lon="-111.507186" ele="1721.0"/><trkpt lat="37.783629" lon="-111.507241" ele="1718.0"/><trkpt lat="37.783536" lon="-111.507178" ele="1716.0"/><trkpt lat="37.78308" lon="-111.506759" ele="1703.0"/><trkpt lat="37.78301" lon="-111.50663" ele="1700.0"/><trkpt lat="37.782881" lon="-111.506424" ele="1697.0"/><trkpt lat="37.782773" lon="-111.506379" ele="1695.0"/><trkpt lat="37.782641" lon="-111.506325" ele="1694.0"/><trkpt lat="37.782418" lon="-111.506235" ele="1694.0"/><trkpt lat="37.782337" lon="-111.5062" ele="1694.0"/><trkpt lat="37.782052" lon="-111.506077" ele="1693.0"/><trkpt lat="37.781737" lon="-111.505893" ele="1683.0"/><trkpt lat="37.781423" lon="-111.505744" ele="1664.0"/><trkpt lat="37.781309" lon="-111.505683" ele="1661.0"/><trkpt lat="37.781212" lon="-111.505507" ele="1658.0"/><trkpt lat="37.781139" lon="-111.50543" ele="1657.0"/><trkpt lat="37.780997" lon="-111.505463" ele="1661.0"/><trkpt lat="37.780928" lon="-111.505618" ele="1665.0"/><trkpt lat="37.780751" lon="-111.505676" ele="1668.0"/><trkpt lat="37.780792" lon="-111.505778" ele="1664.0"/><trkpt lat="37.780784" lon="-111.505858" ele="1662.0"/><trkpt lat="37.780742" lon="-111.505971" ele="1663.0"/><trkpt lat="37.780639" lon="-111.506132" ele="1664.0"/><trkpt lat="37.780542" lon="-111.506261" ele="1665.0"/><trkpt lat="37.780409" lon="-111.50638" ele="1673.0"/><trkpt lat="37.780247" lon="-111.50646" ele="1682.0"/><trkpt lat="37.780093" lon="-111.506513" ele="1689.0"/><trkpt lat="37.780006" lon="-111.50659" ele="1692.0"/><trkpt lat="37.779903" lon="-111.506744" ele="1697.0"/><trkpt lat="37.779814" lon="-111.506893" ele="1703.0"/><trkpt lat="37.779628" lon="-111.507103" ele="1717.0"/><trkpt lat="37.779492" lon="-111.507508" ele="1717.0"/><trkpt lat="37.779388" lon="-111.507754" ele="1710.0"/><trkpt lat="37.779359" lon="-111.50788" ele="1706.0"/><trkpt lat="37.779399" lon="-111.508327" ele="1687.0"/><trkpt lat="37.779433" lon="-111.508799" ele="1673.0"/><trkpt lat="37.77939" lon="-111.509056" ele="1674.0"/><trkpt lat="37.779388" lon="-111.509234" ele="1674.0"/><trkpt lat="37.779441" lon="-111.509387" ele="1670.0"/><trkpt lat="37.77941" lon="-111.509591" ele="1664.0"/><trkpt lat="37.77932" lon="-111.50971" ele="1664.0"/><trkpt lat="37.779252" lon="-111.509881" ele="1666.0"/><trkpt lat="37.779273" lon="-111.510269" ele="1664.0"/><trkpt lat="37.779277" lon="-111.510555" ele="1670.0"/><trkpt lat="37.779298" lon="-111.510651" ele="1671.0"/><trkpt lat="37.779319" lon="-111.510811" ele="1674.0"/><trkpt lat="37.77929" lon="-111.510986" ele="1679.0"/><trkpt lat="37.779317" lon="-111.511113" ele="1678.0"/><trkpt lat="37.779385" lon="-111.511247" ele="1670.0"/><trkpt lat="37.779483" lon="-111.511353" ele="1661.0"/><trkpt lat="37.779574" lon="-111.511394" ele="1656.0"/><trkpt lat="37.779564" lon="-111.511594" ele="1658.0"/><trkpt lat="37.779646" lon="-111.511658" ele="1653.0"/><trkpt lat="37.779786" lon="-111.511721" ele="1653.0"/><trkpt lat="37.779876" lon="-111.511807" ele="1656.0"/><trkpt lat="37.779892" lon="-111.511982" ele="1657.0"/><trkpt lat="37.779975" lon="-111.512172" ele="1655.0"/><trkpt lat="37.780118" lon="-111.512358" ele="1653.0"/><trkpt lat="37.780199" lon="-111.512596" ele="1650.0"/><trkpt lat="37.780134" lon="-111.512858" ele="1652.0"/><trkpt lat="37.78006" lon="-111.512995" ele="1655.0"/><trkpt lat="37.780075" lon="-111.513052" ele="1655.0"/><trkpt lat="37.780058" lon="-111.513197" ele="1658.0"/><trkpt lat="37.779992" lon="-111.51333" ele="1659.0"/><trkpt lat="37.779931" lon="-111.513375" ele="1660.0"/><trkpt lat="37.779917" lon="-111.51346" ele="1661.0"/><trkpt lat="37.779953" lon="-111.513528" ele="1661.0"/><trkpt lat="37.779938" lon="-111.513587" ele="1662.0"/><trkpt lat="37.779669" lon="-111.513724" ele="1665.0"/><trkpt lat="37.779451" lon="-111.513811" ele="1665.0"/><trkpt lat="37.779205" lon="-111.513856" ele="1662.0"/><trkpt lat="37.779115" lon="-111.513787" ele="1660.0"/><trkpt lat="37.778763" lon="-111.513623" ele="1654.0"/><trkpt lat="37.778551" lon="-111.513587" ele="1655.0"/><trkpt lat="37.778437" lon="-111.513503" ele="1654.0"/><trkpt lat="37.778359" lon="-111.513482" ele="1655.0"/><trkpt lat="37.778264" lon="-111.513332" ele="1653.0"/><trkpt lat="37.778054" lon="-111.513061" ele="1644.0"/><trkpt lat="37.778023" lon="-111.512993" ele="1649.0"/><trkpt lat="37.777769" lon="-111.512767" ele="1678.0"/><trkpt lat="37.777618" lon="-111.512666" ele="1699.0"/><trkpt lat="37.777431" lon="-111.512623" ele="1721.0"/><trkpt lat="37.7773" lon="-111.512661" ele="1725.0"/><trkpt lat="37.777079" lon="-111.512773" ele="1714.0"/><trkpt lat="37.776948" lon="-111.512976" ele="1692.0"/><trkpt lat="37.776874" lon="-111.51317" ele="1695.0"/><trkpt lat="37.776869" lon="-111.513323" ele="1699.0"/><trkpt lat="37.776902" lon="-111.513497" ele="1698.0"/><trkpt lat="37.776964" lon="-111.51377" ele="1701.0"/><trkpt lat="37.776996" lon="-111.513843" ele="1702.0"/><trkpt lat="37.777056" lon="-111.513976" ele="1703.0"/><trkpt lat="37.777326" lon="-111.514066" ele="1694.0"/><trkpt lat="37.777562" lon="-111.514125" ele="1690.0"/><trkpt lat="37.777788" lon="-111.514244" ele="1678.0"/><trkpt lat="37.777852" lon="-111.51439" ele="1679.0"/><trkpt lat="37.777927" lon="-111.51467" ele="1676.0"/><trkpt lat="37.777915" lon="-111.514886" ele="1679.0"/><trkpt lat="37.777913" lon="-111.515182" ele="1690.0"/><trkpt lat="37.777851" lon="-111.515368" ele="1699.0"/><trkpt lat="37.77778" lon="-111.515518" ele="1707.0"/><trkpt lat="37.777804" lon="-111.515614" ele="1711.0"/><trkpt lat="37.777699" lon="-111.515903" ele="1724.0"/><trkpt lat="37.777631" lon="-111.516159" ele="1728.0"/><trkpt lat="37.777617" lon="-111.516275" ele="1729.0"/><trkpt lat="37.77766" lon="-111.51632" ele="1729.0"/><trkpt lat="37.777617" lon="-111.516536" ele="1728.0"/><trkpt lat="37.777645" lon="-111.516725" ele="1723.0"/><trkpt lat="37.777712" lon="-111.516777" ele="1716.0"/><trkpt lat="37.777858" lon="-111.516886" ele="1707.0"/><trkpt lat="37.777994" lon="-111.51708" ele="1694.0"/><trkpt lat="37.778118" lon="-111.517285" ele="1687.0"/><trkpt lat="37.778172" lon="-111.517483" ele="1680.0"/><trkpt lat="37.778178" lon="-111.517919" ele="1678.0"/><trkpt lat="37.778086" lon="-111.518279" ele="1667.0"/><trkpt lat="37.777929" lon="-111.518566" ele="1663.0"/><trkpt lat="37.77788" lon="-111.518729" ele="1661.0"/><trkpt lat="37.777882" lon="-111.518859" ele="1660.0"/><trkpt lat="37.777884" lon="-111.518923" ele="1660.0"/><trkpt lat="37.777886" lon="-111.519026" ele="1662.0"/><trkpt lat="37.777823" lon="-111.519121" ele="1660.0"/><trkpt lat="37.777809" lon="-111.519268" ele="1661.0"/><trkpt lat="37.77779" lon="-111.519406" ele="1663.0"/><trkpt lat="37.77772" lon="-111.519615" ele="1666.0"/><trkpt lat="37.777677" lon="-111.519803" ele="1667.0"/><trkpt lat="37.777626" lon="-111.519945" ele="1666.0"/><trkpt lat="37.777574" lon="-111.520169" ele="1665.0"/><trkpt lat="37.777586" lon="-111.520293" ele="1664.0"/><trkpt lat="37.777605" lon="-111.520524" ele="1662.0"/><trkpt lat="37.777759" lon="-111.520758" ele="1660.0"/><trkpt lat="37.777945" lon="-111.52112" ele="1662.0"/><trkpt lat="37.778178" lon="-111.521396" ele="1669.0"/><trkpt lat="37.77837" lon="-111.521728" ele="1665.0"/><trkpt lat="37.778639" lon="-111.522106" ele="1668.0"/><trkpt lat="37.778696" lon="-111.522285" ele="1672.0"/><trkpt lat="37.778764" lon="-111.522433" ele="1675.0"/><trkpt lat="37.778808" lon="-111.522544" ele="1677.0"/><trkpt lat="37.778901" lon="-111.522737" ele="1679.0"/><trkpt lat="37.778922" lon="-111.52278" ele="1681.0"/><trkpt lat="37.778781" lon="-111.523201" ele="1680.0"/><trkpt lat="37.778669" lon="-111.523415" ele="1682.0"/><trkpt lat="37.778513" lon="-111.523649" ele="1691.0"/><trkpt lat="37.778301" lon="-111.523863" ele="1702.0"/><trkpt lat="37.778235" lon="-111.52397" ele="1707.0"/><trkpt lat="37.77809" lon="-111.523985" ele="1716.0"/><trkpt lat="37.77801" lon="-111.524267" ele="1725.0"/><trkpt lat="37.777898" lon="-111.524442" ele="1727.0"/><trkpt lat="37.777814" lon="-111.524738" ele="1736.0"/><trkpt lat="37.777731" lon="-111.525046" ele="1740.0"/><trkpt lat="37.777659" lon="-111.525289" ele="1737.0"/><trkpt lat="37.777633" lon="-111.525442" ele="1740.0"/><trkpt lat="37.777613" lon="-111.525576" ele="1741.0"/><trkpt lat="37.777604" lon="-111.525699" ele="1742.0"/><trkpt lat="37.777615" lon="-111.525828" ele="1741.0"/><trkpt lat="37.777674" lon="-111.52597" ele="1740.0"/><trkpt lat="37.777823" lon="-111.526078" ele="1735.0"/><trkpt lat="37.777895" lon="-111.526239" ele="1742.0"/><trkpt lat="37.777986" lon="-111.526333" ele="1743.0"/><trkpt lat="37.778081" lon="-111.526412" ele="1745.0"/><trkpt lat="37.77827" lon="-111.526435" ele="1747.0"/><trkpt lat="37.778594" lon="-111.526547" ele="1752.0"/><trkpt lat="37.778751" lon="-111.526652" ele="1757.0"/><trkpt lat="37.778827" lon="-111.52676" ele="1760.0"/><trkpt lat="37.77885" lon="-111.526937" ele="1763.0"/><trkpt lat="37.778867" lon="-111.527055" ele="1762.0"/><trkpt lat="37.778852" lon="-111.527229" ele="1761.0"/><trkpt lat="37.778859" lon="-111.527468" ele="1761.0"/><trkpt lat="37.778867" lon="-111.527801" ele="1747.0"/><trkpt lat="37.778826" lon="-111.528053" ele="1759.0"/><trkpt lat="37.778837" lon="-111.528354" ele="1776.0"/><trkpt lat="37.778745" lon="-111.528585" ele="1778.0"/><trkpt lat="37.778668" lon="-111.529085" ele="1767.0"/><trkpt lat="37.778575" lon="-111.529508" ele="1773.0"/><trkpt lat="37.778542" lon="-111.529777" ele="1776.0"/><trkpt lat="37.778509" lon="-111.529955" ele="1775.0"/><trkpt lat="37.778557" lon="-111.530104" ele="1776.0"/><trkpt lat="37.778603" lon="-111.530244" ele="1776.0"/><trkpt lat="37.778628" lon="-111.530333" ele="1779.0"/><trkpt lat="37.778645" lon="-111.530464" ele="1787.0"/><trkpt lat="37.778725" lon="-111.53061" ele="1791.0"/><trkpt lat="37.778817" lon="-111.530675" ele="1790.0"/><trkpt lat="37.779033" lon="-111.53075" ele="1783.0"/><trkpt lat="37.779085" lon="-111.53078" ele="1780.0"/><trkpt lat="37.779158" lon="-111.530738" ele="1777.0"/><trkpt lat="37.779356" lon="-111.530862" ele="1776.0"/><trkpt lat="37.779528" lon="-111.53112" ele="1778.0"/><trkpt lat="37.779554" lon="-111.53126" ele="1778.0"/><trkpt lat="37.77957" lon="-111.531399" ele="1778.0"/><trkpt lat="37.7796" lon="-111.531538" ele="1777.0"/><trkpt lat="37.779654" lon="-111.53168" ele="1774.0"/><trkpt lat="37.779651" lon="-111.531861" ele="1774.0"/><trkpt lat="37.779692" lon="-111.532018" ele="1775.0"/><trkpt lat="37.779733" lon="-111.532101" ele="1777.0"/><trkpt lat="37.779803" lon="-111.532208" ele="1780.0"/><trkpt lat="37.779912" lon="-111.532374" ele="1788.0"/><trkpt lat="37.780038" lon="-111.532552" ele="1798.0"/><trkpt lat="37.780116" lon="-111.532687" ele="1804.0"/><trkpt lat="37.780405" lon="-111.532772" ele="1818.0"/><trkpt lat="37.780464" lon="-111.532896" ele="1830.0"/><trkpt lat="37.780698" lon="-111.532975" ele="1842.0"/><trkpt lat="37.780869" lon="-111.532966" ele="1848.0"/><trkpt lat="37.781068" lon="-111.532769" ele="1840.0"/><trkpt lat="37.781139" lon="-111.532795" ele="1847.0"/><trkpt lat="37.781205" lon="-111.532881" ele="1864.0"/><trkpt lat="37.78133" lon="-111.53312" ele="1886.0"/><trkpt lat="37.781337" lon="-111.533631" ele="1891.0"/><trkpt lat="37.781302" lon="-111.533721" ele="1890.0"/><trkpt lat="37.781309" lon="-111.533909" ele="1888.0"/><trkpt lat="37.781281" lon="-111.534116" ele="1887.0"/><trkpt lat="37.781218" lon="-111.534556" ele="1884.0"/><trkpt lat="37.781127" lon="-111.535106" ele="1877.0"/><trkpt lat="37.78111" lon="-111.535441" ele="1862.0"/><trkpt lat="37.781047" lon="-111.535719" ele="1861.0"/><trkpt lat="37.780901" lon="-111.535885" ele="1860.0"/><trkpt lat="37.780877" lon="-111.53611" ele="1862.0"/><trkpt lat="37.78087" lon="-111.53618" ele="1861.0"/><trkpt lat="37.780878" lon="-111.536288" ele="1860.0"/><trkpt lat="37.780755" lon="-111.53659" ele="1862.0"/><trkpt lat="37.780711" lon="-111.536825" ele="1862.0"/><trkpt lat="37.780784" lon="-111.537133" ele="1854.0"/><trkpt lat="37.780557" lon="-111.537484" ele="1842.0"/><trkpt lat="37.780317" lon="-111.537696" ele="1811.0"/><trkpt lat="37.780132" lon="-111.538202" ele="1794.0"/><trkpt lat="37.780155" lon="-111.538502" ele="1783.0"/><trkpt lat="37.780101" lon="-111.538555" ele="1783.0"/><trkpt lat="37.780059" lon="-111.538635" ele="1780.0"/><trkpt lat="37.780201" lon="-111.539596" ele="1758.0"/><trkpt lat="37.78013" lon="-111.540027" ele="1754.0"/><trkpt lat="37.780038" lon="-111.540171" ele="1753.0"/><trkpt lat="37.779839" lon="-111.540305" ele="1754.0"/><trkpt lat="37.779759" lon="-111.540428" ele="1751.0"/><trkpt lat="37.779747" lon="-111.540566" ele="1746.0"/><trkpt lat="37.77969" lon="-111.540638" ele="1746.0"/><trkpt lat="37.779371" lon="-111.540762" ele="1745.0"/><trkpt lat="37.779045" lon="-111.540988" ele="1740.0"/><trkpt lat="37.778867" lon="-111.541378" ele="1695.0"/><trkpt lat="37.778903" lon="-111.541576" ele="1689.0"/><trkpt lat="37.778996" lon="-111.541734" ele="1693.0"/><trkpt lat="37.779098" lon="-111.541954" ele="1689.0"/><trkpt lat="37.779185" lon="-111.542167" ele="1686.0"/><trkpt lat="37.779348" lon="-111.542245" ele="1687.0"/><trkpt lat="37.779352" lon="-111.542433" ele="1685.0"/><trkpt lat="37.779398" lon="-111.542667" ele="1681.0"/><trkpt lat="37.779523" lon="-111.54292" ele="1679.0"/><trkpt lat="37.779516" lon="-111.543082" ele="1680.0"/><trkpt lat="37.779508" lon="-111.543281" ele="1685.0"/><trkpt lat="37.779585" lon="-111.543503" ele="1696.0"/><trkpt lat="37.77972" lon="-111.543875" ele="1681.0"/><trkpt lat="37.779761" lon="-111.544006" ele="1684.0"/><trkpt lat="37.779761" lon="-111.544114" ele="1684.0"/><trkpt lat="37.779741" lon="-111.544348" ele="1706.0"/><trkpt lat="37.779724" lon="-111.544572" ele="1719.0"/><trkpt lat="37.779759" lon="-111.544797" ele="1727.0"/><trkpt lat="37.779681" lon="-111.544992" ele="1736.0"/><trkpt lat="37.779603" lon="-111.545168" ele="1739.0"/><trkpt lat="37.779514" lon="-111.545351" ele="1736.0"/><trkpt lat="37.779348" lon="-111.54559" ele="1740.0"/><trkpt lat="37.779219" lon="-111.545791" ele="1738.0"/><trkpt lat="37.77905" lon="-111.545919" ele="1735.0"/><trkpt lat="37.778901" lon="-111.54598" ele="1731.0"/><trkpt lat="37.778808" lon="-111.546029" ele="1725.0"/><trkpt lat="37.778526" lon="-111.546126" ele="1708.0"/><trkpt lat="37.778441" lon="-111.546306" ele="1706.0"/><trkpt lat="37.778277" lon="-111.546396" ele="1706.0"/><trkpt lat="37.777862" lon="-111.546325" ele="1710.0"/><trkpt lat="37.777687" lon="-111.54637" ele="1715.0"/><trkpt lat="37.777534" lon="-111.546586" ele="1703.0"/><trkpt lat="37.777501" lon="-111.54674" ele="1694.0"/><trkpt lat="37.777572" lon="-111.546953" ele="1693.0"/><trkpt lat="37.777641" lon="-111.547127" ele="1692.0"/><trkpt lat="37.777965" lon="-111.547619" ele="1690.0"/><trkpt lat="37.778136" lon="-111.54784" ele="1688.0"/><trkpt lat="37.778403" lon="-111.548103" ele="1684.0"/><trkpt lat="37.778492" lon="-111.548309" ele="1687.0"/><trkpt lat="37.778646" lon="-111.548511" ele="1689.0"/><trkpt lat="37.778833" lon="-111.548836" ele="1692.0"/><trkpt lat="37.779003" lon="-111.548953" ele="1695.0"/><trkpt lat="37.779407" lon="-111.549205" ele="1693.0"/><trkpt lat="37.780125" lon="-111.549248" ele="1691.0"/><trkpt lat="37.780425" lon="-111.549366" ele="1693.0"/><trkpt lat="37.780694" lon="-111.549729" ele="1691.0"/><trkpt lat="37.780782" lon="-111.550017" ele="1697.0"/><trkpt lat="37.780849" lon="-111.550392" ele="1704.0"/><trkpt lat="37.781015" lon="-111.550896" ele="1708.0"/><trkpt lat="37.781072" lon="-111.55116" ele="1710.0"/><trkpt lat="37.781146" lon="-111.551449" ele="1713.0"/><trkpt lat="37.781177" lon="-111.551655" ele="1717.0"/><trkpt lat="37.781145" lon="-111.551943" ele="1724.0"/><trkpt lat="37.78124" lon="-111.552234" ele="1726.0"/><trkpt lat="37.781383" lon="-111.552634" ele="1726.0"/><trkpt lat="37.781424" lon="-111.552968" ele="1731.0"/><trkpt lat="37.781308" lon="-111.553269" ele="1730.0"/><trkpt lat="37.781188" lon="-111.553507" ele="1735.0"/><trkpt lat="37.781076" lon="-111.553607" ele="1738.0"/><trkpt lat="37.780954" lon="-111.553684" ele="1735.0"/><trkpt lat="37.780691" lon="-111.553719" ele="1734.0"/><trkpt lat="37.780536" lon="-111.553708" ele="1736.0"/><trkpt lat="37.780424" lon="-111.553677" ele="1738.0"/><trkpt lat="37.780208" lon="-111.553642" ele="1745.0"/><trkpt lat="37.779975" lon="-111.553566" ele="1764.0"/><trkpt lat="37.779805" lon="-111.553522" ele="1775.0"/><trkpt lat="37.77968" lon="-111.553518" ele="1783.0"/><trkpt lat="37.779543" lon="-111.55354" ele="1790.0"/><trkpt lat="37.779349" lon="-111.553565" ele="1802.0"/><trkpt lat="37.779172" lon="-111.553726" ele="1809.0"/><trkpt lat="37.779044" lon="-111.554244" ele="1806.0"/><trkpt lat="37.778999" lon="-111.554587" ele="1801.0"/><trkpt lat="37.778975" lon="-111.55496" ele="1802.0"/><trkpt lat="37.778987" lon="-111.555056" ele="1799.0"/><trkpt lat="37.779009" lon="-111.555268" ele="1791.0"/><trkpt lat="37.779108" lon="-111.555541" ele="1773.0"/><trkpt lat="37.779138" lon="-111.555643" ele="1771.0"/><trkpt lat="37.779186" lon="-111.555738" ele="1769.0"/><trkpt lat="37.779387" lon="-111.556076" ele="1759.0"/><trkpt lat="37.779528" lon="-111.556357" ele="1748.0"/><trkpt lat="37.779658" lon="-111.556453" ele="1740.0"/><trkpt lat="37.779866" lon="-111.556548" ele="1736.0"/><trkpt lat="37.779971" lon="-111.556516" ele="1734.0"/><trkpt lat="37.780037" lon="-111.556559" ele="1734.0"/><trkpt lat="37.780186" lon="-111.55661" ele="1733.0"/><trkpt lat="37.780263" lon="-111.556576" ele="1732.0"/><trkpt lat="37.780363" lon="-111.556555" ele="1731.0"/><trkpt lat="37.780482" lon="-111.556566" ele="1728.0"/><trkpt lat="37.780611" lon="-111.556602" ele="1726.0"/><trkpt lat="37.780684" lon="-111.556615" ele="1724.0"/><trkpt lat="37.780759" lon="-111.556656" ele="1722.0"/><trkpt lat="37.78091" lon="-111.556736" ele="1720.0"/><trkpt lat="37.781018" lon="-111.556785" ele="1719.0"/><trkpt lat="37.781102" lon="-111.556854" ele="1718.0"/><trkpt lat="37.781274" lon="-111.556986" ele="1715.0"/><trkpt lat="37.781371" lon="-111.557104" ele="1715.0"/><trkpt lat="37.781558" lon="-111.557284" ele="1720.0"/><trkpt lat="37.781646" lon="-111.557463" ele="1720.0"/><trkpt lat="37.781669" lon="-111.557633" ele="1721.0"/><trkpt lat="37.781658" lon="-111.55781" ele="1721.0"/><trkpt lat="37.78165" lon="-111.557962" ele="1722.0"/><trkpt lat="37.781619" lon="-111.558093" ele="1722.0"/><trkpt lat="37.781576" lon="-111.558164" ele="1722.0"/><trkpt lat="37.781508" lon="-111.558218" ele="1722.0"/><trkpt lat="37.781283" lon="-111.558302" ele="1724.0"/><trkpt lat="37.781089" lon="-111.558376" ele="1729.0"/><trkpt lat="37.780823" lon="-111.558659" ele="1741.0"/><trkpt lat="37.780673" lon="-111.558829" ele="1752.0"/><trkpt lat="37.780578" lon="-111.5589" ele="1764.0"/><trkpt lat="37.780459" lon="-111.559022" ele="1774.0"/><trkpt lat="37.780321" lon="-111.559218" ele="1789.0"/><trkpt lat="37.780238" lon="-111.559481" ele="1795.0"/><trkpt lat="37.780097" lon="-111.559933" ele="1804.0"/><trkpt lat="37.780159" lon="-111.560298" ele="1800.0"/><trkpt lat="37.78021" lon="-111.560472" ele="1800.0"/><trkpt lat="37.780347" lon="-111.560668" ele="1799.0"/><trkpt lat="37.780646" lon="-111.560871" ele="1780.0"/><trkpt lat="37.780759" lon="-111.560912" ele="1771.0"/><trkpt lat="37.780952" lon="-111.560944" ele="1756.0"/><trkpt lat="37.781093" lon="-111.561006" ele="1746.0"/><trkpt lat="37.781182" lon="-111.561081" ele="1740.0"/><trkpt lat="37.78121" lon="-111.561169" ele="1741.0"/><trkpt lat="37.781299" lon="-111.561181" ele="1733.0"/><trkpt lat="37.781413" lon="-111.561211" ele="1724.0"/><trkpt lat="37.781574" lon="-111.561275" ele="1720.0"/><trkpt lat="37.78174" lon="-111.561373" ele="1716.0"/><trkpt lat="37.781936" lon="-111.561416" ele="1721.0"/><trkpt lat="37.782096" lon="-111.561507" ele="1725.0"/><trkpt lat="37.78228" lon="-111.561722" ele="1723.0"/><trkpt lat="37.782537" lon="-111.561904" ele="1717.0"/><trkpt lat="37.782657" lon="-111.561944" ele="1711.0"/><trkpt lat="37.782736" lon="-111.562033" ele="1708.0"/><trkpt lat="37.782776" lon="-111.562142" ele="1709.0"/><trkpt lat="37.782831" lon="-111.562332" ele="1707.0"/><trkpt lat="37.782791" lon="-111.562573" ele="1707.0"/><trkpt lat="37.782663" lon="-111.562801" ele="1715.0"/><trkpt lat="37.782558" lon="-111.562957" ele="1720.0"/><trkpt lat="37.782449" lon="-111.563153" ele="1727.0"/><trkpt lat="37.782431" lon="-111.563185" ele="1729.0"/><trkpt lat="37.782397" lon="-111.56324" ele="1731.0"/><trkpt lat="37.782367" lon="-111.563284" ele="1734.0"/><trkpt lat="37.782235" lon="-111.563338" ele="1745.0"/><trkpt lat="37.78186" lon="-111.563413" ele="1774.0"/><trkpt lat="37.781763" lon="-111.56343" ele="1781.0"/><trkpt lat="37.781663" lon="-111.56357" ele="1780.0"/><trkpt lat="37.781643" lon="-111.563729" ele="1777.0"/><trkpt lat="37.781594" lon="-111.563958" ele="1774.0"/><trkpt lat="37.781567" lon="-111.564132" ele="1773.0"/><trkpt lat="37.781544" lon="-111.564279" ele="1775.0"/><trkpt lat="37.781478" lon="-111.564377" ele="1780.0"/><trkpt lat="37.781235" lon="-111.564622" ele="1801.0"/><trkpt lat="37.781228" lon="-111.564769" ele="1802.0"/><trkpt lat="37.781245" lon="-111.564964" ele="1797.0"/><trkpt lat="37.781415" lon="-111.565377" ele="1794.0"/><trkpt lat="37.78152" lon="-111.565647" ele="1792.0"/><trkpt lat="37.781636" lon="-111.565775" ele="1786.0"/><trkpt lat="37.781724" lon="-111.565805" ele="1780.0"/><trkpt lat="37.782004" lon="-111.565912" ele="1753.0"/><trkpt lat="37.782347" lon="-111.566033" ele="1740.0"/><trkpt lat="37.782559" lon="-111.566186" ele="1737.0"/><trkpt lat="37.782769" lon="-111.566505" ele="1733.0"/><trkpt lat="37.782851" lon="-111.566745" ele="1736.0"/><trkpt lat="37.782887" lon="-111.566922" ele="1735.0"/><trkpt lat="37.782949" lon="-111.567201" ele="1736.0"/><trkpt lat="37.782992" lon="-111.567839" ele="1739.0"/><trkpt lat="37.782935" lon="-111.568104" ele="1735.0"/><trkpt lat="37.782793" lon="-111.568218" ele="1730.0"/><trkpt lat="37.782706" lon="-111.568252" ele="1727.0"/><trkpt lat="37.78265" lon="-111.568306" ele="1726.0"/><trkpt lat="37.782527" lon="-111.568281" ele="1723.0"/><trkpt lat="37.782408" lon="-111.568228" ele="1724.0"/><trkpt lat="37.782311" lon="-111.568216" ele="1725.0"/><trkpt lat="37.782237" lon="-111.568299" ele="1725.0"/><trkpt lat="37.782175" lon="-111.568336" ele="1725.0"/><trkpt lat="37.782072" lon="-111.568373" ele="1726.0"/><trkpt lat="37.781949" lon="-111.568367" ele="1727.0"/><trkpt lat="37.781795" lon="-111.568262" ele="1736.0"/><trkpt lat="37.781521" lon="-111.568053" ele="1750.0"/><trkpt lat="37.781271" lon="-111.567878" ele="1781.0"/><trkpt lat="37.78118" lon="-111.567816" ele="1796.0"/><trkpt lat="37.780997" lon="-111.567848" ele="1811.0"/><trkpt lat="37.780727" lon="-111.567875" ele="1829.0"/><trkpt lat="37.780556" lon="-111.568127" ele="1822.0"/><trkpt lat="37.780421" lon="-111.568216" ele="1823.0"/><trkpt lat="37.780341" lon="-111.568278" ele="1823.0"/><trkpt lat="37.780288" lon="-111.568396" ele="1818.0"/><trkpt lat="37.780304" lon="-111.568569" ele="1805.0"/><trkpt lat="37.780376" lon="-111.568694" ele="1802.0"/><trkpt lat="37.78044" lon="-111.568772" ele="1800.0"/><trkpt lat="37.780522" lon="-111.568842" ele="1796.0"/><trkpt lat="37.780691" lon="-111.568944" ele="1783.0"/><trkpt lat="37.780911" lon="-111.569037" ele="1773.0"/><trkpt lat="37.781085" lon="-111.569009" ele="1762.0"/><trkpt lat="37.781207" lon="-111.569096" ele="1755.0"/><trkpt lat="37.781417" lon="-111.569198" ele="1749.0"/><trkpt lat="37.781598" lon="-111.569323" ele="1749.0"/><trkpt lat="37.781974" lon="-111.569721" ele="1751.0"/><trkpt lat="37.782183" lon="-111.570062" ele="1752.0"/><trkpt lat="37.782282" lon="-111.570287" ele="1749.0"/><trkpt lat="37.782296" lon="-111.570606" ele="1739.0"/><trkpt lat="37.782232" lon="-111.570776" ele="1740.0"/><trkpt lat="37.782147" lon="-111.570839" ele="1739.0"/><trkpt lat="37.781994" lon="-111.571053" ele="1727.0"/><trkpt lat="37.781951" lon="-111.571114" ele="1722.0"/><trkpt lat="37.781822" lon="-111.571155" ele="1723.0"/><trkpt lat="37.781479" lon="-111.571121" ele="1734.0"/><trkpt lat="37.781243" lon="-111.57125" ele="1735.0"/><trkpt lat="37.781143" lon="-111.571377" ele="1737.0"/><trkpt lat="37.78112" lon="-111.571509" ele="1737.0"/><trkpt lat="37.781133" lon="-111.571771" ele="1733.0"/><trkpt lat="37.78111" lon="-111.572196" ele="1727.0"/><trkpt lat="37.781106" lon="-111.572242" ele="1727.0"/><trkpt lat="37.781117" lon="-111.572303" ele="1728.0"/><trkpt lat="37.781135" lon="-111.572376" ele="1729.0"/><trkpt lat="37.781146" lon="-111.572469" ele="1729.0"/><trkpt lat="37.781312" lon="-111.572845" ele="1729.0"/><trkpt lat="37.781466" lon="-111.573675" ele="1731.0"/><trkpt lat="37.781454" lon="-111.573967" ele="1733.0"/><trkpt lat="37.781387" lon="-111.574217" ele="1731.0"/><trkpt lat="37.78132" lon="-111.574379" ele="1733.0"/><trkpt lat="37.781238" lon="-111.574576" ele="1736.0"/><trkpt lat="37.78106" lon="-111.574558" ele="1736.0"/><trkpt lat="37.78094" lon="-111.574361" ele="1735.0"/><trkpt lat="37.780451" lon="-111.574192" ele="1734.0"/><trkpt lat="37.78018" lon="-111.574226" ele="1734.0"/><trkpt lat="37.780109" lon="-111.574215" ele="1735.0"/><trkpt lat="37.78005" lon="-111.574166" ele="1734.0"/><trkpt lat="37.780002" lon="-111.574141" ele="1735.0"/><trkpt lat="37.779922" lon="-111.574285" ele="1737.0"/><trkpt lat="37.779872" lon="-111.574484" ele="1738.0"/><trkpt lat="37.779681" lon="-111.574743" ele="1738.0"/><trkpt lat="37.779607" lon="-111.574729" ele="1738.0"/><trkpt lat="37.779527" lon="-111.57472" ele="1738.0"/><trkpt lat="37.779318" lon="-111.574744" ele="1737.0"/><trkpt lat="37.779207" lon="-111.574756" ele="1737.0"/><trkpt lat="37.779022" lon="-111.574674" ele="1734.0"/><trkpt lat="37.778966" lon="-111.574639" ele="1733.0"/><trkpt lat="37.778767" lon="-111.574495" ele="1733.0"/><trkpt lat="37.778426" lon="-111.574477" ele="1735.0"/><trkpt lat="37.778308" lon="-111.574472" ele="1737.0"/><trkpt lat="37.778178" lon="-111.574477" ele="1740.0"/><trkpt lat="37.778029" lon="-111.574501" ele="1744.0"/><trkpt lat="37.777923" lon="-111.57451" ele="1748.0"/><trkpt lat="37.777749" lon="-111.574607" ele="1749.0"/><trkpt lat="37.777692" lon="-111.574929" ele="1739.0"/><trkpt lat="37.777658" lon="-111.57499" ele="1739.0"/><trkpt lat="37.777611" lon="-111.575073" ele="1739.0"/><trkpt lat="37.777589" lon="-111.575241" ele="1740.0"/><trkpt lat="37.777518" lon="-111.575349" ele="1742.0"/><trkpt lat="37.77751" lon="-111.575465" ele="1745.0"/><trkpt lat="37.777332" lon="-111.5757" ele="1747.0"/><trkpt lat="37.777063" lon="-111.576113" ele="1741.0"/><trkpt lat="37.777046" lon="-111.576939" ele="1752.0"/><trkpt lat="37.776914" lon="-111.577491" ele="1745.0"/><trkpt lat="37.776789" lon="-111.577589" ele="1745.0"/><trkpt lat="37.776737" lon="-111.57763" ele="1744.0"/><trkpt lat="37.776706" lon="-111.577644" ele="1744.0"/><trkpt lat="37.776675" lon="-111.577676" ele="1744.0"/><trkpt lat="37.776621" lon="-111.577778" ele="1745.0"/><trkpt lat="37.776617" lon="-111.577954" ele="1746.0"/><trkpt lat="37.776567" lon="-111.578179" ele="1746.0"/><trkpt lat="37.776473" lon="-111.578393" ele="1744.0"/><trkpt lat="37.776142" lon="-111.57836" ele="1745.0"/><trkpt lat="37.776055" lon="-111.578333" ele="1747.0"/><trkpt lat="37.775955" lon="-111.578364" ele="1747.0"/><trkpt lat="37.775833" lon="-111.578482" ele="1745.0"/><trkpt lat="37.775796" lon="-111.578508" ele="1745.0"/><trkpt lat="37.775484" lon="-111.578621" ele="1743.0"/><trkpt lat="37.77526" lon="-111.578578" ele="1744.0"/><trkpt lat="37.774898" lon="-111.578749" ele="1742.0"/><trkpt lat="37.774737" lon="-111.578814" ele="1743.0"/><trkpt lat="37.774599" lon="-111.578734" ele="1744.0"/><trkpt lat="37.774419" lon="-111.578934" ele="1741.0"/><trkpt lat="37.773952" lon="-111.578894" ele="1742.0"/><trkpt lat="37.773708" lon="-111.57898" ele="1742.0"/><trkpt lat="37.773467" lon="-111.579219" ele="1745.0"/><trkpt lat="37.773183" lon="-111.579664" ele="1747.0"/><trkpt lat="37.77299" lon="-111.579713" ele="1747.0"/><trkpt lat="37.772684" lon="-111.57963" ele="1749.0"/><trkpt lat="37.771826" lon="-111.579626" ele="1754.0"/><trkpt lat="37.771662" lon="-111.579557" ele="1755.0"/><trkpt lat="37.77154" lon="-111.57946" ele="1754.0"/><trkpt lat="37.771255" lon="-111.579345" ele="1756.0"/><trkpt lat="37.771025" lon="-111.579219" ele="1760.0"/><trkpt lat="37.770745" lon="-111.579028" ele="1762.0"/><trkpt lat="37.770418" lon="-111.578945" ele="1766.0"/><trkpt lat="37.770142" lon="-111.578728" ele="1764.0"/><trkpt lat="37.769835" lon="-111.578664" ele="1766.0"/><trkpt lat="37.769542" lon="-111.57853" ele="1768.0"/><trkpt lat="37.769217" lon="-111.578402" ele="1770.0"/><trkpt lat="37.769033" lon="-111.578358" ele="1771.0"/></trkseg></trk></gpx>