<?xml version="1.0" encoding="UTF-8"?>
<gpx creator="StravaGPX" version="1.1" xmlns="http://www.topografix.com/GPX/1/1" xmlns:xsi="http://www.w3.org/2001/XMLSchema-instance" xsi:schemaLocation="http://www.topografix.com/GPX/1/1 http://www.topografix.com/GPX/1/1/gpx.xsd">
 <metadata>
  <name>Evening Run</name>
  <author>
   <name>trevor h</name>
   <link href="https://www.strava.com/athletes/83085193"/>
  </author>
  <copyright author="OpenStreetMap contributors">
   <year>2020</year>
   <license>https://www.openstreetmap.org/copyright</license>
  </copyright>
  <link href="https://www.strava.com/routes/3498376480566568052"/>
 </metadata>
 <trk>
  <name>Evening Run</name>
  <link href="https://www.strava.com/routes/3498376480566568052"/>
  <type>running</type>
  <trkseg>
   <trkpt lat="40.76039" lon="-111.81925000000001">
    <ele>1549.2</ele>
   </trkpt>
   <trkpt lat="40.76042" lon="-111.81891">
    <ele>1555.0300000000002</ele>
   </trkpt>
   <trkpt lat="40.76048" lon="-111.81873">
    <ele>1556.4</ele>
   </trkpt>
   <trkpt lat="40.76034000000001" lon="-111.81852">
    <ele>1557.05</ele>
   </trkpt>
   <trkpt lat="40.76041" lon="-111.8182">
    <ele>1561.42</ele>
   </trkpt>
   <trkpt lat="40.76042" lon="-111.81807">
    <ele>1561.42</ele>
   </trkpt>
   <trkpt lat="40.76034000000001" lon="-111.81766">
    <ele>1566.0500000000002</ele>
   </trkpt>
   <trkpt lat="40.76037" lon="-111.81748">
    <ele>1570.1100000000001</ele>
   </trkpt>
   <trkpt lat="40.760470000000005" lon="-111.8173">
    <ele>1574.5600000000002</ele>
   </trkpt>
   <trkpt lat="40.760690000000004" lon="-111.81708">
    <ele>1579.7200000000003</ele>
   </trkpt>
   <trkpt lat="40.760720000000006" lon="-111.81703">
    <ele>1579.7200000000003</ele>
   </trkpt>
   <trkpt lat="40.760810000000006" lon="-111.81636">
    <ele>1589.08</ele>
   </trkpt>
   <trkpt lat="40.760870000000004" lon="-111.81618">
    <ele>1590.8600000000001</ele>
   </trkpt>
   <trkpt lat="40.76093" lon="-111.81609">
    <ele>1591.8700000000001</ele>
   </trkpt>
   <trkpt lat="40.761050000000004" lon="-111.81596">
    <ele>1595.94</ele>
   </trkpt>
   <trkpt lat="40.761230000000005" lon="-111.81587">
    <ele>1599.3000000000002</ele>
   </trkpt>
   <trkpt lat="40.761480000000006" lon="-111.81578">
    <ele>1606.38</ele>
   </trkpt>
   <trkpt lat="40.761630000000004" lon="-111.81551">
    <ele>1609.15</ele>
   </trkpt>
   <trkpt lat="40.76176" lon="-111.81490000000001">
    <ele>1616.72</ele>
   </trkpt>
   <trkpt lat="40.76205" lon="-111.81439">
    <ele>1628.5</ele>
   </trkpt>
   <trkpt lat="40.76209" lon="-111.81418000000001">
    <ele>1630.44</ele>
   </trkpt>
   <trkpt lat="40.76207" lon="-111.81345">
    <ele>1644.7800000000002</ele>
   </trkpt>
   <trkpt lat="40.76203" lon="-111.81323">
    <ele>1647.97</ele>
   </trkpt>
   <trkpt lat="40.76193000000001" lon="-111.81287">
    <ele>1652.8200000000002</ele>
   </trkpt>
   <trkpt lat="40.76184000000001" lon="-111.81265">
    <ele>1658.44</ele>
   </trkpt>
   <trkpt lat="40.761630000000004" lon="-111.81224">
    <ele>1666.63</ele>
   </trkpt>
   <trkpt lat="40.76151" lon="-111.81212000000001">
    <ele>1670.5900000000001</ele>
   </trkpt>
   <trkpt lat="40.76146000000001" lon="-111.81199000000001">
    <ele>1670.5900000000001</ele>
   </trkpt>
   <trkpt lat="40.76146000000001" lon="-111.81184">
    <ele>1670.5900000000001</ele>
   </trkpt>
   <trkpt lat="40.76153" lon="-111.81166">
    <ele>1678.7900000000002</ele>
   </trkpt>
   <trkpt lat="40.7616" lon="-111.81153">
    <ele>1680.43</ele>
   </trkpt>
   <trkpt lat="40.761610000000005" lon="-111.81152000000002">
    <ele>1680.43</ele>
   </trkpt>
   <trkpt lat="40.76173" lon="-111.81144">
    <ele>1683.51</ele>
   </trkpt>
   <trkpt lat="40.76185" lon="-111.8114">
    <ele>1686.39</ele>
   </trkpt>
   <trkpt lat="40.761950000000006" lon="-111.81144">
    <ele>1688.23</ele>
   </trkpt>
   <trkpt lat="40.76207" lon="-111.81135">
    <ele>1691.7000000000003</ele>
   </trkpt>
   <trkpt lat="40.76227" lon="-111.81127000000001">
    <ele>1694.3700000000001</ele>
   </trkpt>
   <trkpt lat="40.762420000000006" lon="-111.81114000000001">
    <ele>1699.7900000000002</ele>
   </trkpt>
   <trkpt lat="40.762570000000004" lon="-111.81108">
    <ele>1699.7900000000002</ele>
   </trkpt>
   <trkpt lat="40.76268" lon="-111.81109000000001">
    <ele>1705.0500000000002</ele>
   </trkpt>
   <trkpt lat="40.76278000000001" lon="-111.81113">
    <ele>1705.96</ele>
   </trkpt>
   <trkpt lat="40.76297" lon="-111.8113">
    <ele>1710.9</ele>
   </trkpt>
   <trkpt lat="40.76312" lon="-111.81135">
    <ele>1714.0400000000002</ele>
   </trkpt>
   <trkpt lat="40.763270000000006" lon="-111.81148">
    <ele>1717.3200000000002</ele>
   </trkpt>
   <trkpt lat="40.76328" lon="-111.81162">
    <ele>1720.7</ele>
   </trkpt>
   <trkpt lat="40.76321" lon="-111.81175">
    <ele>1725.38</ele>
   </trkpt>
   <trkpt lat="40.763200000000005" lon="-111.8118">
    <ele>1725.38</ele>
   </trkpt>
   <trkpt lat="40.76323" lon="-111.81193">
    <ele>1728.4800000000002</ele>
   </trkpt>
   <trkpt lat="40.76332" lon="-111.81197">
    <ele>1731.14</ele>
   </trkpt>
   <trkpt lat="40.763400000000004" lon="-111.81197">
    <ele>1731.14</ele>
   </trkpt>
   <trkpt lat="40.76352000000001" lon="-111.81202">
    <ele>1734.16</ele>
   </trkpt>
   <trkpt lat="40.763650000000005" lon="-111.81206">
    <ele>1736.6500000000003</ele>
   </trkpt>
   <trkpt lat="40.76371" lon="-111.81197">
    <ele>1740.8000000000002</ele>
   </trkpt>
   <trkpt lat="40.76381000000001" lon="-111.81197">
    <ele>1744.7100000000003</ele>
   </trkpt>
   <trkpt lat="40.76389" lon="-111.81194">
    <ele>1745.8600000000001</ele>
   </trkpt>
   <trkpt lat="40.76391" lon="-111.81193">
    <ele>1746.73</ele>
   </trkpt>
   <trkpt lat="40.76413" lon="-111.81170000000002">
    <ele>1751.81</ele>
   </trkpt>
   <trkpt lat="40.764340000000004" lon="-111.81131">
    <ele>1759.33</ele>
   </trkpt>
   <trkpt lat="40.76442" lon="-111.81127000000001">
    <ele>1761.14</ele>
   </trkpt>
   <trkpt lat="40.76455" lon="-111.81114000000001">
    <ele>1763.1000000000001</ele>
   </trkpt>
   <trkpt lat="40.76475000000001" lon="-111.81099">
    <ele>1770.67</ele>
   </trkpt>
   <trkpt lat="40.765" lon="-111.81085">
    <ele>1772.79</ele>
   </trkpt>
   <trkpt lat="40.765150000000006" lon="-111.81068">
    <ele>1778.8000000000002</ele>
   </trkpt>
   <trkpt lat="40.7653" lon="-111.81059">
    <ele>1784.2900000000002</ele>
   </trkpt>
   <trkpt lat="40.76579" lon="-111.8105">
    <ele>1792.2000000000003</ele>
   </trkpt>
   <trkpt lat="40.766070000000006" lon="-111.8105">
    <ele>1799.3200000000002</ele>
   </trkpt>
   <trkpt lat="40.76624" lon="-111.81042000000001">
    <ele>1803.3500000000001</ele>
   </trkpt>
   <trkpt lat="40.766690000000004" lon="-111.81032">
    <ele>1812.5000000000002</ele>
   </trkpt>
   <trkpt lat="40.76671" lon="-111.81029000000001">
    <ele>1812.5000000000002</ele>
   </trkpt>
   <trkpt lat="40.76695" lon="-111.81021000000001">
    <ele>1818.96</ele>
   </trkpt>
   <trkpt lat="40.76699" lon="-111.81014">
    <ele>1820.39</ele>
   </trkpt>
   <trkpt lat="40.7676" lon="-111.80942">
    <ele>1834.8200000000002</ele>
   </trkpt>
   <trkpt lat="40.76806500081778" lon="-111.8089800030957">
    <ele>1846.8600000000001</ele>
   </trkpt>
   <trkpt lat="40.768530000000005" lon="-111.80854000000001">
    <ele>1858.2600000000002</ele>
   </trkpt>
   <trkpt lat="40.76856" lon="-111.80839">
    <ele>1859.7</ele>
   </trkpt>
   <trkpt lat="40.76928" lon="-111.80787000000001">
    <ele>1874.74</ele>
   </trkpt>
   <trkpt lat="40.76935" lon="-111.80772">
    <ele>1874.74</ele>
   </trkpt>
   <trkpt lat="40.76952" lon="-111.80772">
    <ele>1880.03</ele>
   </trkpt>
   <trkpt lat="40.77013" lon="-111.80736">
    <ele>1891.88</ele>
   </trkpt>
   <trkpt lat="40.77075000000001" lon="-111.80684000000001">
    <ele>1908.71</ele>
   </trkpt>
   <trkpt lat="40.77118" lon="-111.80656">
    <ele>1919.2600000000002</ele>
   </trkpt>
   <trkpt lat="40.77131000000001" lon="-111.80642">
    <ele>1923.7400000000002</ele>
   </trkpt>
   <trkpt lat="40.77160000000001" lon="-111.80616">
    <ele>1936.7500000000002</ele>
   </trkpt>
   <trkpt lat="40.7717" lon="-111.80615">
    <ele>1936.7500000000002</ele>
   </trkpt>
   <trkpt lat="40.77174" lon="-111.80606">
    <ele>1936.7500000000002</ele>
   </trkpt>
   <trkpt lat="40.77183" lon="-111.80602">
    <ele>1940.5800000000002</ele>
   </trkpt>
   <trkpt lat="40.77188" lon="-111.80593">
    <ele>1943.49</ele>
   </trkpt>
   <trkpt lat="40.77216000000001" lon="-111.80589">
    <ele>1952.73</ele>
   </trkpt>
   <trkpt lat="40.772270000000006" lon="-111.80598">
    <ele>1955.4300000000003</ele>
   </trkpt>
   <trkpt lat="40.77252" lon="-111.80597">
    <ele>1964.5700000000002</ele>
   </trkpt>
   <trkpt lat="40.77255" lon="-111.80590000000001">
    <ele>1964.5700000000002</ele>
   </trkpt>
   <trkpt lat="40.77262" lon="-111.80590000000001">
    <ele>1967.0100000000002</ele>
   </trkpt>
   <trkpt lat="40.772670000000005" lon="-111.80594">
    <ele>1969.3</ele>
   </trkpt>
   <trkpt lat="40.77272000000001" lon="-111.80588000000002">
    <ele>1970.39</ele>
   </trkpt>
   <trkpt lat="40.772870000000005" lon="-111.8058">
    <ele>1974.13</ele>
   </trkpt>
   <trkpt lat="40.773030000000006" lon="-111.80554000000001">
    <ele>1978.68</ele>
   </trkpt>
   <trkpt lat="40.77353" lon="-111.80536000000001">
    <ele>1990.8900000000003</ele>
   </trkpt>
   <trkpt lat="40.773970000000006" lon="-111.80502000000001">
    <ele>2000.0300000000002</ele>
   </trkpt>
   <trkpt lat="40.77402" lon="-111.80491">
    <ele>2001.4600000000003</ele>
   </trkpt>
   <trkpt lat="40.774100000000004" lon="-111.80481">
    <ele>2003.0400000000004</ele>
   </trkpt>
   <trkpt lat="40.77411" lon="-111.80480000000001">
    <ele>2004.6699999999998</ele>
   </trkpt>
   <trkpt lat="40.77412" lon="-111.80480000000001">
    <ele>2004.8000000000004</ele>
   </trkpt>
   <trkpt lat="40.77407" lon="-111.80472">
    <ele>2004.8000000000004</ele>
   </trkpt>
   <trkpt lat="40.774100000000004" lon="-111.80463">
    <ele>2011.6400000000003</ele>
   </trkpt>
   <trkpt lat="40.77402" lon="-111.80456000000001">
    <ele>2011.6400000000003</ele>
   </trkpt>
   <trkpt lat="40.774080000000005" lon="-111.8045">
    <ele>2014.25</ele>
   </trkpt>
   <trkpt lat="40.773950000000006" lon="-111.80433000000001">
    <ele>2019.14</ele>
   </trkpt>
   <trkpt lat="40.774060000000006" lon="-111.80418">
    <ele>2023.8300000000002</ele>
   </trkpt>
   <trkpt lat="40.773990000000005" lon="-111.80401">
    <ele>2026.1</ele>
   </trkpt>
   <trkpt lat="40.77366000000001" lon="-111.80369">
    <ele>2041.44</ele>
   </trkpt>
   <trkpt lat="40.773770000000006" lon="-111.80338">
    <ele>2049.36</ele>
   </trkpt>
   <trkpt lat="40.77347" lon="-111.80297000000002">
    <ele>2064.4</ele>
   </trkpt>
   <trkpt lat="40.77335" lon="-111.80294">
    <ele>2066.65</ele>
   </trkpt>
   <trkpt lat="40.773050000000005" lon="-111.8028">
    <ele>2076.01</ele>
   </trkpt>
   <trkpt lat="40.773010000000006" lon="-111.80262">
    <ele>2080.57</ele>
   </trkpt>
   <trkpt lat="40.7727" lon="-111.80248">
    <ele>2088.65</ele>
   </trkpt>
   <trkpt lat="40.77253" lon="-111.80253">
    <ele>2091.21</ele>
   </trkpt>
   <trkpt lat="40.772330000000004" lon="-111.8023">
    <ele>2095.46</ele>
   </trkpt>
   <trkpt lat="40.772270000000006" lon="-111.80217">
    <ele>2095.99</ele>
   </trkpt>
   <trkpt lat="40.77228" lon="-111.80208">
    <ele>2096.17</ele>
   </trkpt>
   <trkpt lat="40.772180000000006" lon="-111.80195">
    <ele>2097.14</ele>
   </trkpt>
   <trkpt lat="40.772110000000005" lon="-111.80176000000002">
    <ele>2100.27</ele>
   </trkpt>
   <trkpt lat="40.77201" lon="-111.80168">
    <ele>2104.4300000000003</ele>
   </trkpt>
   <trkpt lat="40.77159" lon="-111.80173">
    <ele>2111.6200000000003</ele>
   </trkpt>
   <trkpt lat="40.7714" lon="-111.80168">
    <ele>2113.92</ele>
   </trkpt>
   <trkpt lat="40.77121" lon="-111.80156000000001">
    <ele>2116.34</ele>
   </trkpt>
   <trkpt lat="40.771040000000006" lon="-111.80129000000001">
    <ele>2118.91</ele>
   </trkpt>
   <trkpt lat="40.77096" lon="-111.80102000000001">
    <ele>2122.65</ele>
   </trkpt>
   <trkpt lat="40.771" lon="-111.80087">
    <ele>2126.19</ele>
   </trkpt>
   <trkpt lat="40.770970000000005" lon="-111.80078">
    <ele>2128.39</ele>
   </trkpt>
   <trkpt lat="40.771040000000006" lon="-111.8006">
    <ele>2130.82</ele>
   </trkpt>
   <trkpt lat="40.77105" lon="-111.80044000000001">
    <ele>2132.1000000000004</ele>
   </trkpt>
   <trkpt lat="40.77112" lon="-111.80011">
    <ele>2133.86</ele>
   </trkpt>
   <trkpt lat="40.7712" lon="-111.80002">
    <ele>2134.73</ele>
   </trkpt>
   <trkpt lat="40.771190000000004" lon="-111.79989">
    <ele>2135.69</ele>
   </trkpt>
   <trkpt lat="40.771150000000006" lon="-111.79981000000001">
    <ele>2136.93</ele>
   </trkpt>
   <trkpt lat="40.771080000000005" lon="-111.79979000000002">
    <ele>2138.73</ele>
   </trkpt>
   <trkpt lat="40.77102" lon="-111.79949">
    <ele>2144.0</ele>
   </trkpt>
   <trkpt lat="40.771010000000004" lon="-111.79932000000001">
    <ele>2150.03</ele>
   </trkpt>
   <trkpt lat="40.770810000000004" lon="-111.79921">
    <ele>2157.76</ele>
   </trkpt>
   <trkpt lat="40.770830000000004" lon="-111.79899">
    <ele>2161.98</ele>
   </trkpt>
   <trkpt lat="40.77067" lon="-111.79860000000001">
    <ele>2168.75</ele>
   </trkpt>
   <trkpt lat="40.77065" lon="-111.79852000000001">
    <ele>2170.0600000000004</ele>
   </trkpt>
   <trkpt lat="40.77067" lon="-111.79863">
    <ele>2168.81</ele>
   </trkpt>
   <trkpt lat="40.770830000000004" lon="-111.79899">
    <ele>2161.98</ele>
   </trkpt>
   <trkpt lat="40.770810000000004" lon="-111.79921">
    <ele>2157.76</ele>
   </trkpt>
   <trkpt lat="40.771010000000004" lon="-111.79932000000001">
    <ele>2150.03</ele>
   </trkpt>
   <trkpt lat="40.77102" lon="-111.79949">
    <ele>2144.0</ele>
   </trkpt>
   <trkpt lat="40.771080000000005" lon="-111.79979000000002">
    <ele>2137.75</ele>
   </trkpt>
   <trkpt lat="40.771150000000006" lon="-111.79981000000001">
    <ele>2136.93</ele>
   </trkpt>
   <trkpt lat="40.771190000000004" lon="-111.79989">
    <ele>2135.69</ele>
   </trkpt>
   <trkpt lat="40.7712" lon="-111.80002">
    <ele>2134.73</ele>
   </trkpt>
   <trkpt lat="40.77112" lon="-111.80011">
    <ele>2133.86</ele>
   </trkpt>
   <trkpt lat="40.77105" lon="-111.80044000000001">
    <ele>2132.1000000000004</ele>
   </trkpt>
   <trkpt lat="40.771040000000006" lon="-111.8006">
    <ele>2130.82</ele>
   </trkpt>
   <trkpt lat="40.770970000000005" lon="-111.80078">
    <ele>2128.39</ele>
   </trkpt>
   <trkpt lat="40.771" lon="-111.80087">
    <ele>2126.19</ele>
   </trkpt>
   <trkpt lat="40.77096" lon="-111.80102000000001">
    <ele>2122.65</ele>
   </trkpt>
   <trkpt lat="40.77105" lon="-111.80130000000001">
    <ele>2118.8700000000003</ele>
   </trkpt>
   <trkpt lat="40.77121" lon="-111.80156000000001">
    <ele>2116.34</ele>
   </trkpt>
   <trkpt lat="40.7714" lon="-111.80168">
    <ele>2113.92</ele>
   </trkpt>
   <trkpt lat="40.77159" lon="-111.80173">
    <ele>2111.6200000000003</ele>
   </trkpt>
   <trkpt lat="40.77201" lon="-111.80168">
    <ele>2104.4300000000003</ele>
   </trkpt>
   <trkpt lat="40.772110000000005" lon="-111.80176000000002">
    <ele>2100.27</ele>
   </trkpt>
   <trkpt lat="40.772180000000006" lon="-111.80195">
    <ele>2097.14</ele>
   </trkpt>
   <trkpt lat="40.77228" lon="-111.80208">
    <ele>2096.17</ele>
   </trkpt>
   <trkpt lat="40.772270000000006" lon="-111.80217">
    <ele>2095.99</ele>
   </trkpt>
   <trkpt lat="40.772330000000004" lon="-111.8023">
    <ele>2095.46</ele>
   </trkpt>
   <trkpt lat="40.77253" lon="-111.80253">
    <ele>2091.21</ele>
   </trkpt>
   <trkpt lat="40.7727" lon="-111.80248">
    <ele>2088.65</ele>
   </trkpt>
   <trkpt lat="40.773010000000006" lon="-111.80262">
    <ele>2080.57</ele>
   </trkpt>
   <trkpt lat="40.773050000000005" lon="-111.8028">
    <ele>2076.01</ele>
   </trkpt>
   <trkpt lat="40.77335" lon="-111.80294">
    <ele>2066.65</ele>
   </trkpt>
   <trkpt lat="40.77347" lon="-111.80297000000002">
    <ele>2064.4</ele>
   </trkpt>
   <trkpt lat="40.773770000000006" lon="-111.80338">
    <ele>2049.36</ele>
   </trkpt>
   <trkpt lat="40.77366000000001" lon="-111.80369">
    <ele>2041.44</ele>
   </trkpt>
   <trkpt lat="40.773990000000005" lon="-111.80401">
    <ele>2026.1</ele>
   </trkpt>
   <trkpt lat="40.774060000000006" lon="-111.80418">
    <ele>2023.8300000000002</ele>
   </trkpt>
   <trkpt lat="40.773950000000006" lon="-111.80433000000001">
    <ele>2019.14</ele>
   </trkpt>
   <trkpt lat="40.774080000000005" lon="-111.8045">
    <ele>2014.25</ele>
   </trkpt>
   <trkpt lat="40.77402" lon="-111.80456000000001">
    <ele>2011.6400000000003</ele>
   </trkpt>
   <trkpt lat="40.774100000000004" lon="-111.80463">
    <ele>2007.4900000000002</ele>
   </trkpt>
   <trkpt lat="40.77407" lon="-111.80472">
    <ele>2007.4900000000002</ele>
   </trkpt>
   <trkpt lat="40.77412" lon="-111.80480000000001">
    <ele>2004.8000000000004</ele>
   </trkpt>
   <trkpt lat="40.774100000000004" lon="-111.80481">
    <ele>2004.8000000000004</ele>
   </trkpt>
   <trkpt lat="40.77402" lon="-111.80491">
    <ele>2002.2200000000003</ele>
   </trkpt>
   <trkpt lat="40.773970000000006" lon="-111.80502000000001">
    <ele>2000.0300000000002</ele>
   </trkpt>
   <trkpt lat="40.77353" lon="-111.80536000000001">
    <ele>1990.8900000000003</ele>
   </trkpt>
   <trkpt lat="40.773030000000006" lon="-111.80554000000001">
    <ele>1978.68</ele>
   </trkpt>
   <trkpt lat="40.772870000000005" lon="-111.8058">
    <ele>1974.9200000000003</ele>
   </trkpt>
   <trkpt lat="40.77272000000001" lon="-111.80588000000002">
    <ele>1971.42</ele>
   </trkpt>
   <trkpt lat="40.772670000000005" lon="-111.80594">
    <ele>1970.39</ele>
   </trkpt>
   <trkpt lat="40.77262" lon="-111.80590000000001">
    <ele>1969.3</ele>
   </trkpt>
   <trkpt lat="40.77255" lon="-111.80590000000001">
    <ele>1967.0100000000002</ele>
   </trkpt>
   <trkpt lat="40.77252" lon="-111.80597">
    <ele>1964.5700000000002</ele>
   </trkpt>
   <trkpt lat="40.772270000000006" lon="-111.80598">
    <ele>1959.2500000000002</ele>
   </trkpt>
   <trkpt lat="40.77216000000001" lon="-111.80589">
    <ele>1954.1100000000001</ele>
   </trkpt>
   <trkpt lat="40.77188" lon="-111.80593">
    <ele>1943.49</ele>
   </trkpt>
   <trkpt lat="40.77183" lon="-111.80602">
    <ele>1940.5800000000002</ele>
   </trkpt>
   <trkpt lat="40.77174" lon="-111.80606">
    <ele>1939.25</ele>
   </trkpt>
   <trkpt lat="40.7717" lon="-111.80615">
    <ele>1936.7500000000002</ele>
   </trkpt>
   <trkpt lat="40.77160000000001" lon="-111.80616">
    <ele>1936.7500000000002</ele>
   </trkpt>
   <trkpt lat="40.77131000000001" lon="-111.80642">
    <ele>1923.7400000000002</ele>
   </trkpt>
   <trkpt lat="40.77118" lon="-111.80656">
    <ele>1921.45</ele>
   </trkpt>
   <trkpt lat="40.77075000000001" lon="-111.80684000000001">
    <ele>1908.71</ele>
   </trkpt>
   <trkpt lat="40.77013" lon="-111.80736">
    <ele>1891.88</ele>
   </trkpt>
   <trkpt lat="40.76952" lon="-111.80772">
    <ele>1880.03</ele>
   </trkpt>
   <trkpt lat="40.76935" lon="-111.80772">
    <ele>1874.74</ele>
   </trkpt>
   <trkpt lat="40.76928" lon="-111.80787000000001">
    <ele>1874.74</ele>
   </trkpt>
   <trkpt lat="40.76856" lon="-111.80839">
    <ele>1859.7</ele>
   </trkpt>
   <trkpt lat="40.768530000000005" lon="-111.80854000000001">
    <ele>1858.2600000000002</ele>
   </trkpt>
   <trkpt lat="40.768065000853305" lon="-111.80898000306206">
    <ele>1846.8600000000001</ele>
   </trkpt>
   <trkpt lat="40.7676" lon="-111.80942">
    <ele>1834.8200000000002</ele>
   </trkpt>
   <trkpt lat="40.76699" lon="-111.81014">
    <ele>1820.39</ele>
   </trkpt>
   <trkpt lat="40.76695" lon="-111.81021000000001">
    <ele>1818.96</ele>
   </trkpt>
   <trkpt lat="40.76671" lon="-111.81029000000001">
    <ele>1815.5800000000002</ele>
   </trkpt>
   <trkpt lat="40.766690000000004" lon="-111.81032">
    <ele>1812.5000000000002</ele>
   </trkpt>
   <trkpt lat="40.76624" lon="-111.81042000000001">
    <ele>1803.3500000000001</ele>
   </trkpt>
   <trkpt lat="40.766070000000006" lon="-111.8105">
    <ele>1799.3200000000002</ele>
   </trkpt>
   <trkpt lat="40.76579" lon="-111.8105">
    <ele>1792.2000000000003</ele>
   </trkpt>
   <trkpt lat="40.7653" lon="-111.81059">
    <ele>1784.2900000000002</ele>
   </trkpt>
   <trkpt lat="40.765150000000006" lon="-111.81068">
    <ele>1781.6100000000001</ele>
   </trkpt>
   <trkpt lat="40.765" lon="-111.81085">
    <ele>1778.8000000000002</ele>
   </trkpt>
   <trkpt lat="40.76475000000001" lon="-111.81099">
    <ele>1770.67</ele>
   </trkpt>
   <trkpt lat="40.76455" lon="-111.81114000000001">
    <ele>1765.19</ele>
   </trkpt>
   <trkpt lat="40.76442" lon="-111.81127000000001">
    <ele>1761.14</ele>
   </trkpt>
   <trkpt lat="40.764340000000004" lon="-111.81131">
    <ele>1759.33</ele>
   </trkpt>
   <trkpt lat="40.76413" lon="-111.81170000000002">
    <ele>1752.6200000000001</ele>
   </trkpt>
   <trkpt lat="40.763920000000006" lon="-111.81192000000001">
    <ele>1747.8500000000001</ele>
   </trkpt>
   <trkpt lat="40.76390000000001" lon="-111.81194">
    <ele>1747.15</ele>
   </trkpt>
   <trkpt lat="40.76381000000001" lon="-111.81197">
    <ele>1744.7100000000003</ele>
   </trkpt>
   <trkpt lat="40.76371" lon="-111.81197">
    <ele>1740.8000000000002</ele>
   </trkpt>
   <trkpt lat="40.763650000000005" lon="-111.81206">
    <ele>1740.8000000000002</ele>
   </trkpt>
   <trkpt lat="40.76352000000001" lon="-111.81202">
    <ele>1735.3500000000001</ele>
   </trkpt>
   <trkpt lat="40.763400000000004" lon="-111.81197">
    <ele>1732.0700000000002</ele>
   </trkpt>
   <trkpt lat="40.76332" lon="-111.81197">
    <ele>1731.14</ele>
   </trkpt>
   <trkpt lat="40.76323" lon="-111.81193">
    <ele>1728.4800000000002</ele>
   </trkpt>
   <trkpt lat="40.763200000000005" lon="-111.8118">
    <ele>1726.4800000000002</ele>
   </trkpt>
   <trkpt lat="40.76321" lon="-111.81175">
    <ele>1725.38</ele>
   </trkpt>
   <trkpt lat="40.76328" lon="-111.81162">
    <ele>1720.7</ele>
   </trkpt>
   <trkpt lat="40.763270000000006" lon="-111.81148">
    <ele>1720.7</ele>
   </trkpt>
   <trkpt lat="40.76312" lon="-111.81135">
    <ele>1714.0400000000002</ele>
   </trkpt>
   <trkpt lat="40.76297" lon="-111.8113">
    <ele>1710.9</ele>
   </trkpt>
   <trkpt lat="40.76278000000001" lon="-111.81113">
    <ele>1705.96</ele>
   </trkpt>
   <trkpt lat="40.76268" lon="-111.81109000000001">
    <ele>1705.0500000000002</ele>
   </trkpt>
   <trkpt lat="40.762570000000004" lon="-111.81108">
    <ele>1699.7900000000002</ele>
   </trkpt>
   <trkpt lat="40.762420000000006" lon="-111.81114000000001">
    <ele>1699.7900000000002</ele>
   </trkpt>
   <trkpt lat="40.76227" lon="-111.81127000000001">
    <ele>1694.3700000000001</ele>
   </trkpt>
   <trkpt lat="40.76207" lon="-111.81135">
    <ele>1691.7000000000003</ele>
   </trkpt>
   <trkpt lat="40.761950000000006" lon="-111.81144">
    <ele>1688.23</ele>
   </trkpt>
   <trkpt lat="40.76185" lon="-111.8114">
    <ele>1686.39</ele>
   </trkpt>
   <trkpt lat="40.76173" lon="-111.81144">
    <ele>1683.51</ele>
   </trkpt>
   <trkpt lat="40.761610000000005" lon="-111.81152000000002">
    <ele>1680.5</ele>
   </trkpt>
   <trkpt lat="40.7616" lon="-111.81153">
    <ele>1680.5</ele>
   </trkpt>
   <trkpt lat="40.76153" lon="-111.81166">
    <ele>1678.7900000000002</ele>
   </trkpt>
   <trkpt lat="40.76146000000001" lon="-111.81184">
    <ele>1670.5900000000001</ele>
   </trkpt>
   <trkpt lat="40.76146000000001" lon="-111.81199000000001">
    <ele>1670.5900000000001</ele>
   </trkpt>
   <trkpt lat="40.76151" lon="-111.81212000000001">
    <ele>1670.5900000000001</ele>
   </trkpt>
   <trkpt lat="40.761630000000004" lon="-111.81224">
    <ele>1666.63</ele>
   </trkpt>
   <trkpt lat="40.76184000000001" lon="-111.81265">
    <ele>1658.44</ele>
   </trkpt>
   <trkpt lat="40.76193000000001" lon="-111.81287">
    <ele>1655.68</ele>
   </trkpt>
   <trkpt lat="40.76203" lon="-111.81323">
    <ele>1647.97</ele>
   </trkpt>
   <trkpt lat="40.76207" lon="-111.81345">
    <ele>1644.7800000000002</ele>
   </trkpt>
   <trkpt lat="40.76209" lon="-111.81418000000001">
    <ele>1630.44</ele>
   </trkpt>
   <trkpt lat="40.76205" lon="-111.81439">
    <ele>1628.5</ele>
   </trkpt>
   <trkpt lat="40.76176" lon="-111.81490000000001">
    <ele>1616.72</ele>
   </trkpt>
   <trkpt lat="40.761630000000004" lon="-111.81551">
    <ele>1609.15</ele>
   </trkpt>
   <trkpt lat="40.761480000000006" lon="-111.81578">
    <ele>1606.38</ele>
   </trkpt>
   <trkpt lat="40.761230000000005" lon="-111.81587">
    <ele>1599.3000000000002</ele>
   </trkpt>
   <trkpt lat="40.761050000000004" lon="-111.81596">
    <ele>1596.8000000000002</ele>
   </trkpt>
   <trkpt lat="40.76093" lon="-111.81609">
    <ele>1594.0100000000002</ele>
   </trkpt>
   <trkpt lat="40.760870000000004" lon="-111.81618">
    <ele>1590.8600000000001</ele>
   </trkpt>
   <trkpt lat="40.760810000000006" lon="-111.81636">
    <ele>1589.08</ele>
   </trkpt>
   <trkpt lat="40.760720000000006" lon="-111.81703">
    <ele>1579.7200000000003</ele>
   </trkpt>
   <trkpt lat="40.760690000000004" lon="-111.81708">
    <ele>1579.7200000000003</ele>
   </trkpt>
   <trkpt lat="40.760470000000005" lon="-111.8173">
    <ele>1574.5600000000002</ele>
   </trkpt>
   <trkpt lat="40.76037" lon="-111.81748">
    <ele>1570.1100000000001</ele>
   </trkpt>
   <trkpt lat="40.76034000000001" lon="-111.81766">
    <ele>1566.0500000000002</ele>
   </trkpt>
   <trkpt lat="40.76042" lon="-111.81807">
    <ele>1561.42</ele>
   </trkpt>
   <trkpt lat="40.76041" lon="-111.8182">
    <ele>1561.42</ele>
   </trkpt>
   <trkpt lat="40.76034000000001" lon="-111.81852">
    <ele>1557.05</ele>
   </trkpt>
   <trkpt lat="40.76048" lon="-111.81873">
    <ele>1556.4</ele>
   </trkpt>
   <trkpt lat="40.76042" lon="-111.81891">
    <ele>1555.0300000000002</ele>
   </trkpt>
   <trkpt lat="40.760400000000004" lon="-111.81906000000001">
    <ele>1551.73</ele>
   </trkpt>
  </trkseg>
 </trk>
</gpx>
