<?xml version="1.0" ?><gpx xmlns="http://www.topografix.com/GPX/1/1" creator="GaiaGPS" version="1.1" xmlns:xsi="http://www.w3.org/2001/XMLSchema-instance" xsi:schemaLocation="http://www.topografix.com/GPX/1/1 http://www.topografix.com/GPX/1/1/gpx.xsd"><trk><name>Muley Arch Loop via Upper Muley Twist Canyon Loop Trail and Upper Muley Twist Canyon Trail</name><type>knownroute</type><trkseg><trkpt lat="37.881698" lon="-111.046868" ele="1798.0"/><trkpt lat="37.881965" lon="-111.047005" ele="1801.0"/><trkpt lat="37.882469" lon="-111.047158" ele="1806.0"/><trkpt lat="37.882843" lon="-111.047371" ele="1807.0"/><trkpt lat="37.882961" lon="-111.047623" ele="1806.0"/><trkpt lat="37.883022" lon="-111.047898" ele="1805.0"/><trkpt lat="37.883396" lon="-111.048539" ele="1804.0"/><trkpt lat="37.883815" lon="-111.049096" ele="1800.0"/><trkpt lat="37.884716" lon="-111.04979" ele="1814.0"/><trkpt lat="37.884838" lon="-111.049805" ele="1815.0"/><trkpt lat="37.885208" lon="-111.049576" ele="1810.0"/><trkpt lat="37.885505" lon="-111.049515" ele="1808.0"/><trkpt lat="37.886192" lon="-111.050118" ele="1809.0"/><trkpt lat="37.887241" lon="-111.050568" ele="1817.0"/><trkpt lat="37.887523" lon="-111.050713" ele="1816.0"/><trkpt lat="37.887863" lon="-111.050843" ele="1817.0"/><trkpt lat="37.888061" lon="-111.050835" ele="1821.0"/><trkpt lat="37.888385" lon="-111.050896" ele="1826.0"/><trkpt lat="37.888614" lon="-111.050957" ele="1828.0"/><trkpt lat="37.888885" lon="-111.05111" ele="1834.0"/><trkpt lat="37.889255" lon="-111.051438" ele="1819.0"/><trkpt lat="37.889793" lon="-111.052117" ele="1814.0"/><trkpt lat="37.89154" lon="-111.053566" ele="1819.0"/><trkpt lat="37.891578" lon="-111.053597" ele="1820.0"/><trkpt lat="37.891632" lon="-111.053605" ele="1819.0"/><trkpt lat="37.891754" lon="-111.053536" ele="1818.0"/><trkpt lat="37.8922" lon="-111.053277" ele="1822.0"/><trkpt lat="37.892387" lon="-111.053231" ele="1827.0"/><trkpt lat="37.892608" lon="-111.053193" ele="1834.0"/><trkpt lat="37.89302" lon="-111.053299" ele="1838.0"/><trkpt lat="37.893318" lon="-111.053521" ele="1836.0"/><trkpt lat="37.893352" lon="-111.053551" ele="1836.0"/><trkpt lat="37.89347" lon="-111.053887" ele="1829.0"/><trkpt lat="37.893501" lon="-111.054017" ele="1826.0"/><trkpt lat="37.893501" lon="-111.054169" ele="1822.0"/><trkpt lat="37.893482" lon="-111.054505" ele="1825.0"/><trkpt lat="37.893463" lon="-111.054665" ele="1827.0"/><trkpt lat="37.893421" lon="-111.054841" ele="1830.0"/><trkpt lat="37.893497" lon="-111.054894" ele="1827.0"/><trkpt lat="37.893592" lon="-111.054909" ele="1823.0"/><trkpt lat="37.894077" lon="-111.054925" ele="1821.0"/><trkpt lat="37.894214" lon="-111.054917" ele="1823.0"/><trkpt lat="37.894508" lon="-111.054833" ele="1832.0"/><trkpt lat="37.894645" lon="-111.054795" ele="1838.0"/><trkpt lat="37.894763" lon="-111.054757" ele="1844.0"/><trkpt lat="37.894916" lon="-111.054787" ele="1848.0"/><trkpt lat="37.895042" lon="-111.054917" ele="1844.0"/><trkpt lat="37.895065" lon="-111.055024" ele="1838.0"/><trkpt lat="37.895088" lon="-111.055344" ele="1826.0"/><trkpt lat="37.895076" lon="-111.055489" ele="1824.0"/><trkpt lat="37.895095" lon="-111.055756" ele="1821.0"/><trkpt lat="37.895145" lon="-111.055909" ele="1820.0"/><trkpt lat="37.895229" lon="-111.056031" ele="1819.0"/><trkpt lat="37.895404" lon="-111.056183" ele="1820.0"/><trkpt lat="37.896644" lon="-111.056847" ele="1824.0"/><trkpt lat="37.896751" lon="-111.05687" ele="1825.0"/><trkpt lat="37.8968" lon="-111.056878" ele="1826.0"/><trkpt lat="37.89698" lon="-111.056786" ele="1828.0"/><trkpt lat="37.897064" lon="-111.056801" ele="1827.0"/><trkpt lat="37.897205" lon="-111.056931" ele="1823.0"/><trkpt lat="37.897243" lon="-111.057038" ele="1824.0"/><trkpt lat="37.897235" lon="-111.05716" ele="1825.0"/><trkpt lat="37.897258" lon="-111.057259" ele="1827.0"/><trkpt lat="37.897499" lon="-111.057541" ele="1831.0"/><trkpt lat="37.897594" lon="-111.057618" ele="1832.0"/><trkpt lat="37.897956" lon="-111.057808" ele="1830.0"/><trkpt lat="37.898609" lon="-111.057824" ele="1831.0"/><trkpt lat="37.898979" lon="-111.057862" ele="1834.0"/><trkpt lat="37.899257" lon="-111.058045" ele="1840.0"/><trkpt lat="37.8997" lon="-111.058381" ele="1856.0"/><trkpt lat="37.899799" lon="-111.058548" ele="1854.0"/><trkpt lat="37.899829" lon="-111.058785" ele="1849.0"/><trkpt lat="37.899787" lon="-111.058976" ele="1845.0"/><trkpt lat="37.899826" lon="-111.059197" ele="1843.0"/><trkpt lat="37.899967" lon="-111.059418" ele="1846.0"/><trkpt lat="37.900093" lon="-111.059578" ele="1846.0"/><trkpt lat="37.900337" lon="-111.059823" ele="1846.0"/><trkpt lat="37.900485" lon="-111.059845" ele="1847.0"/><trkpt lat="37.900611" lon="-111.059823" ele="1846.0"/><trkpt lat="37.900939" lon="-111.059723" ele="1844.0"/><trkpt lat="37.901084" lon="-111.059647" ele="1841.0"/><trkpt lat="37.901172" lon="-111.059617" ele="1841.0"/><trkpt lat="37.901245" lon="-111.059502" ele="1841.0"/><trkpt lat="37.901588" lon="-111.059426" ele="1841.0"/><trkpt lat="37.901859" lon="-111.059395" ele="1842.0"/><trkpt lat="37.901931" lon="-111.059441" ele="1842.0"/><trkpt lat="37.90221" lon="-111.059678" ele="1843.0"/><trkpt lat="37.902236" lon="-111.059723" ele="1843.0"/><trkpt lat="37.902267" lon="-111.059876" ele="1846.0"/><trkpt lat="37.902256" lon="-111.05999" ele="1848.0"/><trkpt lat="37.902202" lon="-111.060143" ele="1855.0"/><trkpt lat="37.902252" lon="-111.060212" ele="1858.0"/><trkpt lat="37.902359" lon="-111.060311" ele="1860.0"/><trkpt lat="37.902503" lon="-111.060318" ele="1856.0"/><trkpt lat="37.902629" lon="-111.060326" ele="1852.0"/><trkpt lat="37.902687" lon="-111.060296" ele="1848.0"/><trkpt lat="37.902744" lon="-111.060227" ele="1844.0"/><trkpt lat="37.902793" lon="-111.06012" ele="1841.0"/><trkpt lat="37.902862" lon="-111.059975" ele="1839.0"/><trkpt lat="37.902999" lon="-111.059739" ele="1841.0"/><trkpt lat="37.903053" lon="-111.059639" ele="1843.0"/><trkpt lat="37.903121" lon="-111.059609" ele="1845.0"/><trkpt lat="37.90319" lon="-111.059617" ele="1845.0"/><trkpt lat="37.903285" lon="-111.059678" ele="1844.0"/><trkpt lat="37.903373" lon="-111.059754" ele="1844.0"/><trkpt lat="37.903614" lon="-111.059945" ele="1847.0"/><trkpt lat="37.904014" lon="-111.060265" ele="1847.0"/><trkpt lat="37.904216" lon="-111.060532" ele="1850.0"/><trkpt lat="37.904354" lon="-111.060883" ele="1847.0"/><trkpt lat="37.904708" lon="-111.061173" ele="1844.0"/><trkpt lat="37.904953" lon="-111.061112" ele="1848.0"/><trkpt lat="37.9053" lon="-111.061455" ele="1847.0"/><trkpt lat="37.905395" lon="-111.06173" ele="1851.0"/><trkpt lat="37.905612" lon="-111.061867" ele="1855.0"/><trkpt lat="37.905796" lon="-111.06186" ele="1855.0"/><trkpt lat="37.905883" lon="-111.061821" ele="1854.0"/><trkpt lat="37.905944" lon="-111.061646" ele="1854.0"/><trkpt lat="37.905982" lon="-111.0616" ele="1854.0"/><trkpt lat="37.906074" lon="-111.061593" ele="1854.0"/><trkpt lat="37.906173" lon="-111.061631" ele="1854.0"/><trkpt lat="37.906253" lon="-111.061768" ele="1855.0"/><trkpt lat="37.906299" lon="-111.061989" ele="1855.0"/><trkpt lat="37.906387" lon="-111.062142" ele="1856.0"/><trkpt lat="37.906383" lon="-111.06231" ele="1857.0"/><trkpt lat="37.906471" lon="-111.062348" ele="1857.0"/><trkpt lat="37.906528" lon="-111.062348" ele="1856.0"/><trkpt lat="37.906688" lon="-111.062279" ele="1855.0"/><trkpt lat="37.906784" lon="-111.062241" ele="1855.0"/><trkpt lat="37.906887" lon="-111.062249" ele="1856.0"/><trkpt lat="37.9071" lon="-111.062409" ele="1855.0"/><trkpt lat="37.907218" lon="-111.062424" ele="1856.0"/><trkpt lat="37.907485" lon="-111.062401" ele="1859.0"/><trkpt lat="37.907566" lon="-111.062447" ele="1859.0"/><trkpt lat="37.907634" lon="-111.062546" ele="1859.0"/><trkpt lat="37.907707" lon="-111.062699" ele="1857.0"/><trkpt lat="37.907772" lon="-111.063004" ele="1856.0"/><trkpt lat="37.907768" lon="-111.063355" ele="1857.0"/><trkpt lat="37.907814" lon="-111.063553" ele="1858.0"/><trkpt lat="37.907882" lon="-111.063668" ele="1859.0"/><trkpt lat="37.907939" lon="-111.063805" ele="1860.0"/><trkpt lat="37.907932" lon="-111.063965" ele="1861.0"/><trkpt lat="37.90781" lon="-111.064347" ele="1863.0"/><trkpt lat="37.907791" lon="-111.064507" ele="1865.0"/><trkpt lat="37.907817" lon="-111.064728" ele="1870.0"/><trkpt lat="37.907871" lon="-111.064889" ele="1872.0"/><trkpt lat="37.907882" lon="-111.06495" ele="1873.0"/><trkpt lat="37.907966" lon="-111.065011" ele="1870.0"/><trkpt lat="37.908107" lon="-111.065087" ele="1866.0"/><trkpt lat="37.90826" lon="-111.065133" ele="1862.0"/><trkpt lat="37.908374" lon="-111.065148" ele="1861.0"/><trkpt lat="37.908809" lon="-111.065064" ele="1869.0"/><trkpt lat="37.908958" lon="-111.065117" ele="1868.0"/><trkpt lat="37.909095" lon="-111.0653" ele="1864.0"/><trkpt lat="37.909408" lon="-111.065804" ele="1864.0"/><trkpt lat="37.909484" lon="-111.06598" ele="1866.0"/><trkpt lat="37.909572" lon="-111.066102" ele="1866.0"/><trkpt lat="37.909736" lon="-111.066132" ele="1862.0"/><trkpt lat="37.909816" lon="-111.066094" ele="1860.0"/><trkpt lat="37.909919" lon="-111.066079" ele="1859.0"/><trkpt lat="37.90998" lon="-111.066033" ele="1858.0"/><trkpt lat="37.910064" lon="-111.065774" ele="1862.0"/><trkpt lat="37.910163" lon="-111.065682" ele="1865.0"/><trkpt lat="37.910274" lon="-111.065728" ele="1866.0"/><trkpt lat="37.910415" lon="-111.065796" ele="1868.0"/><trkpt lat="37.910457" lon="-111.065896" ele="1868.0"/><trkpt lat="37.9104" lon="-111.066651" ele="1869.0"/><trkpt lat="37.910488" lon="-111.0672" ele="1872.0"/><trkpt lat="37.910675" lon="-111.067475" ele="1876.0"/><trkpt lat="37.910808" lon="-111.067566" ele="1877.0"/><trkpt lat="37.910926" lon="-111.067635" ele="1878.0"/><trkpt lat="37.911056" lon="-111.067597" ele="1876.0"/><trkpt lat="37.911117" lon="-111.067505" ele="1872.0"/><trkpt lat="37.91122" lon="-111.067246" ele="1870.0"/><trkpt lat="37.911338" lon="-111.06717" ele="1869.0"/><trkpt lat="37.911643" lon="-111.067002" ele="1873.0"/><trkpt lat="37.911769" lon="-111.067009" ele="1875.0"/><trkpt lat="37.911926" lon="-111.067086" ele="1875.0"/><trkpt lat="37.912021" lon="-111.067185" ele="1876.0"/><trkpt lat="37.912048" lon="-111.067437" ele="1874.0"/><trkpt lat="37.912078" lon="-111.068085" ele="1873.0"/><trkpt lat="37.912117" lon="-111.068337" ele="1874.0"/><trkpt lat="37.912204" lon="-111.068528" ele="1876.0"/><trkpt lat="37.912296" lon="-111.068657" ele="1879.0"/><trkpt lat="37.912395" lon="-111.068734" ele="1881.0"/><trkpt lat="37.912586" lon="-111.068886" ele="1883.0"/><trkpt lat="37.913158" lon="-111.069191" ele="1881.0"/><trkpt lat="37.913318" lon="-111.06942" ele="1880.0"/><trkpt lat="37.91344" lon="-111.069558" ele="1879.0"/><trkpt lat="37.913539" lon="-111.069619" ele="1878.0"/><trkpt lat="37.913967" lon="-111.069603" ele="1881.0"/><trkpt lat="37.914165" lon="-111.069703" ele="1884.0"/><trkpt lat="37.914352" lon="-111.069909" ele="1886.0"/><trkpt lat="37.914428" lon="-111.069939" ele="1887.0"/><trkpt lat="37.914539" lon="-111.070023" ele="1888.0"/><trkpt lat="37.914653" lon="-111.070046" ele="1888.0"/><trkpt lat="37.915046" lon="-111.070076" ele="1890.0"/><trkpt lat="37.915115" lon="-111.07" ele="1887.0"/><trkpt lat="37.915229" lon="-111.069985" ele="1884.0"/><trkpt lat="37.91539" lon="-111.069924" ele="1883.0"/><trkpt lat="37.915672" lon="-111.069787" ele="1885.0"/><trkpt lat="37.915782" lon="-111.06984" ele="1885.0"/><trkpt lat="37.915893" lon="-111.070054" ele="1885.0"/><trkpt lat="37.915958" lon="-111.070557" ele="1891.0"/><trkpt lat="37.91595" lon="-111.070702" ele="1893.0"/><trkpt lat="37.915954" lon="-111.07074" ele="1894.0"/><trkpt lat="37.915981" lon="-111.070794" ele="1894.0"/><trkpt lat="37.916259" lon="-111.071038" ele="1896.0"/><trkpt lat="37.916351" lon="-111.071106" ele="1893.0"/><trkpt lat="37.916767" lon="-111.071366" ele="1895.0"/><trkpt lat="37.916934" lon="-111.071358" ele="1896.0"/><trkpt lat="37.917179" lon="-111.071435" ele="1897.0"/><trkpt lat="37.917469" lon="-111.071549" ele="1899.0"/><trkpt lat="37.917743" lon="-111.071663" ele="1898.0"/><trkpt lat="37.917945" lon="-111.071717" ele="1897.0"/><trkpt lat="37.918384" lon="-111.071816" ele="1895.0"/><trkpt lat="37.918521" lon="-111.071854" ele="1895.0"/><trkpt lat="37.918663" lon="-111.071854" ele="1895.0"/><trkpt lat="37.918842" lon="-111.071892" ele="1897.0"/><trkpt lat="37.918975" lon="-111.07193" ele="1897.0"/><trkpt lat="37.919071" lon="-111.071908" ele="1897.0"/><trkpt lat="37.919193" lon="-111.071793" ele="1899.0"/><trkpt lat="37.919689" lon="-111.071831" ele="1901.0"/><trkpt lat="37.920124" lon="-111.07206" ele="1901.0"/><trkpt lat="37.920261" lon="-111.072121" ele="1899.0"/><trkpt lat="37.920417" lon="-111.072075" ele="1899.0"/><trkpt lat="37.920783" lon="-111.0719" ele="1901.0"/><trkpt lat="37.921047" lon="-111.071702" ele="1900.0"/><trkpt lat="37.921112" lon="-111.071717" ele="1899.0"/><trkpt lat="37.921176" lon="-111.07177" ele="1900.0"/><trkpt lat="37.921218" lon="-111.071877" ele="1901.0"/><trkpt lat="37.921241" lon="-111.071976" ele="1902.0"/><trkpt lat="37.921245" lon="-111.072083" ele="1904.0"/><trkpt lat="37.921184" lon="-111.072403" ele="1908.0"/><trkpt lat="37.921142" lon="-111.072747" ele="1908.0"/><trkpt lat="37.921104" lon="-111.072938" ele="1908.0"/><trkpt lat="37.921031" lon="-111.073159" ele="1912.0"/><trkpt lat="37.921028" lon="-111.073243" ele="1914.0"/><trkpt lat="37.921081" lon="-111.073319" ele="1911.0"/><trkpt lat="37.921245" lon="-111.073441" ele="1909.0"/><trkpt lat="37.921302" lon="-111.073472" ele="1909.0"/><trkpt lat="37.921367" lon="-111.07351" ele="1908.0"/><trkpt lat="37.921585" lon="-111.073571" ele="1906.0"/><trkpt lat="37.921615" lon="-111.073578" ele="1906.0"/><trkpt lat="37.921646" lon="-111.073586" ele="1906.0"/><trkpt lat="37.921745" lon="-111.073594" ele="1907.0"/><trkpt lat="37.921829" lon="-111.073594" ele="1908.0"/><trkpt lat="37.922359" lon="-111.07354" ele="1917.0"/><trkpt lat="37.92292" lon="-111.073502" ele="1918.0"/><trkpt lat="37.92308" lon="-111.073739" ele="1918.0"/><trkpt lat="37.923709" lon="-111.074608" ele="1949.0"/><trkpt lat="37.926113" lon="-111.075783" ele="1986.0"/><trkpt lat="37.927684" lon="-111.075974" ele="1996.0"/><trkpt lat="37.928581" lon="-111.076798" ele="1985.0"/><trkpt lat="37.930156" lon="-111.07705" ele="1993.0"/><trkpt lat="37.931072" lon="-111.076775" ele="2001.0"/><trkpt lat="37.930179" lon="-111.07605" ele="2023.0"/><trkpt lat="37.928966" lon="-111.07531" ele="2037.0"/><trkpt lat="37.926399" lon="-111.072838" ele="2017.0"/><trkpt lat="37.925052" lon="-111.071648" ele="1989.0"/><trkpt lat="37.922855" lon="-111.070977" ele="1994.0"/><trkpt lat="37.92234" lon="-111.07042" ele="1979.0"/><trkpt lat="37.922321" lon="-111.070282" ele="1976.0"/><trkpt lat="37.922214" lon="-111.07016" ele="1973.0"/><trkpt lat="37.922119" lon="-111.070107" ele="1971.0"/><trkpt lat="37.921939" lon="-111.070122" ele="1971.0"/><trkpt lat="37.921646" lon="-111.070092" ele="1978.0"/><trkpt lat="37.920902" lon="-111.070061" ele="1995.0"/><trkpt lat="37.920722" lon="-111.070183" ele="1997.0"/><trkpt lat="37.920394" lon="-111.070229" ele="2003.0"/><trkpt lat="37.919898" lon="-111.070076" ele="2011.0"/><trkpt lat="37.919731" lon="-111.069886" ele="2011.0"/><trkpt lat="37.919322" lon="-111.06997" ele="2015.0"/><trkpt lat="37.919174" lon="-111.069909" ele="2015.0"/><trkpt lat="37.918972" lon="-111.070015" ele="2022.0"/><trkpt lat="37.918193" lon="-111.069466" ele="2015.0"/><trkpt lat="37.91809" lon="-111.069405" ele="2014.0"/><trkpt lat="37.917942" lon="-111.069382" ele="2009.0"/><trkpt lat="37.9179" lon="-111.069253" ele="2007.0"/><trkpt lat="37.917903" lon="-111.069161" ele="2006.0"/><trkpt lat="37.918006" lon="-111.069008" ele="2004.0"/><trkpt lat="37.917572" lon="-111.068627" ele="1998.0"/><trkpt lat="37.917472" lon="-111.068589" ele="1998.0"/><trkpt lat="37.917469" lon="-111.068459" ele="1997.0"/><trkpt lat="37.917289" lon="-111.068383" ele="1994.0"/><trkpt lat="37.917144" lon="-111.068123" ele="1989.0"/><trkpt lat="37.916385" lon="-111.067605" ele="1987.0"/><trkpt lat="37.915985" lon="-111.067421" ele="1975.0"/><trkpt lat="37.915821" lon="-111.067429" ele="1976.0"/><trkpt lat="37.915756" lon="-111.067406" ele="1977.0"/><trkpt lat="37.91526" lon="-111.067124" ele="1980.0"/><trkpt lat="37.914566" lon="-111.066643" ele="1978.0"/><trkpt lat="37.913722" lon="-111.066453" ele="1961.0"/><trkpt lat="37.913681" lon="-111.066506" ele="1962.0"/><trkpt lat="37.913345" lon="-111.066453" ele="1952.0"/><trkpt lat="37.91296" lon="-111.066124" ele="1952.0"/><trkpt lat="37.912738" lon="-111.066109" ele="1950.0"/><trkpt lat="37.912452" lon="-111.065865" ele="1953.0"/><trkpt lat="37.912391" lon="-111.065743" ele="1952.0"/><trkpt lat="37.911849" lon="-111.065369" ele="1942.0"/><trkpt lat="37.91183" lon="-111.065262" ele="1948.0"/><trkpt lat="37.91164" lon="-111.064919" ele="1952.0"/><trkpt lat="37.911476" lon="-111.064797" ele="1951.0"/><trkpt lat="37.911262" lon="-111.064766" ele="1945.0"/><trkpt lat="37.911136" lon="-111.064675" ele="1943.0"/><trkpt lat="37.911022" lon="-111.064652" ele="1937.0"/><trkpt lat="37.910984" lon="-111.064568" ele="1941.0"/><trkpt lat="37.911018" lon="-111.064492" ele="1948.0"/><trkpt lat="37.910903" lon="-111.064362" ele="1952.0"/><trkpt lat="37.910877" lon="-111.064263" ele="1956.0"/><trkpt lat="37.910762" lon="-111.064179" ele="1957.0"/><trkpt lat="37.910758" lon="-111.064133" ele="1959.0"/><trkpt lat="37.910774" lon="-111.064095" ele="1961.0"/><trkpt lat="37.910781" lon="-111.063996" ele="1965.0"/><trkpt lat="37.910835" lon="-111.063988" ele="1967.0"/><trkpt lat="37.910854" lon="-111.063958" ele="1969.0"/><trkpt lat="37.910835" lon="-111.063904" ele="1970.0"/><trkpt lat="37.910945" lon="-111.063797" ele="1973.0"/><trkpt lat="37.910968" lon="-111.063729" ele="1974.0"/><trkpt lat="37.910942" lon="-111.063668" ele="1975.0"/><trkpt lat="37.910816" lon="-111.063599" ele="1973.0"/><trkpt lat="37.910778" lon="-111.063637" ele="1972.0"/><trkpt lat="37.91072" lon="-111.063736" ele="1970.0"/><trkpt lat="37.91053" lon="-111.063607" ele="1970.0"/><trkpt lat="37.910404" lon="-111.06353" ele="1969.0"/><trkpt lat="37.910297" lon="-111.063485" ele="1968.0"/><trkpt lat="37.910243" lon="-111.063416" ele="1970.0"/><trkpt lat="37.910091" lon="-111.06337" ele="1968.0"/><trkpt lat="37.910037" lon="-111.063263" ele="1969.0"/><trkpt lat="37.909915" lon="-111.06321" ele="1965.0"/><trkpt lat="37.90987" lon="-111.063111" ele="1966.0"/><trkpt lat="37.909717" lon="-111.062966" ele="1963.0"/><trkpt lat="37.909378" lon="-111.062752" ele="1956.0"/><trkpt lat="37.90932" lon="-111.062729" ele="1954.0"/><trkpt lat="37.909114" lon="-111.062493" ele="1955.0"/><trkpt lat="37.909099" lon="-111.062378" ele="1958.0"/><trkpt lat="37.909137" lon="-111.062371" ele="1960.0"/><trkpt lat="37.909111" lon="-111.062295" ele="1962.0"/><trkpt lat="37.909107" lon="-111.062127" ele="1963.0"/><trkpt lat="37.909175" lon="-111.062027" ele="1962.0"/><trkpt lat="37.909152" lon="-111.061966" ele="1961.0"/><trkpt lat="37.909" lon="-111.06176" ele="1953.0"/><trkpt lat="37.908935" lon="-111.061692" ele="1951.0"/><trkpt lat="37.90876" lon="-111.061524" ele="1946.0"/><trkpt lat="37.908687" lon="-111.061524" ele="1945.0"/><trkpt lat="37.908645" lon="-111.061486" ele="1944.0"/><trkpt lat="37.908584" lon="-111.061478" ele="1943.0"/><trkpt lat="37.908542" lon="-111.061432" ele="1942.0"/><trkpt lat="37.908473" lon="-111.061409" ele="1941.0"/><trkpt lat="37.908317" lon="-111.061249" ele="1937.0"/><trkpt lat="37.908245" lon="-111.061204" ele="1935.0"/><trkpt lat="37.908058" lon="-111.061127" ele="1936.0"/><trkpt lat="37.908016" lon="-111.061097" ele="1937.0"/><trkpt lat="37.907978" lon="-111.061097" ele="1936.0"/><trkpt lat="37.907909" lon="-111.061043" ele="1935.0"/><trkpt lat="37.907833" lon="-111.061036" ele="1935.0"/><trkpt lat="37.907718" lon="-111.06102" ele="1932.0"/><trkpt lat="37.907669" lon="-111.060998" ele="1930.0"/><trkpt lat="37.907657" lon="-111.061028" ele="1930.0"/><trkpt lat="37.907546" lon="-111.060975" ele="1926.0"/><trkpt lat="37.907501" lon="-111.060936" ele="1926.0"/><trkpt lat="37.907398" lon="-111.060814" ele="1930.0"/><trkpt lat="37.907314" lon="-111.060776" ele="1931.0"/><trkpt lat="37.907272" lon="-111.06073" ele="1931.0"/><trkpt lat="37.90718" lon="-111.060685" ele="1934.0"/><trkpt lat="37.907161" lon="-111.060631" ele="1935.0"/><trkpt lat="37.907119" lon="-111.060616" ele="1937.0"/><trkpt lat="37.907093" lon="-111.060578" ele="1939.0"/><trkpt lat="37.907009" lon="-111.060563" ele="1945.0"/><trkpt lat="37.906978" lon="-111.060517" ele="1945.0"/><trkpt lat="37.906932" lon="-111.060494" ele="1946.0"/><trkpt lat="37.906925" lon="-111.060448" ele="1944.0"/><trkpt lat="37.906829" lon="-111.06041" ele="1944.0"/><trkpt lat="37.906818" lon="-111.060372" ele="1943.0"/><trkpt lat="37.906776" lon="-111.060357" ele="1943.0"/><trkpt lat="37.906768" lon="-111.060341" ele="1942.0"/><trkpt lat="37.906661" lon="-111.06028" ele="1943.0"/><trkpt lat="37.906562" lon="-111.060296" ele="1946.0"/><trkpt lat="37.906532" lon="-111.06028" ele="1947.0"/><trkpt lat="37.906505" lon="-111.060235" ele="1947.0"/><trkpt lat="37.906448" lon="-111.060235" ele="1949.0"/><trkpt lat="37.906364" lon="-111.060189" ele="1950.0"/><trkpt lat="37.906322" lon="-111.060204" ele="1950.0"/><trkpt lat="37.906314" lon="-111.060235" ele="1950.0"/><trkpt lat="37.906288" lon="-111.060242" ele="1950.0"/><trkpt lat="37.906108" lon="-111.060143" ele="1949.0"/><trkpt lat="37.906032" lon="-111.060082" ele="1947.0"/><trkpt lat="37.906017" lon="-111.060044" ele="1947.0"/><trkpt lat="37.905906" lon="-111.05996" ele="1948.0"/><trkpt lat="37.905822" lon="-111.059899" ele="1948.0"/><trkpt lat="37.905788" lon="-111.059838" ele="1948.0"/><trkpt lat="37.905784" lon="-111.059792" ele="1949.0"/><trkpt lat="37.905788" lon="-111.059723" ele="1950.0"/><trkpt lat="37.905761" lon="-111.059678" ele="1949.0"/><trkpt lat="37.905719" lon="-111.059655" ele="1949.0"/><trkpt lat="37.905654" lon="-111.059639" ele="1949.0"/><trkpt lat="37.905612" lon="-111.059533" ele="1948.0"/><trkpt lat="37.905578" lon="-111.059395" ele="1946.0"/><trkpt lat="37.905487" lon="-111.059319" ele="1943.0"/><trkpt lat="37.905464" lon="-111.059273" ele="1941.0"/><trkpt lat="37.905479" lon="-111.059189" ele="1939.0"/><trkpt lat="37.905418" lon="-111.059159" ele="1938.0"/><trkpt lat="37.905376" lon="-111.059144" ele="1937.0"/><trkpt lat="37.905315" lon="-111.058999" ele="1932.0"/><trkpt lat="37.905204" lon="-111.058968" ele="1931.0"/><trkpt lat="37.905113" lon="-111.0588" ele="1927.0"/><trkpt lat="37.90504" lon="-111.058602" ele="1923.0"/><trkpt lat="37.904949" lon="-111.058487" ele="1923.0"/><trkpt lat="37.90483" lon="-111.058426" ele="1922.0"/><trkpt lat="37.904739" lon="-111.058274" ele="1922.0"/><trkpt lat="37.904663" lon="-111.058213" ele="1922.0"/><trkpt lat="37.904582" lon="-111.058182" ele="1923.0"/><trkpt lat="37.904533" lon="-111.058198" ele="1923.0"/><trkpt lat="37.904468" lon="-111.058167" ele="1923.0"/><trkpt lat="37.904392" lon="-111.05819" ele="1923.0"/><trkpt lat="37.904212" lon="-111.057984" ele="1921.0"/><trkpt lat="37.90369" lon="-111.057633" ele="1919.0"/><trkpt lat="37.903526" lon="-111.057442" ele="1919.0"/><trkpt lat="37.903465" lon="-111.057297" ele="1918.0"/><trkpt lat="37.903301" lon="-111.057129" ele="1916.0"/><trkpt lat="37.903209" lon="-111.057091" ele="1916.0"/><trkpt lat="37.903156" lon="-111.056939" ele="1913.0"/><trkpt lat="37.903018" lon="-111.056908" ele="1915.0"/><trkpt lat="37.902931" lon="-111.056763" ele="1913.0"/><trkpt lat="37.90279" lon="-111.056656" ele="1913.0"/><trkpt lat="37.902622" lon="-111.056557" ele="1913.0"/><trkpt lat="37.902557" lon="-111.056473" ele="1912.0"/><trkpt lat="37.902442" lon="-111.056397" ele="1912.0"/><trkpt lat="37.902355" lon="-111.056313" ele="1911.0"/><trkpt lat="37.90208" lon="-111.056191" ele="1910.0"/><trkpt lat="37.901931" lon="-111.055939" ele="1910.0"/><trkpt lat="37.901805" lon="-111.055825" ele="1909.0"/><trkpt lat="37.901752" lon="-111.055756" ele="1908.0"/><trkpt lat="37.901557" lon="-111.055764" ele="1908.0"/><trkpt lat="37.901424" lon="-111.055649" ele="1907.0"/><trkpt lat="37.901294" lon="-111.05568" ele="1908.0"/><trkpt lat="37.900947" lon="-111.055947" ele="1910.0"/><trkpt lat="37.900733" lon="-111.056115" ele="1911.0"/><trkpt lat="37.900596" lon="-111.05616" ele="1911.0"/><trkpt lat="37.900493" lon="-111.056321" ele="1911.0"/><trkpt lat="37.900325" lon="-111.056389" ele="1910.0"/><trkpt lat="37.900241" lon="-111.056527" ele="1909.0"/><trkpt lat="37.900154" lon="-111.056534" ele="1908.0"/><trkpt lat="37.9001" lon="-111.056649" ele="1908.0"/><trkpt lat="37.900096" lon="-111.05671" ele="1908.0"/><trkpt lat="37.900135" lon="-111.056809" ele="1908.0"/><trkpt lat="37.900108" lon="-111.05687" ele="1907.0"/><trkpt lat="37.90015" lon="-111.057068" ele="1906.0"/><trkpt lat="37.900085" lon="-111.057213" ele="1904.0"/><trkpt lat="37.900066" lon="-111.05729" ele="1903.0"/><trkpt lat="37.900104" lon="-111.057419" ele="1902.0"/><trkpt lat="37.900085" lon="-111.057541" ele="1900.0"/><trkpt lat="37.900161" lon="-111.057709" ele="1899.0"/><trkpt lat="37.900142" lon="-111.05774" ele="1898.0"/><trkpt lat="37.900127" lon="-111.05774" ele="1898.0"/><trkpt lat="37.900169" lon="-111.057847" ele="1897.0"/><trkpt lat="37.900203" lon="-111.057847" ele="1897.0"/><trkpt lat="37.900222" lon="-111.057892" ele="1897.0"/><trkpt lat="37.900302" lon="-111.057908" ele="1897.0"/><trkpt lat="37.900421" lon="-111.05803" ele="1893.0"/><trkpt lat="37.900566" lon="-111.05806" ele="1889.0"/><trkpt lat="37.900661" lon="-111.058121" ele="1882.0"/><trkpt lat="37.900707" lon="-111.058045" ele="1882.0"/><trkpt lat="37.900848" lon="-111.058121" ele="1872.0"/><trkpt lat="37.900909" lon="-111.058091" ele="1872.0"/><trkpt lat="37.900997" lon="-111.058129" ele="1868.0"/><trkpt lat="37.901077" lon="-111.058098" ele="1867.0"/><trkpt lat="37.901103" lon="-111.058068" ele="1867.0"/><trkpt lat="37.901145" lon="-111.058098" ele="1866.0"/><trkpt lat="37.901195" lon="-111.058091" ele="1865.0"/><trkpt lat="37.901226" lon="-111.058129" ele="1864.0"/><trkpt lat="37.901279" lon="-111.058106" ele="1864.0"/><trkpt lat="37.901355" lon="-111.058182" ele="1860.0"/><trkpt lat="37.901329" lon="-111.058289" ele="1856.0"/><trkpt lat="37.901393" lon="-111.058342" ele="1852.0"/><trkpt lat="37.901378" lon="-111.05848" ele="1847.0"/><trkpt lat="37.901359" lon="-111.05861" ele="1843.0"/><trkpt lat="37.901329" lon="-111.058648" ele="1843.0"/><trkpt lat="37.901336" lon="-111.058663" ele="1843.0"/><trkpt lat="37.901378" lon="-111.058686" ele="1842.0"/><trkpt lat="37.901336" lon="-111.058808" ele="1842.0"/><trkpt lat="37.901344" lon="-111.058831" ele="1842.0"/><trkpt lat="37.901416" lon="-111.058869" ele="1842.0"/><trkpt lat="37.901466" lon="-111.05896" ele="1843.0"/><trkpt lat="37.90147" lon="-111.059159" ele="1843.0"/><trkpt lat="37.901439" lon="-111.059189" ele="1843.0"/><trkpt lat="37.901473" lon="-111.059289" ele="1842.0"/><trkpt lat="37.901523" lon="-111.059319" ele="1842.0"/><trkpt lat="37.901554" lon="-111.059311" ele="1843.0"/><trkpt lat="37.901588" lon="-111.059426" ele="1841.0"/><trkpt lat="37.901245" lon="-111.059502" ele="1841.0"/><trkpt lat="37.901172" lon="-111.059617" ele="1841.0"/><trkpt lat="37.901084" lon="-111.059647" ele="1841.0"/><trkpt lat="37.900939" lon="-111.059723" ele="1844.0"/><trkpt lat="37.900611" lon="-111.059823" ele="1846.0"/><trkpt lat="37.900485" lon="-111.059845" ele="1847.0"/><trkpt lat="37.900337" lon="-111.059823" ele="1846.0"/><trkpt lat="37.900093" lon="-111.059578" ele="1846.0"/><trkpt lat="37.899967" lon="-111.059418" ele="1846.0"/><trkpt lat="37.899826" lon="-111.059197" ele="1843.0"/><trkpt lat="37.899787" lon="-111.058976" ele="1845.0"/><trkpt lat="37.899829" lon="-111.058785" ele="1849.0"/><trkpt lat="37.899799" lon="-111.058548" ele="1854.0"/><trkpt lat="37.8997" lon="-111.058381" ele="1856.0"/><trkpt lat="37.899257" lon="-111.058045" ele="1840.0"/><trkpt lat="37.898979" lon="-111.057862" ele="1834.0"/><trkpt lat="37.898609" lon="-111.057824" ele="1831.0"/><trkpt lat="37.897956" lon="-111.057808" ele="1830.0"/><trkpt lat="37.897594" lon="-111.057618" ele="1832.0"/><trkpt lat="37.897499" lon="-111.057541" ele="1831.0"/><trkpt lat="37.897258" lon="-111.057259" ele="1827.0"/><trkpt lat="37.897235" lon="-111.05716" ele="1825.0"/><trkpt lat="37.897243" lon="-111.057038" ele="1824.0"/><trkpt lat="37.897205" lon="-111.056931" ele="1823.0"/><trkpt lat="37.897064" lon="-111.056801" ele="1827.0"/><trkpt lat="37.89698" lon="-111.056786" ele="1828.0"/><trkpt lat="37.8968" lon="-111.056878" ele="1826.0"/><trkpt lat="37.896751" lon="-111.05687" ele="1825.0"/><trkpt lat="37.896644" lon="-111.056847" ele="1824.0"/><trkpt lat="37.895404" lon="-111.056183" ele="1820.0"/><trkpt lat="37.895229" lon="-111.056031" ele="1819.0"/><trkpt lat="37.895145" lon="-111.055909" ele="1820.0"/><trkpt lat="37.895095" lon="-111.055756" ele="1821.0"/><trkpt lat="37.895076" lon="-111.055489" ele="1824.0"/><trkpt lat="37.895088" lon="-111.055344" ele="1826.0"/><trkpt lat="37.895065" lon="-111.055024" ele="1838.0"/><trkpt lat="37.895042" lon="-111.054917" ele="1844.0"/><trkpt lat="37.894916" lon="-111.054787" ele="1848.0"/><trkpt lat="37.894763" lon="-111.054757" ele="1844.0"/><trkpt lat="37.894645" lon="-111.054795" ele="1838.0"/><trkpt lat="37.894508" lon="-111.054833" ele="1832.0"/><trkpt lat="37.894214" lon="-111.054917" ele="1823.0"/><trkpt lat="37.894077" lon="-111.054925" ele="1821.0"/><trkpt lat="37.893592" lon="-111.054909" ele="1823.0"/><trkpt lat="37.893497" lon="-111.054894" ele="1827.0"/><trkpt lat="37.893421" lon="-111.054841" ele="1830.0"/><trkpt lat="37.893463" lon="-111.054665" ele="1827.0"/><trkpt lat="37.893482" lon="-111.054505" ele="1825.0"/><trkpt lat="37.893501" lon="-111.054169" ele="1822.0"/><trkpt lat="37.893501" lon="-111.054017" ele="1826.0"/><trkpt lat="37.89347" lon="-111.053887" ele="1829.0"/><trkpt lat="37.893352" lon="-111.053551" ele="1836.0"/><trkpt lat="37.893318" lon="-111.053521" ele="1836.0"/><trkpt lat="37.89302" lon="-111.053299" ele="1838.0"/><trkpt lat="37.892608" lon="-111.053193" ele="1834.0"/><trkpt lat="37.892387" lon="-111.053231" ele="1827.0"/><trkpt lat="37.8922" lon="-111.053277" ele="1822.0"/><trkpt lat="37.891754" lon="-111.053536" ele="1818.0"/><trkpt lat="37.891632" lon="-111.053605" ele="1819.0"/><trkpt lat="37.891578" lon="-111.053597" ele="1820.0"/><trkpt lat="37.89154" lon="-111.053566" ele="1819.0"/><trkpt lat="37.889793" lon="-111.052117" ele="1814.0"/><trkpt lat="37.889255" lon="-111.051438" ele="1819.0"/><trkpt lat="37.888885" lon="-111.05111" ele="1834.0"/><trkpt lat="37.888614" lon="-111.050957" ele="1828.0"/><trkpt lat="37.888385" lon="-111.050896" ele="1826.0"/><trkpt lat="37.888061" lon="-111.050835" ele="1821.0"/><trkpt lat="37.887863" lon="-111.050843" ele="1817.0"/><trkpt lat="37.887523" lon="-111.050713" ele="1816.0"/><trkpt lat="37.887241" lon="-111.050568" ele="1817.0"/><trkpt lat="37.886192" lon="-111.050118" ele="1809.0"/><trkpt lat="37.885505" lon="-111.049515" ele="1808.0"/><trkpt lat="37.885208" lon="-111.049576" ele="1810.0"/><trkpt lat="37.884838" lon="-111.049805" ele="1815.0"/><trkpt lat="37.884716" lon="-111.04979" ele="1814.0"/><trkpt lat="37.883815" lon="-111.049096" ele="1800.0"/><trkpt lat="37.883396" lon="-111.048539" ele="1804.0"/><trkpt lat="37.883022" lon="-111.047898" ele="1805.0"/><trkpt lat="37.882961" lon="-111.047623" ele="1806.0"/><trkpt lat="37.882843" lon="-111.047371" ele="1807.0"/><trkpt lat="37.882469" lon="-111.047158" ele="1806.0"/><trkpt lat="37.881965" lon="-111.047005" ele="1801.0"/><trkpt lat="37.881778" lon="-111.046914" ele="1799.0"/></trkseg></trk></gpx>