<?xml version="1.0" ?><gpx xmlns="http://www.topografix.com/GPX/1/1" creator="GaiaGPS" version="1.1" xmlns:xsi="http://www.w3.org/2001/XMLSchema-instance" xsi:schemaLocation="http://www.topografix.com/GPX/1/1 http://www.topografix.com/GPX/1/1/gpx.xsd"><trk><name>Navajo Knobs</name><type>knownroute</type><trkseg><trkpt lat="38.288772" lon="-111.227715" ele="1645.0"/><trkpt lat="38.288791" lon="-111.227181" ele="1648.0"/><trkpt lat="38.288745" lon="-111.226975" ele="1648.0"/><trkpt lat="38.288715" lon="-111.226822" ele="1646.0"/><trkpt lat="38.288669" lon="-111.226639" ele="1643.0"/><trkpt lat="38.288673" lon="-111.226449" ele="1642.0"/><trkpt lat="38.288715" lon="-111.226075" ele="1640.0"/><trkpt lat="38.288684" lon="-111.226014" ele="1637.0"/><trkpt lat="38.288745" lon="-111.226006" ele="1640.0"/><trkpt lat="38.288692" lon="-111.225754" ele="1632.0"/><trkpt lat="38.288711" lon="-111.225571" ele="1629.0"/><trkpt lat="38.288803" lon="-111.225304" ele="1629.0"/><trkpt lat="38.288963" lon="-111.225136" ele="1633.0"/><trkpt lat="38.288902" lon="-111.225319" ele="1631.0"/><trkpt lat="38.288932" lon="-111.225441" ele="1635.0"/><trkpt lat="38.288845" lon="-111.225701" ele="1637.0"/><trkpt lat="38.288948" lon="-111.225876" ele="1647.0"/><trkpt lat="38.289142" lon="-111.226075" ele="1655.0"/><trkpt lat="38.289382" lon="-111.225747" ele="1658.0"/><trkpt lat="38.289413" lon="-111.226426" ele="1662.0"/><trkpt lat="38.289585" lon="-111.226334" ele="1666.0"/><trkpt lat="38.289798" lon="-111.22641" ele="1672.0"/><trkpt lat="38.28992" lon="-111.226212" ele="1673.0"/><trkpt lat="38.290035" lon="-111.226136" ele="1674.0"/><trkpt lat="38.290229" lon="-111.226197" ele="1676.0"/><trkpt lat="38.290298" lon="-111.226136" ele="1675.0"/><trkpt lat="38.290363" lon="-111.225815" ele="1675.0"/><trkpt lat="38.290485" lon="-111.225808" ele="1676.0"/><trkpt lat="38.290836" lon="-111.226365" ele="1682.0"/><trkpt lat="38.290878" lon="-111.226975" ele="1690.0"/><trkpt lat="38.291053" lon="-111.227143" ele="1690.0"/><trkpt lat="38.291103" lon="-111.227318" ele="1690.0"/><trkpt lat="38.29158" lon="-111.227822" ele="1693.0"/><trkpt lat="38.291931" lon="-111.22831" ele="1698.0"/><trkpt lat="38.291877" lon="-111.2286" ele="1703.0"/><trkpt lat="38.291908" lon="-111.229027" ele="1709.0"/><trkpt lat="38.291984" lon="-111.229287" ele="1711.0"/><trkpt lat="38.291778" lon="-111.22921" ele="1712.0"/><trkpt lat="38.291778" lon="-111.229813" ele="1713.0"/><trkpt lat="38.291698" lon="-111.229767" ele="1714.0"/><trkpt lat="38.291633" lon="-111.229882" ele="1714.0"/><trkpt lat="38.291641" lon="-111.23005" ele="1713.0"/><trkpt lat="38.291557" lon="-111.230507" ele="1722.0"/><trkpt lat="38.291435" lon="-111.230698" ele="1724.0"/><trkpt lat="38.291408" lon="-111.230958" ele="1726.0"/><trkpt lat="38.291412" lon="-111.231278" ele="1711.0"/><trkpt lat="38.291683" lon="-111.231904" ele="1678.0"/><trkpt lat="38.291744" lon="-111.2323" ele="1666.0"/><trkpt lat="38.293048" lon="-111.232476" ele="1670.0"/><trkpt lat="38.293136" lon="-111.232522" ele="1668.0"/><trkpt lat="38.293174" lon="-111.232735" ele="1669.0"/><trkpt lat="38.293067" lon="-111.232956" ele="1667.0"/><trkpt lat="38.292697" lon="-111.233323" ele="1671.0"/><trkpt lat="38.292663" lon="-111.233422" ele="1672.0"/><trkpt lat="38.292675" lon="-111.233765" ele="1674.0"/><trkpt lat="38.292621" lon="-111.233933" ele="1675.0"/><trkpt lat="38.292629" lon="-111.234124" ele="1676.0"/><trkpt lat="38.292743" lon="-111.23452" ele="1680.0"/><trkpt lat="38.292758" lon="-111.234734" ele="1679.0"/><trkpt lat="38.292835" lon="-111.234879" ele="1682.0"/><trkpt lat="38.292953" lon="-111.235024" ele="1686.0"/><trkpt lat="38.293415" lon="-111.235344" ele="1690.0"/><trkpt lat="38.29264" lon="-111.235909" ele="1696.0"/><trkpt lat="38.292198" lon="-111.236428" ele="1710.0"/><trkpt lat="38.292156" lon="-111.236954" ele="1720.0"/><trkpt lat="38.292011" lon="-111.237214" ele="1727.0"/><trkpt lat="38.291801" lon="-111.238137" ele="1740.0"/><trkpt lat="38.291557" lon="-111.238595" ele="1745.0"/><trkpt lat="38.291332" lon="-111.239258" ele="1749.0"/><trkpt lat="38.291416" lon="-111.239647" ele="1744.0"/><trkpt lat="38.291713" lon="-111.239884" ele="1727.0"/><trkpt lat="38.291919" lon="-111.239853" ele="1722.0"/><trkpt lat="38.292453" lon="-111.23996" ele="1715.0"/><trkpt lat="38.292591" lon="-111.239899" ele="1719.0"/><trkpt lat="38.292835" lon="-111.239968" ele="1720.0"/><trkpt lat="38.292816" lon="-111.240387" ele="1712.0"/><trkpt lat="38.292709" lon="-111.240647" ele="1705.0"/><trkpt lat="38.292568" lon="-111.240838" ele="1706.0"/><trkpt lat="38.292026" lon="-111.241204" ele="1699.0"/><trkpt lat="38.291957" lon="-111.241349" ele="1698.0"/><trkpt lat="38.291645" lon="-111.242302" ele="1662.0"/><trkpt lat="38.291584" lon="-111.242875" ele="1662.0"/><trkpt lat="38.291442" lon="-111.243165" ele="1662.0"/><trkpt lat="38.291252" lon="-111.243424" ele="1664.0"/><trkpt lat="38.291168" lon="-111.243462" ele="1664.0"/><trkpt lat="38.291233" lon="-111.243531" ele="1667.0"/><trkpt lat="38.291168" lon="-111.243928" ele="1678.0"/><trkpt lat="38.291206" lon="-111.24408" ele="1683.0"/><trkpt lat="38.291461" lon="-111.244286" ele="1691.0"/><trkpt lat="38.292072" lon="-111.244561" ele="1715.0"/><trkpt lat="38.292114" lon="-111.244858" ele="1727.0"/><trkpt lat="38.292053" lon="-111.245293" ele="1730.0"/><trkpt lat="38.292087" lon="-111.246018" ele="1730.0"/><trkpt lat="38.291984" lon="-111.24627" ele="1728.0"/><trkpt lat="38.291992" lon="-111.246453" ele="1728.0"/><trkpt lat="38.291618" lon="-111.24701" ele="1728.0"/><trkpt lat="38.291133" lon="-111.247483" ele="1729.0"/><trkpt lat="38.290977" lon="-111.247902" ele="1714.0"/><trkpt lat="38.291" lon="-111.248185" ele="1699.0"/><trkpt lat="38.291149" lon="-111.248581" ele="1687.0"/><trkpt lat="38.291122" lon="-111.248879" ele="1685.0"/><trkpt lat="38.291217" lon="-111.249268" ele="1699.0"/><trkpt lat="38.291347" lon="-111.249352" ele="1702.0"/><trkpt lat="38.29169" lon="-111.249405" ele="1699.0"/><trkpt lat="38.2919" lon="-111.249558" ele="1703.0"/><trkpt lat="38.292385" lon="-111.249589" ele="1715.0"/><trkpt lat="38.292625" lon="-111.249657" ele="1719.0"/><trkpt lat="38.292976" lon="-111.249634" ele="1720.0"/><trkpt lat="38.293067" lon="-111.249543" ele="1720.0"/><trkpt lat="38.293064" lon="-111.249466" ele="1719.0"/><trkpt lat="38.293338" lon="-111.249337" ele="1727.0"/><trkpt lat="38.293807" lon="-111.249436" ele="1734.0"/><trkpt lat="38.294216" lon="-111.249383" ele="1733.0"/><trkpt lat="38.294544" lon="-111.249604" ele="1733.0"/><trkpt lat="38.294574" lon="-111.249672" ele="1732.0"/><trkpt lat="38.294525" lon="-111.249878" ele="1734.0"/><trkpt lat="38.294399" lon="-111.250168" ele="1728.0"/><trkpt lat="38.294303" lon="-111.250252" ele="1725.0"/><trkpt lat="38.294193" lon="-111.250573" ele="1728.0"/><trkpt lat="38.294155" lon="-111.250809" ele="1732.0"/><trkpt lat="38.294216" lon="-111.251107" ele="1734.0"/><trkpt lat="38.294345" lon="-111.251343" ele="1738.0"/><trkpt lat="38.294509" lon="-111.251488" ele="1741.0"/><trkpt lat="38.295192" lon="-111.251595" ele="1746.0"/><trkpt lat="38.295509" lon="-111.251893" ele="1749.0"/><trkpt lat="38.295688" lon="-111.252129" ele="1755.0"/><trkpt lat="38.295753" lon="-111.252366" ele="1754.0"/><trkpt lat="38.295742" lon="-111.252892" ele="1753.0"/><trkpt lat="38.295623" lon="-111.253418" ele="1800.0"/><trkpt lat="38.295513" lon="-111.253617" ele="1813.0"/><trkpt lat="38.295555" lon="-111.253701" ele="1818.0"/><trkpt lat="38.295398" lon="-111.253945" ele="1831.0"/><trkpt lat="38.295139" lon="-111.254189" ele="1839.0"/><trkpt lat="38.295066" lon="-111.254418" ele="1846.0"/><trkpt lat="38.29504" lon="-111.254723" ele="1853.0"/><trkpt lat="38.295124" lon="-111.254822" ele="1854.0"/><trkpt lat="38.295112" lon="-111.254891" ele="1855.0"/><trkpt lat="38.295433" lon="-111.254982" ele="1846.0"/><trkpt lat="38.295665" lon="-111.254853" ele="1844.0"/><trkpt lat="38.295917" lon="-111.254799" ele="1842.0"/><trkpt lat="38.296623" lon="-111.254693" ele="1842.0"/><trkpt lat="38.297241" lon="-111.254723" ele="1835.0"/><trkpt lat="38.297344" lon="-111.254647" ele="1837.0"/><trkpt lat="38.298099" lon="-111.254921" ele="1802.0"/><trkpt lat="38.298358" lon="-111.254937" ele="1785.0"/><trkpt lat="38.29853" lon="-111.254868" ele="1770.0"/><trkpt lat="38.298736" lon="-111.255005" ele="1738.0"/><trkpt lat="38.299251" lon="-111.255044" ele="1647.0"/><trkpt lat="38.299522" lon="-111.254906" ele="1657.0"/><trkpt lat="38.299659" lon="-111.255036" ele="1651.0"/><trkpt lat="38.299987" lon="-111.255051" ele="1654.0"/><trkpt lat="38.300251" lon="-111.255173" ele="1657.0"/><trkpt lat="38.300479" lon="-111.25541" ele="1654.0"/><trkpt lat="38.300743" lon="-111.2556" ele="1654.0"/><trkpt lat="38.301097" lon="-111.255662" ele="1657.0"/><trkpt lat="38.301464" lon="-111.256012" ele="1650.0"/><trkpt lat="38.301986" lon="-111.256135" ele="1650.0"/><trkpt lat="38.30204" lon="-111.256257" ele="1652.0"/><trkpt lat="38.302158" lon="-111.256295" ele="1656.0"/><trkpt lat="38.302688" lon="-111.256127" ele="1683.0"/><trkpt lat="38.302803" lon="-111.256157" ele="1688.0"/><trkpt lat="38.303153" lon="-111.256531" ele="1691.0"/><trkpt lat="38.303424" lon="-111.256608" ele="1700.0"/><trkpt lat="38.303577" lon="-111.257218" ele="1768.0"/><trkpt lat="38.303699" lon="-111.257424" ele="1774.0"/><trkpt lat="38.304019" lon="-111.257332" ele="1775.0"/><trkpt lat="38.305088" lon="-111.257477" ele="1804.0"/><trkpt lat="38.30529" lon="-111.257424" ele="1806.0"/><trkpt lat="38.305416" lon="-111.257599" ele="1880.0"/><trkpt lat="38.305526" lon="-111.257592" ele="1890.0"/><trkpt lat="38.305622" lon="-111.257859" ele="1933.0"/><trkpt lat="38.305603" lon="-111.257988" ele="1934.0"/><trkpt lat="38.305133" lon="-111.258484" ele="1938.0"/><trkpt lat="38.304775" lon="-111.259057" ele="1948.0"/><trkpt lat="38.304477" lon="-111.259797" ele="1958.0"/><trkpt lat="38.304466" lon="-111.26017" ele="1962.0"/><trkpt lat="38.304565" lon="-111.260605" ele="1970.0"/><trkpt lat="38.304508" lon="-111.260682" ele="1967.0"/><trkpt lat="38.304496" lon="-111.260788" ele="1967.0"/><trkpt lat="38.304748" lon="-111.261483" ele="1980.0"/><trkpt lat="38.304954" lon="-111.261635" ele="1984.0"/><trkpt lat="38.305255" lon="-111.262124" ele="1991.0"/><trkpt lat="38.30545" lon="-111.262291" ele="2001.0"/><trkpt lat="38.305603" lon="-111.262696" ele="2007.0"/><trkpt lat="38.305503" lon="-111.26297" ele="2002.0"/><trkpt lat="38.305507" lon="-111.263199" ele="2004.0"/><trkpt lat="38.305442" lon="-111.263505" ele="2010.0"/><trkpt lat="38.305335" lon="-111.263718" ele="2016.0"/><trkpt lat="38.305236" lon="-111.263756" ele="2017.0"/><trkpt lat="38.304946" lon="-111.263527" ele="2009.0"/><trkpt lat="38.304691" lon="-111.263939" ele="2025.0"/><trkpt lat="38.304634" lon="-111.264481" ele="2029.0"/><trkpt lat="38.304706" lon="-111.264756" ele="2030.0"/><trkpt lat="38.304603" lon="-111.265206" ele="2035.0"/><trkpt lat="38.304508" lon="-111.265358" ele="2034.0"/><trkpt lat="38.304237" lon="-111.266228" ele="2029.0"/><trkpt lat="38.304237" lon="-111.266335" ele="2030.0"/><trkpt lat="38.304534" lon="-111.2668" ele="2040.0"/><trkpt lat="38.304561" lon="-111.266968" ele="2040.0"/><trkpt lat="38.30474" lon="-111.26719" ele="2045.0"/><trkpt lat="38.305198" lon="-111.267128" ele="2067.0"/><trkpt lat="38.305419" lon="-111.267212" ele="2066.0"/><trkpt lat="38.305679" lon="-111.267235" ele="2062.0"/><trkpt lat="38.305786" lon="-111.267151" ele="2064.0"/><trkpt lat="38.305877" lon="-111.267197" ele="2062.0"/><trkpt lat="38.306064" lon="-111.267434" ele="2056.0"/><trkpt lat="38.306011" lon="-111.267754" ele="2049.0"/><trkpt lat="38.30611" lon="-111.268021" ele="2054.0"/><trkpt lat="38.306125" lon="-111.268265" ele="2057.0"/><trkpt lat="38.306034" lon="-111.268418" ele="2057.0"/><trkpt lat="38.305576" lon="-111.268601" ele="2050.0"/><trkpt lat="38.305492" lon="-111.268723" ele="2052.0"/><trkpt lat="38.305427" lon="-111.269051" ele="2058.0"/><trkpt lat="38.305446" lon="-111.269303" ele="2066.0"/><trkpt lat="38.305301" lon="-111.2697" ele="2075.0"/><trkpt lat="38.305335" lon="-111.269928" ele="2084.0"/><trkpt lat="38.305416" lon="-111.269951" ele="2089.0"/><trkpt lat="38.30553" lon="-111.269822" ele="2091.0"/><trkpt lat="38.305603" lon="-111.269814" ele="2093.0"/><trkpt lat="38.305644" lon="-111.2697" ele="2091.0"/><trkpt lat="38.305759" lon="-111.269646" ele="2092.0"/><trkpt lat="38.305889" lon="-111.269722" ele="2096.0"/><trkpt lat="38.305866" lon="-111.269875" ele="2099.0"/><trkpt lat="38.305755" lon="-111.269913" ele="2099.0"/></trkseg></trk></gpx>